{"type":"FeatureCollection","features":[{"type":"Feature","properties":{"role":"treatment_block"},"geometry":{"type":"Polygon","coordinates":[[[-120.63635,39.762899],[-120.636333,39.75188],[-120.617389,39.751813],[-120.617391,39.748149],[-120.617378,39.748144],[-120.607918,39.748115],[-120.607941,39.733471],[-120.612673,39.733493],[-120.612679,39.72986],[-120.607949,39.729833],[-120.607973,39.718941],[-120.615681,39.718972],[-120.616294,39.720298],[-120.616492,39.720464],[-120.616806,39.720626],[-120.617177,39.720884],[-120.617585,39.721143],[-120.61781,39.721326],[-120.618043,39.72149],[-120.618324,39.72168],[-120.618408,39.721709],[-120.618413,39.721749],[-120.619622,39.722493],[-120.619965,39.722743],[-120.61968,39.722338],[-120.626475,39.731656],[-120.626698,39.73175],[-120.626042,39.732018],[-120.624925,39.732195],[-120.623393,39.732667],[-120.622881,39.733181],[-120.622853,39.73419],[-120.622795,39.734804],[-120.622594,39.735258],[-120.621906,39.735344],[-120.621051,39.735412],[-120.620926,39.735409],[-120.619921,39.737387],[-120.619596,39.739649],[-120.618308,39.741492],[-120.618222,39.741539],[-120.61864,39.741533],[-120.618964,39.741395],[-120.619152,39.741224],[-120.619569,39.74102],[-120.619846,39.740923],[-120.620345,39.740969],[-120.620661,39.741043],[-120.620822,39.740621],[-120.62094,39.740519],[-120.620989,39.740176],[-120.620627,39.739368],[-120.620709,39.739088],[-120.620809,39.738943],[-120.621036,39.73879],[-120.621713,39.738803],[-120.621729,39.738823],[-120.62184,39.738825],[-120.62264,39.738623],[-120.623281,39.738722],[-120.623929,39.738478],[-120.624158,39.73845],[-120.624476,39.738274],[-120.624974,39.73823],[-120.625127,39.738298],[-120.625256,39.738258],[-120.625427,39.738094],[-120.625842,39.737876],[-120.626067,39.737658],[-120.626151,39.737474],[-120.626443,39.737484],[-120.626719,39.737523],[-120.626974,39.737606],[-120.627183,39.737595],[-120.627409,39.737767],[-120.627226,39.737886],[-120.627539,39.738146],[-120.627772,39.738439],[-120.627832,39.738546],[-120.62821,39.738529],[-120.628485,39.738438],[-120.629288,39.737945],[-120.629657,39.737888],[-120.629947,39.737982],[-120.629966,39.737979],[-120.630434,39.737798],[-120.630827,39.737603],[-120.631147,39.737264],[-120.631157,39.736978],[-120.631034,39.736523],[-120.631281,39.736075],[-120.63229,39.73544],[-120.632979,39.735168],[-120.633523,39.73506],[-120.633932,39.735271],[-120.634174,39.735419],[-120.63429,39.735287],[-120.634273,39.735249],[-120.634317,39.735232],[-120.634323,39.735251],[-120.634463,39.735091],[-120.636219,39.734762],[-120.636367,39.734633],[-120.636923,39.734474],[-120.637132,39.734693],[-120.636961,39.73519],[-120.636918,39.735534],[-120.636808,39.736045],[-120.636724,39.736687],[-120.636488,39.737278],[-120.63615,39.737676],[-120.636033,39.737948],[-120.635497,39.738723],[-120.635113,39.739109],[-120.634952,39.73932],[-120.634749,39.73984],[-120.634642,39.740255],[-120.634435,39.740895],[-120.634286,39.741189],[-120.63424,39.741627],[-120.63414,39.741957],[-120.634226,39.742248],[-120.634532,39.742195],[-120.634837,39.742089],[-120.635037,39.742039],[-120.635225,39.742007],[-120.63546,39.741992],[-120.635073,39.742045],[-120.634522,39.742268],[-120.634528,39.742392],[-120.634616,39.742537],[-120.634653,39.742761],[-120.634399,39.743136],[-120.63416,39.743392],[-120.634013,39.743674],[-120.633912,39.743995],[-120.633788,39.74422],[-120.633724,39.744302],[-120.633869,39.744663],[-120.633939,39.744704],[-120.634535,39.744446],[-120.634708,39.744311],[-120.634879,39.744294],[-120.635107,39.743901],[-120.635266,39.743927],[-120.635357,39.743897],[-120.635651,39.743696],[-120.635799,39.743745],[-120.636104,39.743558],[-120.636241,39.743611],[-120.63687,39.743388],[-120.63702,39.74353],[-120.636356,39.743846],[-120.635871,39.743934],[-120.635814,39.744041],[-120.635558,39.744154],[-120.635383,39.744425],[-120.63523,39.744548],[-120.635196,39.744542],[-120.634888,39.744589],[-120.634775,39.744594],[-120.634638,39.744693],[-120.634521,39.744816],[-120.634566,39.744878],[-120.634578,39.745002],[-120.634568,39.745073],[-120.634525,39.745153],[-120.634493,39.745195],[-120.634472,39.745198],[-120.634442,39.745255],[-120.634254,39.745291],[-120.634095,39.745662],[-120.634102,39.745911],[-120.634064,39.746019],[-120.634055,39.746141],[-120.634083,39.746379],[-120.633833,39.746612],[-120.633662,39.746656],[-120.633391,39.746749],[-120.633,39.747115],[-120.632766,39.747286],[-120.632771,39.747702],[-120.63283,39.747968],[-120.632728,39.748064],[-120.632675,39.748085],[-120.632513,39.748247],[-120.632537,39.748386],[-120.632017,39.748725],[-120.631919,39.748725],[-120.631636,39.749128],[-120.631633,39.749356],[-120.631789,39.749675],[-120.631877,39.749759],[-120.632163,39.749556],[-120.632229,39.749473],[-120.632355,39.749414],[-120.632434,39.749384],[-120.632826,39.749369],[-120.633174,39.749169],[-120.633228,39.748962],[-120.633514,39.748808],[-120.633537,39.748698],[-120.633638,39.748509],[-120.633781,39.748472],[-120.633763,39.748394],[-120.63382,39.748325],[-120.633836,39.748218],[-120.633894,39.748107],[-120.633877,39.748107],[-120.63406,39.748062],[-120.634254,39.748205],[-120.634193,39.748322],[-120.634163,39.748457],[-120.633995,39.748534],[-120.633952,39.748928],[-120.633879,39.749104],[-120.633416,39.749424],[-120.633274,39.749451],[-120.633197,39.749546],[-120.633036,39.749668],[-120.632752,39.749699],[-120.632478,39.749776],[-120.632325,39.74999],[-120.63218,39.750126],[-120.631949,39.750434],[-120.631764,39.750582],[-120.631761,39.750685],[-120.631681,39.750751],[-120.631582,39.750784],[-120.631729,39.751193],[-120.631722,39.751312],[-120.631789,39.751399],[-120.631788,39.751578],[-120.636255,39.751705],[-120.63636,39.751675],[-120.636567,39.751715],[-120.63688,39.751679],[-120.637012,39.751684],[-120.637157,39.751661],[-120.637465,39.751691],[-120.637833,39.75161],[-120.638149,39.75149],[-120.638398,39.751448],[-120.638867,39.751256],[-120.638997,39.751254],[-120.639106,39.751147],[-120.639176,39.750962],[-120.639304,39.750921],[-120.639525,39.750973],[-120.639663,39.750938],[-120.639802,39.75095],[-120.639852,39.750968],[-120.640084,39.750913],[-120.640394,39.750732],[-120.640563,39.750556],[-120.640767,39.750517],[-120.640874,39.750449],[-120.640928,39.750388],[-120.640945,39.750244],[-120.640974,39.750152],[-120.640966,39.74997],[-120.641168,39.749762],[-120.641282,39.749703],[-120.641429,39.74947],[-120.64201,39.748997],[-120.64181,39.748742],[-120.641695,39.748655],[-120.641777,39.748466],[-120.641679,39.74817],[-120.641701,39.74803],[-120.641744,39.747985],[-120.64172,39.747956],[-120.641691,39.747948],[-120.641794,39.747911],[-120.641867,39.747811],[-120.642187,39.747543],[-120.642094,39.747156],[-120.64231,39.746721],[-120.642446,39.746654],[-120.642418,39.746523],[-120.642666,39.74639],[-120.642678,39.746304],[-120.642618,39.746162],[-120.64269,39.746064],[-120.642855,39.746082],[-120.643021,39.746063],[-120.643102,39.745968],[-120.64328,39.745951],[-120.64343,39.745829],[-120.643267,39.745754],[-120.643241,39.745619],[-120.643086,39.745433],[-120.643025,39.74541],[-120.643093,39.745386],[-120.64307,39.745338],[-120.643341,39.745298],[-120.644256,39.744988],[-120.64425,39.745041],[-120.64439,39.744959],[-120.644594,39.744801],[-120.644918,39.744546],[-120.645051,39.744414],[-120.645233,39.744211],[-120.645587,39.74374],[-120.646116,39.74294],[-120.64693,39.74165],[-120.647691,39.740549],[-120.648216,39.739866],[-120.648616,39.739423],[-120.649139,39.738803],[-120.649974,39.737919],[-120.650122,39.737775],[-120.650141,39.737801],[-120.650315,39.737576],[-120.650411,39.737527],[-120.6515,39.736635],[-120.652574,39.735594],[-120.652905,39.735114],[-120.653283,39.734284],[-120.653482,39.733936],[-120.65364,39.73375],[-120.654074,39.733336],[-120.654232,39.733141],[-120.654736,39.732376],[-120.65538,39.731299],[-120.656208,39.729796],[-120.661292,39.730011],[-120.66248,39.730653],[-120.66243,39.730723],[-120.662156,39.730981],[-120.661255,39.731497],[-120.660986,39.732012],[-120.660514,39.732489],[-120.660443,39.733096],[-120.660689,39.733487],[-120.660786,39.733889],[-120.660375,39.734553],[-120.660402,39.73484],[-120.660362,39.735468],[-120.659444,39.735359],[-120.659618,39.735458],[-120.659831,39.735515],[-120.659938,39.735589],[-120.659978,39.735656],[-120.659987,39.73573],[-120.659965,39.735802],[-120.659914,39.735865],[-120.659795,39.735926],[-120.659652,39.735937],[-120.659348,39.735861],[-120.6591,39.735722],[-120.658448,39.735719],[-120.658147,39.735913],[-120.657935,39.735893],[-120.657504,39.736053],[-120.657003,39.736314],[-120.656864,39.736576],[-120.656797,39.736608],[-120.656421,39.736716],[-120.656193,39.736869],[-120.655477,39.737123],[-120.655088,39.737297],[-120.654694,39.737361],[-120.654575,39.737359],[-120.654253,39.73763],[-120.653847,39.737817],[-120.653538,39.737991],[-120.653455,39.738006],[-120.65321,39.737876],[-120.653059,39.737959],[-120.652723,39.738236],[-120.652331,39.738531],[-120.651868,39.738804],[-120.651569,39.739013],[-120.651291,39.739236],[-120.65125,39.73923],[-120.651204,39.73983],[-120.650977,39.740052],[-120.650637,39.740146],[-120.650237,39.740308],[-120.649952,39.740494],[-120.649784,39.740717],[-120.649656,39.74103],[-120.649219,39.741406],[-120.649004,39.741684],[-120.648977,39.742068],[-120.648824,39.742257],[-120.648556,39.742387],[-120.64829,39.742449],[-120.648054,39.742523],[-120.647887,39.742744],[-120.647692,39.743042],[-120.647131,39.743323],[-120.646908,39.743579],[-120.646739,39.744047],[-120.64621,39.744422],[-120.646035,39.744923],[-120.645849,39.745014],[-120.645777,39.748222],[-120.645825,39.762952],[-120.63635,39.762899]],[[-120.616494,39.746635],[-120.616041,39.746259],[-120.615947,39.745918],[-120.616039,39.745667],[-120.616065,39.745457],[-120.616103,39.745396],[-120.616103,39.745133],[-120.616136,39.744967],[-120.616208,39.744865],[-120.616259,39.744753],[-120.616231,39.744665],[-120.616185,39.744627],[-120.61589,39.744734],[-120.615654,39.74487],[-120.615433,39.745051],[-120.615265,39.745252],[-120.615131,39.74552],[-120.61486,39.746292],[-120.614702,39.74669],[-120.614576,39.746906],[-120.614363,39.747145],[-120.614205,39.747274],[-120.613982,39.74742],[-120.613584,39.747584],[-120.613233,39.747672],[-120.612592,39.747762],[-120.612564,39.747832],[-120.612553,39.747977],[-120.612676,39.748035],[-120.613517,39.748005],[-120.614078,39.748],[-120.614257,39.747961],[-120.614447,39.747881],[-120.614864,39.747533],[-120.615633,39.747167],[-120.615657,39.747107],[-120.616086,39.746971],[-120.61634,39.746832],[-120.616494,39.746635]]]}}]}