{"type":"FeatureCollection","features":[{"type":"Feature","properties":{"unit_id":101,"landing_id":1,"elev":5555.3,"corridors_ok":0,"coverage_pct":0.0},"geometry":{"type":"Point","coordinates":[-120.65144,39.73659]}},{"type":"Feature","properties":{"unit_id":101,"landing_id":2,"elev":5543.5,"corridors_ok":0,"coverage_pct":0.0},"geometry":{"type":"Point","coordinates":[-120.6524,39.73702]}},{"type":"Feature","properties":{"unit_id":101,"landing_id":3,"elev":5716.3,"corridors_ok":5,"coverage_pct":28.4},"geometry":{"type":"Point","coordinates":[-120.65645,39.72938]}},{"type":"Feature","properties":{"unit_id":101,"landing_id":4,"elev":5688.2,"corridors_ok":7,"coverage_pct":32.2},"geometry":{"type":"Point","coordinates":[-120.6559,39.7304]}},{"type":"Feature","properties":{"unit_id":101,"landing_id":5,"elev":5660.4,"corridors_ok":4,"coverage_pct":24.1},"geometry":{"type":"Point","coordinates":[-120.65535,39.73141]}},{"type":"Feature","properties":{"unit_id":101,"landing_id":6,"elev":5633.9,"corridors_ok":2,"coverage_pct":17.6},"geometry":{"type":"Point","coordinates":[-120.65475,39.7324]}},{"type":"Feature","properties":{"unit_id":101,"landing_id":7,"elev":5606.6,"corridors_ok":0,"coverage_pct":0.0},"geometry":{"type":"Point","coordinates":[-120.65393,39.7333]}},{"type":"Feature","properties":{"unit_id":101,"landing_id":8,"elev":5590.4,"corridors_ok":0,"coverage_pct":0.0},"geometry":{"type":"Point","coordinates":[-120.65327,39.73426]}},{"type":"Feature","properties":{"unit_id":101,"landing_id":9,"elev":5579.7,"corridors_ok":0,"coverage_pct":0.0},"geometry":{"type":"Point","coordinates":[-120.65276,39.73529]}},{"type":"Feature","properties":{"unit_id":101,"landing_id":10,"elev":5565.0,"corridors_ok":0,"coverage_pct":0.0},"geometry":{"type":"Point","coordinates":[-120.65196,39.73619]}},{"type":"Feature","properties":{"unit_id":102,"landing_id":1,"elev":5555.3,"corridors_ok":1,"coverage_pct":1.9},"geometry":{"type":"Point","coordinates":[-120.65144,39.73659]}},{"type":"Feature","properties":{"unit_id":102,"landing_id":2,"elev":5573.3,"corridors_ok":0,"coverage_pct":0.0},"geometry":{"type":"Point","coordinates":[-120.65241,39.73577]}},{"type":"Feature","properties":{"unit_id":102,"landing_id":3,"elev":5546.7,"corridors_ok":3,"coverage_pct":3.9},"geometry":{"type":"Point","coordinates":[-120.65094,39.73695]}},{"type":"Feature","properties":{"unit_id":102,"landing_id":4,"elev":5520.9,"corridors_ok":0,"coverage_pct":0.0},"geometry":{"type":"Point","coordinates":[-120.64954,39.73819]}},{"type":"Feature","properties":{"unit_id":102,"landing_id":5,"elev":5494.6,"corridors_ok":0,"coverage_pct":0.0},"geometry":{"type":"Point","coordinates":[-120.64851,39.73964]}},{"type":"Feature","properties":{"unit_id":102,"landing_id":6,"elev":5462.1,"corridors_ok":0,"coverage_pct":0.0},"geometry":{"type":"Point","coordinates":[-120.64749,39.74108]}},{"type":"Feature","properties":{"unit_id":102,"landing_id":7,"elev":5427.8,"corridors_ok":1,"coverage_pct":10.0},"geometry":{"type":"Point","coordinates":[-120.64647,39.74253]}},{"type":"Feature","properties":{"unit_id":102,"landing_id":8,"elev":5392.1,"corridors_ok":10,"coverage_pct":9.8},"geometry":{"type":"Point","coordinates":[-120.64545,39.74397]}},{"type":"Feature","properties":{"unit_id":102,"landing_id":9,"elev":5355.0,"corridors_ok":1,"coverage_pct":2.9},"geometry":{"type":"Point","coordinates":[-120.64395,39.74512]}},{"type":"Feature","properties":{"unit_id":103,"landing_id":1,"elev":5403.8,"corridors_ok":0,"coverage_pct":0.0},"geometry":{"type":"Point","coordinates":[-120.64579,39.74349]}},{"type":"Feature","properties":{"unit_id":103,"landing_id":2,"elev":5380.1,"corridors_ok":3,"coverage_pct":10.7},"geometry":{"type":"Point","coordinates":[-120.64505,39.74443]}},{"type":"Feature","properties":{"unit_id":103,"landing_id":3,"elev":5355.0,"corridors_ok":10,"coverage_pct":18.3},"geometry":{"type":"Point","coordinates":[-120.64395,39.74512]}},{"type":"Feature","properties":{"unit_id":103,"landing_id":4,"elev":5331.3,"corridors_ok":0,"coverage_pct":0.0},"geometry":{"type":"Point","coordinates":[-120.64259,39.74541]}},{"type":"Feature","properties":{"unit_id":103,"landing_id":5,"elev":5168.8,"corridors_ok":8,"coverage_pct":9.9},"geometry":{"type":"Point","coordinates":[-120.64472,39.74892]}},{"type":"Feature","properties":{"unit_id":103,"landing_id":6,"elev":5143.7,"corridors_ok":11,"coverage_pct":21.4},"geometry":{"type":"Point","coordinates":[-120.64396,39.74984]}},{"type":"Feature","properties":{"unit_id":103,"landing_id":7,"elev":5136.7,"corridors_ok":7,"coverage_pct":25.7},"geometry":{"type":"Point","coordinates":[-120.64318,39.75076]}},{"type":"Feature","properties":{"unit_id":103,"landing_id":8,"elev":5127.8,"corridors_ok":3,"coverage_pct":10.8},"geometry":{"type":"Point","coordinates":[-120.64283,39.75182]}},{"type":"Feature","properties":{"unit_id":103,"landing_id":9,"elev":5127.6,"corridors_ok":2,"coverage_pct":16.6},"geometry":{"type":"Point","coordinates":[-120.64273,39.75292]}},{"type":"Feature","properties":{"unit_id":103,"landing_id":10,"elev":5143.7,"corridors_ok":15,"coverage_pct":29.6},"geometry":{"type":"Point","coordinates":[-120.64263,39.75401]}},{"type":"Feature","properties":{"unit_id":103,"landing_id":11,"elev":5110.8,"corridors_ok":0,"coverage_pct":0.0},"geometry":{"type":"Point","coordinates":[-120.64185,39.75491]}},{"type":"Feature","properties":{"unit_id":401,"landing_id":1,"elev":4514.1,"corridors_ok":0,"coverage_pct":0.0},"geometry":{"type":"Point","coordinates":[-120.64215,39.76421]}},{"type":"Feature","properties":{"unit_id":401,"landing_id":2,"elev":4518.7,"corridors_ok":0,"coverage_pct":0.0},"geometry":{"type":"Point","coordinates":[-120.64278,39.76396]}},{"type":"Feature","properties":{"unit_id":401,"landing_id":3,"elev":4515.5,"corridors_ok":0,"coverage_pct":0.0},"geometry":{"type":"Point","coordinates":[-120.64349,39.76397]}},{"type":"Feature","properties":{"unit_id":104,"landing_id":1,"elev":5138.9,"corridors_ok":0,"coverage_pct":0.0},"geometry":{"type":"Point","coordinates":[-120.64268,39.75346]}},{"type":"Feature","properties":{"unit_id":104,"landing_id":2,"elev":5132.6,"corridors_ok":6,"coverage_pct":2.9},"geometry":{"type":"Point","coordinates":[-120.64229,39.75448]}},{"type":"Feature","properties":{"unit_id":104,"landing_id":3,"elev":5094.6,"corridors_ok":1,"coverage_pct":1.7},"geometry":{"type":"Point","coordinates":[-120.64136,39.75531]}},{"type":"Feature","properties":{"unit_id":104,"landing_id":4,"elev":5065.7,"corridors_ok":0,"coverage_pct":0.0},"geometry":{"type":"Point","coordinates":[-120.64039,39.75611]}},{"type":"Feature","properties":{"unit_id":104,"landing_id":5,"elev":5027.6,"corridors_ok":0,"coverage_pct":0.0},"geometry":{"type":"Point","coordinates":[-120.63936,39.75685]}},{"type":"Feature","properties":{"unit_id":104,"landing_id":6,"elev":5005.3,"corridors_ok":0,"coverage_pct":0.0},"geometry":{"type":"Point","coordinates":[-120.6382,39.75746]}},{"type":"Feature","properties":{"unit_id":104,"landing_id":7,"elev":4999.8,"corridors_ok":10,"coverage_pct":4.0},"geometry":{"type":"Point","coordinates":[-120.63708,39.75813]}},{"type":"Feature","properties":{"unit_id":104,"landing_id":8,"elev":4957.4,"corridors_ok":0,"coverage_pct":0.0},"geometry":{"type":"Point","coordinates":[-120.63578,39.75856]}},{"type":"Feature","properties":{"unit_id":402,"landing_id":1,"elev":5392.1,"corridors_ok":0,"coverage_pct":0.0},"geometry":{"type":"Point","coordinates":[-120.64545,39.74397]}},{"type":"Feature","properties":{"unit_id":402,"landing_id":2,"elev":5380.1,"corridors_ok":3,"coverage_pct":4.7},"geometry":{"type":"Point","coordinates":[-120.64505,39.74443]}},{"type":"Feature","properties":{"unit_id":402,"landing_id":3,"elev":5367.4,"corridors_ok":11,"coverage_pct":7.5},"geometry":{"type":"Point","coordinates":[-120.64455,39.74481]}},{"type":"Feature","properties":{"unit_id":402,"landing_id":4,"elev":5355.0,"corridors_ok":12,"coverage_pct":6.0},"geometry":{"type":"Point","coordinates":[-120.64395,39.74512]}},{"type":"Feature","properties":{"unit_id":402,"landing_id":5,"elev":5342.3,"corridors_ok":0,"coverage_pct":0.0},"geometry":{"type":"Point","coordinates":[-120.64329,39.74531]}},{"type":"Feature","properties":{"unit_id":402,"landing_id":6,"elev":5331.3,"corridors_ok":0,"coverage_pct":0.0},"geometry":{"type":"Point","coordinates":[-120.64259,39.74541]}},{"type":"Feature","properties":{"unit_id":402,"landing_id":7,"elev":5168.8,"corridors_ok":19,"coverage_pct":19.3},"geometry":{"type":"Point","coordinates":[-120.64472,39.74892]}},{"type":"Feature","properties":{"unit_id":402,"landing_id":8,"elev":5148.1,"corridors_ok":21,"coverage_pct":21.3},"geometry":{"type":"Point","coordinates":[-120.64434,39.74938]}},{"type":"Feature","properties":{"unit_id":402,"landing_id":9,"elev":5143.7,"corridors_ok":21,"coverage_pct":23.0},"geometry":{"type":"Point","coordinates":[-120.64396,39.74984]}},{"type":"Feature","properties":{"unit_id":402,"landing_id":10,"elev":5140.6,"corridors_ok":22,"coverage_pct":29.5},"geometry":{"type":"Point","coordinates":[-120.64355,39.75029]}},{"type":"Feature","properties":{"unit_id":402,"landing_id":11,"elev":5136.7,"corridors_ok":20,"coverage_pct":29.0},"geometry":{"type":"Point","coordinates":[-120.64318,39.75076]}},{"type":"Feature","properties":{"unit_id":402,"landing_id":12,"elev":5142.1,"corridors_ok":19,"coverage_pct":37.5},"geometry":{"type":"Point","coordinates":[-120.64301,39.75129]}},{"type":"Feature","properties":{"unit_id":402,"landing_id":13,"elev":5127.8,"corridors_ok":18,"coverage_pct":49.7},"geometry":{"type":"Point","coordinates":[-120.64283,39.75182]}},{"type":"Feature","properties":{"unit_id":402,"landing_id":14,"elev":5132.4,"corridors_ok":16,"coverage_pct":51.7},"geometry":{"type":"Point","coordinates":[-120.64278,39.75237]}},{"type":"Feature","properties":{"unit_id":105,"landing_id":1,"elev":5649.6,"corridors_ok":0,"coverage_pct":0.0},"geometry":{"type":"Point","coordinates":[-120.63477,39.73379]}},{"type":"Feature","properties":{"unit_id":105,"landing_id":2,"elev":5601.2,"corridors_ok":6,"coverage_pct":11.8},"geometry":{"type":"Point","coordinates":[-120.63439,39.73525]}},{"type":"Feature","properties":{"unit_id":105,"landing_id":3,"elev":5555.9,"corridors_ok":14,"coverage_pct":22.7},"geometry":{"type":"Point","coordinates":[-120.63519,39.73663]}},{"type":"Feature","properties":{"unit_id":105,"landing_id":4,"elev":5508.2,"corridors_ok":13,"coverage_pct":17.1},"geometry":{"type":"Point","coordinates":[-120.63434,39.7381]}},{"type":"Feature","properties":{"unit_id":105,"landing_id":5,"elev":5164.5,"corridors_ok":6,"coverage_pct":3.5},"geometry":{"type":"Point","coordinates":[-120.63467,39.74214]}},{"type":"Feature","properties":{"unit_id":105,"landing_id":6,"elev":5125.6,"corridors_ok":0,"coverage_pct":0.0},"geometry":{"type":"Point","coordinates":[-120.6332,39.7433]}},{"type":"Feature","properties":{"unit_id":105,"landing_id":7,"elev":5368.5,"corridors_ok":3,"coverage_pct":1.0},"geometry":{"type":"Point","coordinates":[-120.62945,39.73838]}},{"type":"Feature","properties":{"unit_id":105,"landing_id":8,"elev":5417.4,"corridors_ok":13,"coverage_pct":11.1},"geometry":{"type":"Point","coordinates":[-120.63105,39.73783]}},{"type":"Feature","properties":{"unit_id":105,"landing_id":9,"elev":5467.9,"corridors_ok":7,"coverage_pct":27.3},"geometry":{"type":"Point","coordinates":[-120.63288,39.73852]}},{"type":"Feature","properties":{"unit_id":106,"landing_id":1,"elev":4958.9,"corridors_ok":0,"coverage_pct":0.0},"geometry":{"type":"Point","coordinates":[-120.62559,39.74719]}},{"type":"Feature","properties":{"unit_id":106,"landing_id":2,"elev":5190.4,"corridors_ok":1,"coverage_pct":2.7},"geometry":{"type":"Point","coordinates":[-120.63605,39.7419]}},{"type":"Feature","properties":{"unit_id":106,"landing_id":3,"elev":5164.5,"corridors_ok":2,"coverage_pct":2.1},"geometry":{"type":"Point","coordinates":[-120.63467,39.74214]}},{"type":"Feature","properties":{"unit_id":106,"landing_id":4,"elev":5138.4,"corridors_ok":27,"coverage_pct":4.9},"geometry":{"type":"Point","coordinates":[-120.63359,39.74285]}},{"type":"Feature","properties":{"unit_id":106,"landing_id":5,"elev":5113.2,"corridors_ok":12,"coverage_pct":10.2},"geometry":{"type":"Point","coordinates":[-120.6328,39.74376]}},{"type":"Feature","properties":{"unit_id":106,"landing_id":6,"elev":5087.9,"corridors_ok":6,"coverage_pct":14.0},"geometry":{"type":"Point","coordinates":[-120.63192,39.74462]}},{"type":"Feature","properties":{"unit_id":106,"landing_id":7,"elev":5061.1,"corridors_ok":7,"coverage_pct":14.6},"geometry":{"type":"Point","coordinates":[-120.63095,39.74542]}},{"type":"Feature","properties":{"unit_id":106,"landing_id":8,"elev":5037.4,"corridors_ok":0,"coverage_pct":0.0},"geometry":{"type":"Point","coordinates":[-120.62991,39.74616]}},{"type":"Feature","properties":{"unit_id":106,"landing_id":9,"elev":5012.3,"corridors_ok":5,"coverage_pct":3.1},"geometry":{"type":"Point","coordinates":[-120.62853,39.74636]}},{"type":"Feature","properties":{"unit_id":106,"landing_id":10,"elev":4988.2,"corridors_ok":0,"coverage_pct":0.0},"geometry":{"type":"Point","coordinates":[-120.62711,39.74637]}},{"type":"Feature","properties":{"unit_id":106,"landing_id":11,"elev":4965.2,"corridors_ok":0,"coverage_pct":0.0},"geometry":{"type":"Point","coordinates":[-120.6259,39.7469]}},{"type":"Feature","properties":{"unit_id":106,"landing_id":12,"elev":4950.1,"corridors_ok":0,"coverage_pct":0.0},"geometry":{"type":"Point","coordinates":[-120.62497,39.74774]}},{"type":"Feature","properties":{"unit_id":107,"landing_id":1,"elev":5138.4,"corridors_ok":0,"coverage_pct":0.0},"geometry":{"type":"Point","coordinates":[-120.63359,39.74285]}},{"type":"Feature","properties":{"unit_id":107,"landing_id":2,"elev":5100.5,"corridors_ok":0,"coverage_pct":0.0},"geometry":{"type":"Point","coordinates":[-120.63238,39.7442]}},{"type":"Feature","properties":{"unit_id":107,"landing_id":3,"elev":5100.3,"corridors_ok":0,"coverage_pct":0.0},"geometry":{"type":"Point","coordinates":[-120.62499,39.74354]}},{"type":"Feature","properties":{"unit_id":107,"landing_id":4,"elev":5148.1,"corridors_ok":12,"coverage_pct":3.2},"geometry":{"type":"Point","coordinates":[-120.62583,39.74205]}},{"type":"Feature","properties":{"unit_id":107,"landing_id":5,"elev":5200.2,"corridors_ok":8,"coverage_pct":3.0},"geometry":{"type":"Point","coordinates":[-120.62462,39.74152]}},{"type":"Feature","properties":{"unit_id":107,"landing_id":6,"elev":5236.6,"corridors_ok":1,"coverage_pct":7.1},"geometry":{"type":"Point","coordinates":[-120.62532,39.74046]}},{"type":"Feature","properties":{"unit_id":107,"landing_id":7,"elev":5289.6,"corridors_ok":3,"coverage_pct":9.1},"geometry":{"type":"Point","coordinates":[-120.62722,39.74023]}},{"type":"Feature","properties":{"unit_id":107,"landing_id":8,"elev":5337.7,"corridors_ok":8,"coverage_pct":5.3},"geometry":{"type":"Point","coordinates":[-120.62871,39.73913]}},{"type":"Feature","properties":{"unit_id":107,"landing_id":9,"elev":5385.1,"corridors_ok":6,"coverage_pct":3.8},"geometry":{"type":"Point","coordinates":[-120.63005,39.73859]}},{"type":"Feature","properties":{"unit_id":107,"landing_id":10,"elev":5429.3,"corridors_ok":0,"coverage_pct":0.0},"geometry":{"type":"Point","coordinates":[-120.63171,39.73789]}},{"type":"Feature","properties":{"unit_id":403,"landing_id":1,"elev":4927.0,"corridors_ok":0,"coverage_pct":0.0},"geometry":{"type":"Point","coordinates":[-120.6232,39.74863]}},{"type":"Feature","properties":{"unit_id":403,"landing_id":2,"elev":4918.1,"corridors_ok":1,"coverage_pct":9.0},"geometry":{"type":"Point","coordinates":[-120.62254,39.74883]}},{"type":"Feature","properties":{"unit_id":403,"landing_id":3,"elev":4909.4,"corridors_ok":3,"coverage_pct":39.4},"geometry":{"type":"Point","coordinates":[-120.62188,39.74903]}},{"type":"Feature","properties":{"unit_id":403,"landing_id":4,"elev":4900.7,"corridors_ok":4,"coverage_pct":13.7},"geometry":{"type":"Point","coordinates":[-120.62122,39.74923]}},{"type":"Feature","properties":{"unit_id":403,"landing_id":5,"elev":4892.4,"corridors_ok":21,"coverage_pct":19.0},"geometry":{"type":"Point","coordinates":[-120.62055,39.74943]}},{"type":"Feature","properties":{"unit_id":403,"landing_id":6,"elev":4883.9,"corridors_ok":25,"coverage_pct":18.5},"geometry":{"type":"Point","coordinates":[-120.61987,39.74959]}},{"type":"Feature","properties":{"unit_id":403,"landing_id":7,"elev":4874.7,"corridors_ok":22,"coverage_pct":2.6},"geometry":{"type":"Point","coordinates":[-120.61917,39.74955]}},{"type":"Feature","properties":{"unit_id":403,"landing_id":8,"elev":4863.9,"corridors_ok":2,"coverage_pct":1.7},"geometry":{"type":"Point","coordinates":[-120.61854,39.7493]}},{"type":"Feature","properties":{"unit_id":403,"landing_id":9,"elev":4851.5,"corridors_ok":0,"coverage_pct":0.0},"geometry":{"type":"Point","coordinates":[-120.61806,39.7489]}},{"type":"Feature","properties":{"unit_id":403,"landing_id":10,"elev":4757.2,"corridors_ok":2,"coverage_pct":12.8},"geometry":{"type":"Point","coordinates":[-120.61943,39.75193]}},{"type":"Feature","properties":{"unit_id":403,"landing_id":11,"elev":4781.0,"corridors_ok":5,"coverage_pct":17.2},"geometry":{"type":"Point","coordinates":[-120.62,39.75162]}},{"type":"Feature","properties":{"unit_id":403,"landing_id":12,"elev":4796.3,"corridors_ok":6,"coverage_pct":12.3},"geometry":{"type":"Point","coordinates":[-120.61996,39.7511]}},{"type":"Feature","properties":{"unit_id":403,"landing_id":13,"elev":4815.3,"corridors_ok":9,"coverage_pct":6.8},"geometry":{"type":"Point","coordinates":[-120.61973,39.75058]}},{"type":"Feature","properties":{"unit_id":403,"landing_id":14,"elev":4831.8,"corridors_ok":8,"coverage_pct":6.1},"geometry":{"type":"Point","coordinates":[-120.61927,39.75017]}},{"type":"Feature","properties":{"unit_id":403,"landing_id":15,"elev":4846.6,"corridors_ok":5,"coverage_pct":3.2},"geometry":{"type":"Point","coordinates":[-120.61867,39.74988]}},{"type":"Feature","properties":{"unit_id":403,"landing_id":16,"elev":4865.5,"corridors_ok":0,"coverage_pct":0.0},"geometry":{"type":"Point","coordinates":[-120.61845,39.74936]}},{"type":"Feature","properties":{"unit_id":403,"landing_id":17,"elev":4878.6,"corridors_ok":0,"coverage_pct":0.0},"geometry":{"type":"Point","coordinates":[-120.61852,39.74886]}},{"type":"Feature","properties":{"unit_id":403,"landing_id":18,"elev":4896.6,"corridors_ok":2,"coverage_pct":1.5},"geometry":{"type":"Point","coordinates":[-120.61869,39.74846]}},{"type":"Feature","properties":{"unit_id":403,"landing_id":19,"elev":4912.5,"corridors_ok":4,"coverage_pct":2.0},"geometry":{"type":"Point","coordinates":[-120.61933,39.74867]}},{"type":"Feature","properties":{"unit_id":403,"landing_id":20,"elev":4925.3,"corridors_ok":5,"coverage_pct":13.6},"geometry":{"type":"Point","coordinates":[-120.62003,39.74862]}},{"type":"Feature","properties":{"unit_id":403,"landing_id":21,"elev":4935.2,"corridors_ok":0,"coverage_pct":0.0},"geometry":{"type":"Point","coordinates":[-120.62055,39.74825]}},{"type":"Feature","properties":{"unit_id":108,"landing_id":1,"elev":4958.9,"corridors_ok":21,"coverage_pct":10.3},"geometry":{"type":"Point","coordinates":[-120.62559,39.74719]}},{"type":"Feature","properties":{"unit_id":108,"landing_id":2,"elev":5025.3,"corridors_ok":0,"coverage_pct":0.0},"geometry":{"type":"Point","coordinates":[-120.62924,39.74634]}},{"type":"Feature","properties":{"unit_id":108,"landing_id":3,"elev":4988.2,"corridors_ok":14,"coverage_pct":6.2},"geometry":{"type":"Point","coordinates":[-120.62711,39.74637]}},{"type":"Feature","properties":{"unit_id":108,"landing_id":4,"elev":4956.6,"corridors_ok":12,"coverage_pct":9.0},"geometry":{"type":"Point","coordinates":[-120.62544,39.74732]}},{"type":"Feature","properties":{"unit_id":108,"landing_id":5,"elev":4975.9,"corridors_ok":0,"coverage_pct":0.0},"geometry":{"type":"Point","coordinates":[-120.62208,39.74712]}},{"type":"Feature","properties":{"unit_id":108,"landing_id":6,"elev":5020.3,"corridors_ok":12,"coverage_pct":6.3},"geometry":{"type":"Point","coordinates":[-120.62283,39.74564]}},{"type":"Feature","properties":{"unit_id":108,"landing_id":7,"elev":5066.5,"corridors_ok":0,"coverage_pct":0.0},"geometry":{"type":"Point","coordinates":[-120.62419,39.74444]}},{"type":"Feature","properties":{"unit_id":108,"landing_id":8,"elev":5117.5,"corridors_ok":9,"coverage_pct":7.3},"geometry":{"type":"Point","coordinates":[-120.62531,39.74306]}},{"type":"Feature","properties":{"unit_id":108,"landing_id":9,"elev":5164.0,"corridors_ok":0,"coverage_pct":0.0},"geometry":{"type":"Point","coordinates":[-120.6259,39.74155]}},{"type":"Feature","properties":{"unit_id":108,"landing_id":10,"elev":5201.7,"corridors_ok":0,"coverage_pct":0.0},"geometry":{"type":"Point","coordinates":[-120.62452,39.74098]}},{"type":"Feature","properties":{"unit_id":109,"landing_id":1,"elev":4958.9,"corridors_ok":1,"coverage_pct":2.1},"geometry":{"type":"Point","coordinates":[-120.62559,39.74719]}},{"type":"Feature","properties":{"unit_id":109,"landing_id":2,"elev":4950.1,"corridors_ok":16,"coverage_pct":6.7},"geometry":{"type":"Point","coordinates":[-120.62497,39.74774]}},{"type":"Feature","properties":{"unit_id":109,"landing_id":3,"elev":4909.4,"corridors_ok":2,"coverage_pct":5.6},"geometry":{"type":"Point","coordinates":[-120.62188,39.74903]}},{"type":"Feature","properties":{"unit_id":109,"landing_id":4,"elev":4863.9,"corridors_ok":0,"coverage_pct":0.0},"geometry":{"type":"Point","coordinates":[-120.61854,39.7493]}},{"type":"Feature","properties":{"unit_id":109,"landing_id":5,"elev":4799.9,"corridors_ok":0,"coverage_pct":0.0},"geometry":{"type":"Point","coordinates":[-120.61826,39.74679]}},{"type":"Feature","properties":{"unit_id":109,"landing_id":6,"elev":4706.4,"corridors_ok":0,"coverage_pct":0.0},"geometry":{"type":"Point","coordinates":[-120.61814,39.75238]}},{"type":"Feature","properties":{"unit_id":109,"landing_id":7,"elev":4815.3,"corridors_ok":9,"coverage_pct":4.8},"geometry":{"type":"Point","coordinates":[-120.61973,39.75058]}},{"type":"Feature","properties":{"unit_id":109,"landing_id":8,"elev":4896.6,"corridors_ok":0,"coverage_pct":0.0},"geometry":{"type":"Point","coordinates":[-120.61869,39.74846]}},{"type":"Feature","properties":{"unit_id":109,"landing_id":9,"elev":4956.3,"corridors_ok":2,"coverage_pct":8.9},"geometry":{"type":"Point","coordinates":[-120.62154,39.74747]}},{"type":"Feature","properties":{"unit_id":109,"landing_id":10,"elev":5037.3,"corridors_ok":0,"coverage_pct":0.0},"geometry":{"type":"Point","coordinates":[-120.62312,39.74515]}},{"type":"Feature","properties":{"unit_id":404,"landing_id":1,"elev":4690.7,"corridors_ok":0,"coverage_pct":0.0},"geometry":{"type":"Point","coordinates":[-120.61607,39.74851]}},{"type":"Feature","properties":{"unit_id":404,"landing_id":2,"elev":4892.4,"corridors_ok":1,"coverage_pct":3.0},"geometry":{"type":"Point","coordinates":[-120.62055,39.74943]}},{"type":"Feature","properties":{"unit_id":404,"landing_id":3,"elev":4883.9,"corridors_ok":1,"coverage_pct":3.5},"geometry":{"type":"Point","coordinates":[-120.61987,39.74959]}},{"type":"Feature","properties":{"unit_id":404,"landing_id":4,"elev":4874.7,"corridors_ok":0,"coverage_pct":0.0},"geometry":{"type":"Point","coordinates":[-120.61917,39.74955]}},{"type":"Feature","properties":{"unit_id":404,"landing_id":5,"elev":4863.9,"corridors_ok":0,"coverage_pct":0.0},"geometry":{"type":"Point","coordinates":[-120.61854,39.7493]}},{"type":"Feature","properties":{"unit_id":404,"landing_id":6,"elev":4851.5,"corridors_ok":18,"coverage_pct":4.9},"geometry":{"type":"Point","coordinates":[-120.61806,39.7489]}},{"type":"Feature","properties":{"unit_id":404,"landing_id":7,"elev":4838.5,"corridors_ok":23,"coverage_pct":8.2},"geometry":{"type":"Point","coordinates":[-120.61783,39.74839]}},{"type":"Feature","properties":{"unit_id":404,"landing_id":8,"elev":4825.1,"corridors_ok":32,"coverage_pct":10.2},"geometry":{"type":"Point","coordinates":[-120.61788,39.74784]}},{"type":"Feature","properties":{"unit_id":404,"landing_id":9,"elev":4811.6,"corridors_ok":30,"coverage_pct":36.6},"geometry":{"type":"Point","coordinates":[-120.61807,39.74731]}},{"type":"Feature","properties":{"unit_id":404,"landing_id":10,"elev":4799.9,"corridors_ok":29,"coverage_pct":9.1},"geometry":{"type":"Point","coordinates":[-120.61826,39.74679]}},{"type":"Feature","properties":{"unit_id":404,"landing_id":11,"elev":4790.6,"corridors_ok":18,"coverage_pct":9.6},"geometry":{"type":"Point","coordinates":[-120.61845,39.74626]}},{"type":"Feature","properties":{"unit_id":404,"landing_id":12,"elev":4783.5,"corridors_ok":3,"coverage_pct":6.1},"geometry":{"type":"Point","coordinates":[-120.61851,39.74571]}},{"type":"Feature","properties":{"unit_id":404,"landing_id":13,"elev":4778.3,"corridors_ok":0,"coverage_pct":0.0},"geometry":{"type":"Point","coordinates":[-120.6183,39.74519]}},{"type":"Feature","properties":{"unit_id":404,"landing_id":14,"elev":4770.2,"corridors_ok":1,"coverage_pct":13.3},"geometry":{"type":"Point","coordinates":[-120.61783,39.74478]}},{"type":"Feature","properties":{"unit_id":404,"landing_id":15,"elev":4770.5,"corridors_ok":0,"coverage_pct":0.0},"geometry":{"type":"Point","coordinates":[-120.6172,39.74455]}},{"type":"Feature","properties":{"unit_id":404,"landing_id":16,"elev":4636.0,"corridors_ok":0,"coverage_pct":0.0},"geometry":{"type":"Point","coordinates":[-120.61607,39.75113]}},{"type":"Feature","properties":{"unit_id":404,"landing_id":17,"elev":4647.8,"corridors_ok":0,"coverage_pct":0.0},"geometry":{"type":"Point","coordinates":[-120.61654,39.75152]}},{"type":"Feature","properties":{"unit_id":404,"landing_id":18,"elev":4663.8,"corridors_ok":0,"coverage_pct":0.0},"geometry":{"type":"Point","coordinates":[-120.61703,39.75192]}},{"type":"Feature","properties":{"unit_id":404,"landing_id":19,"elev":4682.2,"corridors_ok":0,"coverage_pct":0.0},"geometry":{"type":"Point","coordinates":[-120.61746,39.75235]}},{"type":"Feature","properties":{"unit_id":404,"landing_id":20,"elev":4706.4,"corridors_ok":0,"coverage_pct":0.0},"geometry":{"type":"Point","coordinates":[-120.61814,39.75238]}},{"type":"Feature","properties":{"unit_id":404,"landing_id":21,"elev":4731.3,"corridors_ok":0,"coverage_pct":0.0},"geometry":{"type":"Point","coordinates":[-120.6188,39.75218]}},{"type":"Feature","properties":{"unit_id":404,"landing_id":22,"elev":4757.2,"corridors_ok":0,"coverage_pct":0.0},"geometry":{"type":"Point","coordinates":[-120.61943,39.75193]}},{"type":"Feature","properties":{"unit_id":404,"landing_id":23,"elev":4781.0,"corridors_ok":24,"coverage_pct":5.2},"geometry":{"type":"Point","coordinates":[-120.62,39.75162]}},{"type":"Feature","properties":{"unit_id":404,"landing_id":24,"elev":4796.3,"corridors_ok":18,"coverage_pct":3.9},"geometry":{"type":"Point","coordinates":[-120.61996,39.7511]}},{"type":"Feature","properties":{"unit_id":404,"landing_id":25,"elev":4815.3,"corridors_ok":3,"coverage_pct":4.5},"geometry":{"type":"Point","coordinates":[-120.61973,39.75058]}},{"type":"Feature","properties":{"unit_id":404,"landing_id":26,"elev":4831.8,"corridors_ok":0,"coverage_pct":0.0},"geometry":{"type":"Point","coordinates":[-120.61927,39.75017]}},{"type":"Feature","properties":{"unit_id":404,"landing_id":27,"elev":4846.6,"corridors_ok":0,"coverage_pct":0.0},"geometry":{"type":"Point","coordinates":[-120.61867,39.74988]}},{"type":"Feature","properties":{"unit_id":404,"landing_id":28,"elev":4865.5,"corridors_ok":0,"coverage_pct":0.0},"geometry":{"type":"Point","coordinates":[-120.61845,39.74936]}},{"type":"Feature","properties":{"unit_id":404,"landing_id":29,"elev":4878.6,"corridors_ok":0,"coverage_pct":0.0},"geometry":{"type":"Point","coordinates":[-120.61852,39.74886]}},{"type":"Feature","properties":{"unit_id":404,"landing_id":30,"elev":4896.6,"corridors_ok":0,"coverage_pct":0.0},"geometry":{"type":"Point","coordinates":[-120.61869,39.74846]}},{"type":"Feature","properties":{"unit_id":404,"landing_id":31,"elev":4912.5,"corridors_ok":0,"coverage_pct":0.0},"geometry":{"type":"Point","coordinates":[-120.61933,39.74867]}},{"type":"Feature","properties":{"unit_id":404,"landing_id":32,"elev":4925.3,"corridors_ok":1,"coverage_pct":3.4},"geometry":{"type":"Point","coordinates":[-120.62003,39.74862]}},{"type":"Feature","properties":{"unit_id":404,"landing_id":33,"elev":5037.3,"corridors_ok":0,"coverage_pct":0.0},"geometry":{"type":"Point","coordinates":[-120.62312,39.74515]}},{"type":"Feature","properties":{"unit_id":404,"landing_id":34,"elev":5048.0,"corridors_ok":0,"coverage_pct":0.0},"geometry":{"type":"Point","coordinates":[-120.62364,39.74478]}},{"type":"Feature","properties":{"unit_id":404,"landing_id":35,"elev":5066.5,"corridors_ok":0,"coverage_pct":0.0},"geometry":{"type":"Point","coordinates":[-120.62419,39.74444]}},{"type":"Feature","properties":{"unit_id":404,"landing_id":36,"elev":5084.1,"corridors_ok":0,"coverage_pct":0.0},"geometry":{"type":"Point","coordinates":[-120.62465,39.74403]}},{"type":"Feature","properties":{"unit_id":404,"landing_id":37,"elev":5100.3,"corridors_ok":0,"coverage_pct":0.0},"geometry":{"type":"Point","coordinates":[-120.62499,39.74354]}},{"type":"Feature","properties":{"unit_id":404,"landing_id":38,"elev":5117.5,"corridors_ok":0,"coverage_pct":0.0},"geometry":{"type":"Point","coordinates":[-120.62531,39.74306]}},{"type":"Feature","properties":{"unit_id":404,"landing_id":39,"elev":5131.6,"corridors_ok":0,"coverage_pct":0.0},"geometry":{"type":"Point","coordinates":[-120.6255,39.74253]}},{"type":"Feature","properties":{"unit_id":404,"landing_id":40,"elev":5181.9,"corridors_ok":0,"coverage_pct":0.0},"geometry":{"type":"Point","coordinates":[-120.62523,39.74162]}},{"type":"Feature","properties":{"unit_id":404,"landing_id":41,"elev":5200.2,"corridors_ok":2,"coverage_pct":22.4},"geometry":{"type":"Point","coordinates":[-120.62462,39.74152]}},{"type":"Feature","properties":{"unit_id":404,"landing_id":42,"elev":5201.7,"corridors_ok":1,"coverage_pct":10.8},"geometry":{"type":"Point","coordinates":[-120.62452,39.74098]}},{"type":"Feature","properties":{"unit_id":404,"landing_id":43,"elev":5217.3,"corridors_ok":0,"coverage_pct":0.0},"geometry":{"type":"Point","coordinates":[-120.62471,39.74048]}},{"type":"Feature","properties":{"unit_id":404,"landing_id":44,"elev":4777.5,"corridors_ok":0,"coverage_pct":0.0},"geometry":{"type":"Point","coordinates":[-120.6182,39.74507]}},{"type":"Feature","properties":{"unit_id":404,"landing_id":45,"elev":4769.5,"corridors_ok":0,"coverage_pct":0.0},"geometry":{"type":"Point","coordinates":[-120.61836,39.74453]}},{"type":"Feature","properties":{"unit_id":404,"landing_id":46,"elev":4695.3,"corridors_ok":0,"coverage_pct":0.0},"geometry":{"type":"Point","coordinates":[-120.61648,39.74868]}},{"type":"Feature","properties":{"unit_id":404,"landing_id":47,"elev":4684.1,"corridors_ok":0,"coverage_pct":0.0},"geometry":{"type":"Point","coordinates":[-120.61648,39.74923]}},{"type":"Feature","properties":{"unit_id":404,"landing_id":48,"elev":4671.9,"corridors_ok":0,"coverage_pct":0.0},"geometry":{"type":"Point","coordinates":[-120.61647,39.74978]}},{"type":"Feature","properties":{"unit_id":404,"landing_id":49,"elev":4659.8,"corridors_ok":0,"coverage_pct":0.0},"geometry":{"type":"Point","coordinates":[-120.61634,39.75032]}},{"type":"Feature","properties":{"unit_id":404,"landing_id":50,"elev":4645.1,"corridors_ok":0,"coverage_pct":0.0},"geometry":{"type":"Point","coordinates":[-120.61618,39.75085]}},{"type":"Feature","properties":{"unit_id":404,"landing_id":51,"elev":4626.5,"corridors_ok":0,"coverage_pct":0.0},"geometry":{"type":"Point","coordinates":[-120.61588,39.75134]}},{"type":"Feature","properties":{"unit_id":404,"landing_id":52,"elev":4615.4,"corridors_ok":0,"coverage_pct":0.0},"geometry":{"type":"Point","coordinates":[-120.6158,39.75188]}},{"type":"Feature","properties":{"unit_id":404,"landing_id":53,"elev":4650.8,"corridors_ok":0,"coverage_pct":0.0},"geometry":{"type":"Point","coordinates":[-120.61624,39.75064]}},{"type":"Feature","properties":{"unit_id":110,"landing_id":1,"elev":5058.3,"corridors_ok":0,"coverage_pct":0.0},"geometry":{"type":"Point","coordinates":[-120.61422,39.73247]}},{"type":"Feature","properties":{"unit_id":110,"landing_id":2,"elev":5108.9,"corridors_ok":0,"coverage_pct":0.0},"geometry":{"type":"Point","coordinates":[-120.6158,39.73003]}},{"type":"Feature","properties":{"unit_id":110,"landing_id":3,"elev":5148.4,"corridors_ok":5,"coverage_pct":6.1},"geometry":{"type":"Point","coordinates":[-120.61657,39.73153]}},{"type":"Feature","properties":{"unit_id":110,"landing_id":4,"elev":5194.0,"corridors_ok":2,"coverage_pct":9.2},"geometry":{"type":"Point","coordinates":[-120.61864,39.73183]}},{"type":"Feature","properties":{"unit_id":110,"landing_id":5,"elev":5244.1,"corridors_ok":3,"coverage_pct":7.2},"geometry":{"type":"Point","coordinates":[-120.61919,39.73054]}},{"type":"Feature","properties":{"unit_id":110,"landing_id":6,"elev":5322.2,"corridors_ok":0,"coverage_pct":0.0},"geometry":{"type":"Point","coordinates":[-120.62098,39.72998]}},{"type":"Feature","properties":{"unit_id":110,"landing_id":7,"elev":5380.7,"corridors_ok":0,"coverage_pct":0.0},"geometry":{"type":"Point","coordinates":[-120.62297,39.73011]}},{"type":"Feature","properties":{"unit_id":110,"landing_id":8,"elev":5454.2,"corridors_ok":0,"coverage_pct":0.0},"geometry":{"type":"Point","coordinates":[-120.62508,39.72999]}},{"type":"Feature","properties":{"unit_id":110,"landing_id":9,"elev":5066.2,"corridors_ok":0,"coverage_pct":0.0},"geometry":{"type":"Point","coordinates":[-120.61438,39.73165]}},{"type":"Feature","properties":{"unit_id":111,"landing_id":1,"elev":5086.3,"corridors_ok":0,"coverage_pct":0.0},"geometry":{"type":"Point","coordinates":[-120.61538,39.72958]}},{"type":"Feature","properties":{"unit_id":111,"landing_id":2,"elev":5116.2,"corridors_ok":7,"coverage_pct":4.7},"geometry":{"type":"Point","coordinates":[-120.61657,39.72706]}},{"type":"Feature","properties":{"unit_id":111,"landing_id":3,"elev":5148.2,"corridors_ok":0,"coverage_pct":0.0},"geometry":{"type":"Point","coordinates":[-120.61976,39.7263]}},{"type":"Feature","properties":{"unit_id":111,"landing_id":4,"elev":5108.9,"corridors_ok":2,"coverage_pct":3.3},"geometry":{"type":"Point","coordinates":[-120.6158,39.73003]}},{"type":"Feature","properties":{"unit_id":111,"landing_id":5,"elev":5182.1,"corridors_ok":0,"coverage_pct":0.0},"geometry":{"type":"Point","coordinates":[-120.61793,39.73182]}},{"type":"Feature","properties":{"unit_id":111,"landing_id":6,"elev":5265.2,"corridors_ok":3,"coverage_pct":5.5},"geometry":{"type":"Point","coordinates":[-120.61968,39.73024]}},{"type":"Feature","properties":{"unit_id":111,"landing_id":7,"elev":5380.7,"corridors_ok":6,"coverage_pct":6.7},"geometry":{"type":"Point","coordinates":[-120.62297,39.73011]}},{"type":"Feature","properties":{"unit_id":111,"landing_id":8,"elev":5491.9,"corridors_ok":2,"coverage_pct":3.0},"geometry":{"type":"Point","coordinates":[-120.62579,39.72906]}},{"type":"Feature","properties":{"unit_id":111,"landing_id":9,"elev":5153.6,"corridors_ok":0,"coverage_pct":0.0},"geometry":{"type":"Point","coordinates":[-120.6208,39.72635]}},{"type":"Feature","properties":{"unit_id":111,"landing_id":10,"elev":5121.2,"corridors_ok":0,"coverage_pct":0.0},"geometry":{"type":"Point","coordinates":[-120.61736,39.72655]}},{"type":"Feature","properties":{"unit_id":111,"landing_id":11,"elev":5086.7,"corridors_ok":0,"coverage_pct":0.0},"geometry":{"type":"Point","coordinates":[-120.61585,39.72889]}},{"type":"Feature","properties":{"unit_id":112,"landing_id":1,"elev":5097.0,"corridors_ok":1,"coverage_pct":13.6},"geometry":{"type":"Point","coordinates":[-120.61603,39.72805]}},{"type":"Feature","properties":{"unit_id":112,"landing_id":2,"elev":5145.7,"corridors_ok":7,"coverage_pct":34.2},"geometry":{"type":"Point","coordinates":[-120.61905,39.72622]}},{"type":"Feature","properties":{"unit_id":112,"landing_id":3,"elev":5201.9,"corridors_ok":9,"coverage_pct":17.4},"geometry":{"type":"Point","coordinates":[-120.62149,39.72461]}},{"type":"Feature","properties":{"unit_id":112,"landing_id":4,"elev":5233.6,"corridors_ok":4,"coverage_pct":25.7},"geometry":{"type":"Point","coordinates":[-120.61891,39.72209]}},{"type":"Feature","properties":{"unit_id":112,"landing_id":5,"elev":5300.6,"corridors_ok":3,"coverage_pct":1.8},"geometry":{"type":"Point","coordinates":[-120.61598,39.71983]}},{"type":"Feature","properties":{"unit_id":112,"landing_id":6,"elev":5306.4,"corridors_ok":0,"coverage_pct":0.0},"geometry":{"type":"Point","coordinates":[-120.6159,39.71949]}},{"type":"Feature","properties":{"unit_id":112,"landing_id":7,"elev":5124.7,"corridors_ok":0,"coverage_pct":0.0},"geometry":{"type":"Point","coordinates":[-120.61342,39.7206]}},{"type":"Feature","properties":{"unit_id":112,"landing_id":8,"elev":5249.2,"corridors_ok":18,"coverage_pct":39.3},"geometry":{"type":"Point","coordinates":[-120.61736,39.72137]}},{"type":"Feature","properties":{"unit_id":112,"landing_id":9,"elev":5217.4,"corridors_ok":3,"coverage_pct":16.6},"geometry":{"type":"Point","coordinates":[-120.62031,39.723]}},{"type":"Feature","properties":{"unit_id":112,"landing_id":10,"elev":5157.9,"corridors_ok":24,"coverage_pct":9.0},"geometry":{"type":"Point","coordinates":[-120.62122,39.72594]}},{"type":"Feature","properties":{"unit_id":112,"landing_id":11,"elev":5121.2,"corridors_ok":6,"coverage_pct":32.9},"geometry":{"type":"Point","coordinates":[-120.61736,39.72655]}},{"type":"Feature","properties":{"unit_id":113,"landing_id":1,"elev":5045.7,"corridors_ok":2,"coverage_pct":6.3},"geometry":{"type":"Point","coordinates":[-120.61263,39.73338]}},{"type":"Feature","properties":{"unit_id":113,"landing_id":2,"elev":5044.7,"corridors_ok":2,"coverage_pct":3.6},"geometry":{"type":"Point","coordinates":[-120.6132,39.73305]}},{"type":"Feature","properties":{"unit_id":113,"landing_id":3,"elev":5052.5,"corridors_ok":2,"coverage_pct":2.7},"geometry":{"type":"Point","coordinates":[-120.61388,39.73292]}},{"type":"Feature","properties":{"unit_id":113,"landing_id":4,"elev":5058.3,"corridors_ok":0,"coverage_pct":0.0},"geometry":{"type":"Point","coordinates":[-120.61422,39.73247]}},{"type":"Feature","properties":{"unit_id":113,"landing_id":5,"elev":5070.5,"corridors_ok":0,"coverage_pct":0.0},"geometry":{"type":"Point","coordinates":[-120.61445,39.73195]}},{"type":"Feature","properties":{"unit_id":113,"landing_id":6,"elev":5066.2,"corridors_ok":0,"coverage_pct":0.0},"geometry":{"type":"Point","coordinates":[-120.61438,39.73165]}},{"type":"Feature","properties":{"unit_id":113,"landing_id":7,"elev":5059.1,"corridors_ok":0,"coverage_pct":0.0},"geometry":{"type":"Point","coordinates":[-120.61427,39.73219]}},{"type":"Feature","properties":{"unit_id":113,"landing_id":8,"elev":5053.8,"corridors_ok":2,"coverage_pct":2.5},"geometry":{"type":"Point","coordinates":[-120.61401,39.7327]}},{"type":"Feature","properties":{"unit_id":113,"landing_id":9,"elev":5047.0,"corridors_ok":2,"coverage_pct":3.2},"geometry":{"type":"Point","coordinates":[-120.61344,39.733]}},{"type":"Feature","properties":{"unit_id":113,"landing_id":10,"elev":5040.3,"corridors_ok":3,"coverage_pct":8.8},"geometry":{"type":"Point","coordinates":[-120.61277,39.7332]}},{"type":"Feature","properties":{"unit_id":405,"landing_id":1,"elev":4761.3,"corridors_ok":1,"coverage_pct":8.0},"geometry":{"type":"Point","coordinates":[-120.61624,39.74457]}},{"type":"Feature","properties":{"unit_id":405,"landing_id":2,"elev":4760.0,"corridors_ok":1,"coverage_pct":2.9},"geometry":{"type":"Point","coordinates":[-120.61587,39.74412]}},{"type":"Feature","properties":{"unit_id":405,"landing_id":3,"elev":4773.5,"corridors_ok":3,"coverage_pct":3.2},"geometry":{"type":"Point","coordinates":[-120.61524,39.74425]}},{"type":"Feature","properties":{"unit_id":405,"landing_id":4,"elev":4783.5,"corridors_ok":4,"coverage_pct":3.3},"geometry":{"type":"Point","coordinates":[-120.6146,39.74448]}},{"type":"Feature","properties":{"unit_id":405,"landing_id":5,"elev":4783.7,"corridors_ok":0,"coverage_pct":0.0},"geometry":{"type":"Point","coordinates":[-120.61397,39.74444]}},{"type":"Feature","properties":{"unit_id":405,"landing_id":6,"elev":4788.8,"corridors_ok":9,"coverage_pct":7.3},"geometry":{"type":"Point","coordinates":[-120.61332,39.74422]}},{"type":"Feature","properties":{"unit_id":405,"landing_id":7,"elev":4807.5,"corridors_ok":31,"coverage_pct":23.2},"geometry":{"type":"Point","coordinates":[-120.61271,39.74394]}},{"type":"Feature","properties":{"unit_id":405,"landing_id":8,"elev":4829.1,"corridors_ok":32,"coverage_pct":30.3},"geometry":{"type":"Point","coordinates":[-120.61216,39.7436]}},{"type":"Feature","properties":{"unit_id":405,"landing_id":9,"elev":4862.1,"corridors_ok":35,"coverage_pct":27.5},"geometry":{"type":"Point","coordinates":[-120.61165,39.74322]}},{"type":"Feature","properties":{"unit_id":405,"landing_id":10,"elev":4885.8,"corridors_ok":12,"coverage_pct":18.7},"geometry":{"type":"Point","coordinates":[-120.61176,39.74271]}},{"type":"Feature","properties":{"unit_id":405,"landing_id":11,"elev":4870.6,"corridors_ok":0,"coverage_pct":0.0},"geometry":{"type":"Point","coordinates":[-120.61223,39.74231]}},{"type":"Feature","properties":{"unit_id":405,"landing_id":12,"elev":4889.7,"corridors_ok":0,"coverage_pct":0.0},"geometry":{"type":"Point","coordinates":[-120.6121,39.74187]}},{"type":"Feature","properties":{"unit_id":405,"landing_id":13,"elev":4896.0,"corridors_ok":0,"coverage_pct":0.0},"geometry":{"type":"Point","coordinates":[-120.6115,39.74158]}},{"type":"Feature","properties":{"unit_id":405,"landing_id":14,"elev":4901.6,"corridors_ok":0,"coverage_pct":0.0},"geometry":{"type":"Point","coordinates":[-120.61093,39.74125]}},{"type":"Feature","properties":{"unit_id":405,"landing_id":15,"elev":4909.1,"corridors_ok":0,"coverage_pct":0.0},"geometry":{"type":"Point","coordinates":[-120.61045,39.74085]}},{"type":"Feature","properties":{"unit_id":405,"landing_id":16,"elev":4904.6,"corridors_ok":0,"coverage_pct":0.0},"geometry":{"type":"Point","coordinates":[-120.61069,39.74108]}},{"type":"Feature","properties":{"unit_id":405,"landing_id":17,"elev":4898.2,"corridors_ok":0,"coverage_pct":0.0},"geometry":{"type":"Point","coordinates":[-120.61123,39.74144]}},{"type":"Feature","properties":{"unit_id":405,"landing_id":18,"elev":4891.6,"corridors_ok":0,"coverage_pct":0.0},"geometry":{"type":"Point","coordinates":[-120.61183,39.74173]}},{"type":"Feature","properties":{"unit_id":405,"landing_id":19,"elev":4879.3,"corridors_ok":0,"coverage_pct":0.0},"geometry":{"type":"Point","coordinates":[-120.6121,39.74221]}},{"type":"Feature","properties":{"unit_id":405,"landing_id":20,"elev":4868.2,"corridors_ok":12,"coverage_pct":14.4},"geometry":{"type":"Point","coordinates":[-120.61168,39.74263]}},{"type":"Feature","properties":{"unit_id":405,"landing_id":21,"elev":4853.6,"corridors_ok":35,"coverage_pct":26.2},"geometry":{"type":"Point","coordinates":[-120.61151,39.74315]}},{"type":"Feature","properties":{"unit_id":405,"landing_id":22,"elev":4834.6,"corridors_ok":31,"coverage_pct":28.7},"geometry":{"type":"Point","coordinates":[-120.612,39.74352]}},{"type":"Feature","properties":{"unit_id":405,"landing_id":23,"elev":4814.2,"corridors_ok":29,"coverage_pct":22.8},"geometry":{"type":"Point","coordinates":[-120.6126,39.74382]}},{"type":"Feature","properties":{"unit_id":405,"landing_id":24,"elev":4795.3,"corridors_ok":16,"coverage_pct":8.6},"geometry":{"type":"Point","coordinates":[-120.6132,39.74411]}},{"type":"Feature","properties":{"unit_id":405,"landing_id":25,"elev":4783.8,"corridors_ok":3,"coverage_pct":6.3},"geometry":{"type":"Point","coordinates":[-120.61383,39.74436]}},{"type":"Feature","properties":{"unit_id":405,"landing_id":26,"elev":4783.8,"corridors_ok":3,"coverage_pct":3.2},"geometry":{"type":"Point","coordinates":[-120.61451,39.74448]}},{"type":"Feature","properties":{"unit_id":405,"landing_id":27,"elev":4775.5,"corridors_ok":2,"coverage_pct":3.1},"geometry":{"type":"Point","coordinates":[-120.61516,39.74427]}},{"type":"Feature","properties":{"unit_id":405,"landing_id":28,"elev":4762.0,"corridors_ok":2,"coverage_pct":3.1},"geometry":{"type":"Point","coordinates":[-120.6158,39.74406]}},{"type":"Feature","properties":{"unit_id":405,"landing_id":29,"elev":4762.9,"corridors_ok":0,"coverage_pct":0.0},"geometry":{"type":"Point","coordinates":[-120.61626,39.74442]}},{"type":"Feature","properties":{"unit_id":405,"landing_id":30,"elev":4764.6,"corridors_ok":0,"coverage_pct":0.0},"geometry":{"type":"Point","coordinates":[-120.61649,39.74452]}},{"type":"Feature","properties":{"unit_id":405,"landing_id":31,"elev":4754.5,"corridors_ok":0,"coverage_pct":0.0},"geometry":{"type":"Point","coordinates":[-120.61583,39.74472]}},{"type":"Feature","properties":{"unit_id":405,"landing_id":32,"elev":4741.6,"corridors_ok":0,"coverage_pct":0.0},"geometry":{"type":"Point","coordinates":[-120.61533,39.7451]}},{"type":"Feature","properties":{"unit_id":405,"landing_id":33,"elev":4728.8,"corridors_ok":0,"coverage_pct":0.0},"geometry":{"type":"Point","coordinates":[-120.61505,39.7456]}},{"type":"Feature","properties":{"unit_id":114,"landing_id":1,"elev":4761.3,"corridors_ok":16,"coverage_pct":14.0},"geometry":{"type":"Point","coordinates":[-120.61624,39.74457]}},{"type":"Feature","properties":{"unit_id":114,"landing_id":2,"elev":4788.8,"corridors_ok":0,"coverage_pct":0.0},"geometry":{"type":"Point","coordinates":[-120.61332,39.74422]}},{"type":"Feature","properties":{"unit_id":114,"landing_id":3,"elev":4868.2,"corridors_ok":4,"coverage_pct":11.2},"geometry":{"type":"Point","coordinates":[-120.61168,39.74263]}},{"type":"Feature","properties":{"unit_id":114,"landing_id":4,"elev":4783.8,"corridors_ok":0,"coverage_pct":0.0},"geometry":{"type":"Point","coordinates":[-120.61383,39.74436]}},{"type":"Feature","properties":{"unit_id":114,"landing_id":5,"elev":4690.7,"corridors_ok":2,"coverage_pct":1.5},"geometry":{"type":"Point","coordinates":[-120.61607,39.74851]}},{"type":"Feature","properties":{"unit_id":114,"landing_id":6,"elev":4825.1,"corridors_ok":5,"coverage_pct":17.8},"geometry":{"type":"Point","coordinates":[-120.61788,39.74784]}},{"type":"Feature","properties":{"unit_id":114,"landing_id":7,"elev":4778.3,"corridors_ok":19,"coverage_pct":17.0},"geometry":{"type":"Point","coordinates":[-120.6183,39.74519]}},{"type":"Feature","properties":{"unit_id":114,"landing_id":8,"elev":4741.6,"corridors_ok":6,"coverage_pct":7.2},"geometry":{"type":"Point","coordinates":[-120.61533,39.7451]}},{"type":"Feature","properties":{"unit_id":114,"landing_id":9,"elev":4679.9,"corridors_ok":5,"coverage_pct":6.7},"geometry":{"type":"Point","coordinates":[-120.61376,39.74748]}},{"type":"Feature","properties":{"unit_id":114,"landing_id":10,"elev":4620.5,"corridors_ok":3,"coverage_pct":1.5},"geometry":{"type":"Point","coordinates":[-120.61028,39.74796]}},{"type":"Feature","properties":{"unit_id":114,"landing_id":11,"elev":4592.7,"corridors_ok":0,"coverage_pct":0.0},"geometry":{"type":"Point","coordinates":[-120.60675,39.74834]}},{"type":"Feature","properties":{"unit_id":114,"landing_id":12,"elev":4777.5,"corridors_ok":18,"coverage_pct":17.5},"geometry":{"type":"Point","coordinates":[-120.6182,39.74507]}},{"type":"Feature","properties":{"unit_id":115,"landing_id":1,"elev":5032.3,"corridors_ok":1,"coverage_pct":3.4},"geometry":{"type":"Point","coordinates":[-120.61213,39.73377]}},{"type":"Feature","properties":{"unit_id":115,"landing_id":2,"elev":5058.3,"corridors_ok":22,"coverage_pct":7.6},"geometry":{"type":"Point","coordinates":[-120.61422,39.73247]}},{"type":"Feature","properties":{"unit_id":115,"landing_id":3,"elev":5082.5,"corridors_ok":5,"coverage_pct":19.8},"geometry":{"type":"Point","coordinates":[-120.61441,39.73038]}},{"type":"Feature","properties":{"unit_id":115,"landing_id":4,"elev":5089.7,"corridors_ok":12,"coverage_pct":5.6},"geometry":{"type":"Point","coordinates":[-120.6159,39.72858]}},{"type":"Feature","properties":{"unit_id":115,"landing_id":5,"elev":5119.3,"corridors_ok":0,"coverage_pct":0.0},"geometry":{"type":"Point","coordinates":[-120.61708,39.72668]}},{"type":"Feature","properties":{"unit_id":115,"landing_id":6,"elev":5126.2,"corridors_ok":16,"coverage_pct":7.6},"geometry":{"type":"Point","coordinates":[-120.61615,39.7305]}},{"type":"Feature","properties":{"unit_id":115,"landing_id":7,"elev":5182.1,"corridors_ok":0,"coverage_pct":0.0},"geometry":{"type":"Point","coordinates":[-120.61793,39.73182]}},{"type":"Feature","properties":{"unit_id":115,"landing_id":8,"elev":5084.4,"corridors_ok":4,"coverage_pct":16.6},"geometry":{"type":"Point","coordinates":[-120.61474,39.73015]}},{"type":"Feature","properties":{"unit_id":115,"landing_id":9,"elev":5059.1,"corridors_ok":21,"coverage_pct":9.4},"geometry":{"type":"Point","coordinates":[-120.61427,39.73219]}},{"type":"Feature","properties":{"unit_id":115,"landing_id":10,"elev":5032.4,"corridors_ok":2,"coverage_pct":4.3},"geometry":{"type":"Point","coordinates":[-120.61226,39.73358]}},{"type":"Feature","properties":{"unit_id":115,"landing_id":11,"elev":5101.7,"corridors_ok":11,"coverage_pct":6.1},"geometry":{"type":"Point","coordinates":[-120.61609,39.72781]}},{"type":"Feature","properties":{"unit_id":116,"landing_id":1,"elev":4760.0,"corridors_ok":0,"coverage_pct":0.0},"geometry":{"type":"Point","coordinates":[-120.61587,39.74412]}},{"type":"Feature","properties":{"unit_id":116,"landing_id":2,"elev":4788.8,"corridors_ok":0,"coverage_pct":0.0},"geometry":{"type":"Point","coordinates":[-120.61332,39.74422]}},{"type":"Feature","properties":{"unit_id":116,"landing_id":3,"elev":4885.8,"corridors_ok":0,"coverage_pct":0.0},"geometry":{"type":"Point","coordinates":[-120.61176,39.74271]}},{"type":"Feature","properties":{"unit_id":116,"landing_id":4,"elev":4901.6,"corridors_ok":0,"coverage_pct":0.0},"geometry":{"type":"Point","coordinates":[-120.61093,39.74125]}},{"type":"Feature","properties":{"unit_id":116,"landing_id":5,"elev":4949.9,"corridors_ok":12,"coverage_pct":5.3},"geometry":{"type":"Point","coordinates":[-120.61002,39.73927]}},{"type":"Feature","properties":{"unit_id":116,"landing_id":6,"elev":4984.5,"corridors_ok":0,"coverage_pct":0.0},"geometry":{"type":"Point","coordinates":[-120.60995,39.73738]}},{"type":"Feature","properties":{"unit_id":116,"landing_id":7,"elev":4946.4,"corridors_ok":10,"coverage_pct":7.2},"geometry":{"type":"Point","coordinates":[-120.60997,39.73958]}},{"type":"Feature","properties":{"unit_id":116,"landing_id":8,"elev":4898.2,"corridors_ok":1,"coverage_pct":4.3},"geometry":{"type":"Point","coordinates":[-120.61123,39.74144]}},{"type":"Feature","properties":{"unit_id":116,"landing_id":9,"elev":4853.6,"corridors_ok":0,"coverage_pct":0.0},"geometry":{"type":"Point","coordinates":[-120.61151,39.74315]}},{"type":"Feature","properties":{"unit_id":116,"landing_id":10,"elev":4783.8,"corridors_ok":0,"coverage_pct":0.0},"geometry":{"type":"Point","coordinates":[-120.61383,39.74436]}},{"type":"Feature","properties":{"unit_id":116,"landing_id":11,"elev":4754.5,"corridors_ok":0,"coverage_pct":0.0},"geometry":{"type":"Point","coordinates":[-120.61583,39.74472]}},{"type":"Feature","properties":{"unit_id":117,"landing_id":1,"elev":5267.5,"corridors_ok":1,"coverage_pct":6.8},"geometry":{"type":"Point","coordinates":[-120.61678,39.72069]}},{"type":"Feature","properties":{"unit_id":117,"landing_id":2,"elev":5308.9,"corridors_ok":4,"coverage_pct":2.6},"geometry":{"type":"Point","coordinates":[-120.61547,39.71881]}},{"type":"Feature","properties":{"unit_id":117,"landing_id":3,"elev":5327.4,"corridors_ok":3,"coverage_pct":5.6},"geometry":{"type":"Point","coordinates":[-120.61292,39.7182]}},{"type":"Feature","properties":{"unit_id":117,"landing_id":4,"elev":5325.8,"corridors_ok":0,"coverage_pct":0.0},"geometry":{"type":"Point","coordinates":[-120.61122,39.71782]}},{"type":"Feature","properties":{"unit_id":117,"landing_id":5,"elev":5328.4,"corridors_ok":2,"coverage_pct":3.8},"geometry":{"type":"Point","coordinates":[-120.61395,39.71824]}},{"type":"Feature","properties":{"unit_id":117,"landing_id":6,"elev":5306.4,"corridors_ok":6,"coverage_pct":4.0},"geometry":{"type":"Point","coordinates":[-120.6159,39.71949]}},{"type":"Feature","properties":{"unit_id":117,"landing_id":7,"elev":4993.1,"corridors_ok":0,"coverage_pct":0.0},"geometry":{"type":"Point","coordinates":[-120.60635,39.71992]}},{"type":"Feature","properties":{"unit_id":117,"landing_id":8,"elev":4971.9,"corridors_ok":1,"coverage_pct":1.7},"geometry":{"type":"Point","coordinates":[-120.60806,39.7212]}},{"type":"Feature","properties":{"unit_id":117,"landing_id":9,"elev":5079.9,"corridors_ok":9,"coverage_pct":18.5},"geometry":{"type":"Point","coordinates":[-120.61004,39.72063]}},{"type":"Feature","properties":{"unit_id":117,"landing_id":10,"elev":5119.5,"corridors_ok":2,"coverage_pct":7.9},"geometry":{"type":"Point","coordinates":[-120.61277,39.72043]}},{"type":"Feature","properties":{"unit_id":117,"landing_id":11,"elev":5174.3,"corridors_ok":0,"coverage_pct":0.0},"geometry":{"type":"Point","coordinates":[-120.6153,39.72097]}},{"type":"Feature","properties":{"unit_id":118,"landing_id":1,"elev":4944.0,"corridors_ok":0,"coverage_pct":0.0},"geometry":{"type":"Point","coordinates":[-120.61002,39.73982]}},{"type":"Feature","properties":{"unit_id":118,"landing_id":2,"elev":4976.2,"corridors_ok":12,"coverage_pct":5.9},"geometry":{"type":"Point","coordinates":[-120.61012,39.73818]}},{"type":"Feature","properties":{"unit_id":118,"landing_id":3,"elev":4991.6,"corridors_ok":0,"coverage_pct":0.0},"geometry":{"type":"Point","coordinates":[-120.61016,39.73653]}},{"type":"Feature","properties":{"unit_id":118,"landing_id":4,"elev":5008.7,"corridors_ok":2,"coverage_pct":7.5},"geometry":{"type":"Point","coordinates":[-120.61064,39.73495]}},{"type":"Feature","properties":{"unit_id":118,"landing_id":5,"elev":5032.3,"corridors_ok":9,"coverage_pct":4.0},"geometry":{"type":"Point","coordinates":[-120.61213,39.73377]}},{"type":"Feature","properties":{"unit_id":118,"landing_id":6,"elev":5052.5,"corridors_ok":8,"coverage_pct":4.4},"geometry":{"type":"Point","coordinates":[-120.61388,39.73292]}},{"type":"Feature","properties":{"unit_id":118,"landing_id":7,"elev":5066.2,"corridors_ok":1,"coverage_pct":1.6},"geometry":{"type":"Point","coordinates":[-120.61438,39.73165]}},{"type":"Feature","properties":{"unit_id":118,"landing_id":8,"elev":5047.0,"corridors_ok":13,"coverage_pct":4.4},"geometry":{"type":"Point","coordinates":[-120.61344,39.733]}},{"type":"Feature","properties":{"unit_id":118,"landing_id":9,"elev":5024.2,"corridors_ok":10,"coverage_pct":6.1},"geometry":{"type":"Point","coordinates":[-120.61175,39.73395]}},{"type":"Feature","properties":{"unit_id":118,"landing_id":10,"elev":5006.5,"corridors_ok":2,"coverage_pct":8.9},"geometry":{"type":"Point","coordinates":[-120.6104,39.73523]}},{"type":"Feature","properties":{"unit_id":118,"landing_id":11,"elev":4989.2,"corridors_ok":0,"coverage_pct":0.0},"geometry":{"type":"Point","coordinates":[-120.60997,39.73683]}},{"type":"Feature","properties":{"unit_id":118,"landing_id":12,"elev":4966.0,"corridors_ok":6,"coverage_pct":4.6},"geometry":{"type":"Point","coordinates":[-120.60996,39.73848]}},{"type":"Feature","properties":{"unit_id":406,"landing_id":1,"elev":5004.2,"corridors_ok":0,"coverage_pct":0.0},"geometry":{"type":"Point","coordinates":[-120.60838,39.72162]}},{"type":"Feature","properties":{"unit_id":406,"landing_id":2,"elev":5034.1,"corridors_ok":5,"coverage_pct":67.1},"geometry":{"type":"Point","coordinates":[-120.60902,39.72139]}},{"type":"Feature","properties":{"unit_id":406,"landing_id":3,"elev":5055.4,"corridors_ok":4,"coverage_pct":61.8},"geometry":{"type":"Point","coordinates":[-120.60953,39.72101]}}]}