{"type":"FeatureCollection","features":[{"type":"Feature","properties":{"class":"perennial","name":"Mohawk Creek"},"geometry":{"type":"LineString","coordinates":[[-120.60731,39.72175],[-120.60736,39.72181],[-120.60736,39.72196],[-120.60714,39.72224],[-120.6071,39.72233],[-120.60672,39.72268],[-120.60656,39.72301],[-120.6065,39.72316],[-120.60647,39.72339],[-120.6065,39.72358],[-120.60636,39.72384],[-120.60623,39.72403],[-120.6062,39.72416],[-120.60624,39.72453],[-120.60621,39.72482],[-120.60623,39.72492],[-120.60646,39.72528],[-120.60652,39.72542],[-120.60657,39.72572],[-120.60649,39.72604],[-120.60649,39.72645],[-120.6063,39.72675]]}},{"type":"Feature","properties":{"class":"perennial","name":"Gray Eagle Creek"},"geometry":{"type":"LineString","coordinates":[[-120.6489,39.74186],[-120.64882,39.74204],[-120.64857,39.74226],[-120.64814,39.74253],[-120.64807,39.74269]]}},{"type":"Feature","properties":{"class":"ephemeral","name":""},"geometry":{"type":"LineString","coordinates":[[-120.64205,39.75572],[-120.64198,39.75594],[-120.64154,39.75665],[-120.64133,39.75709],[-120.64111,39.75737],[-120.64104,39.75758],[-120.64068,39.75802],[-120.64032,39.75862],[-120.63953,39.75955],[-120.63931,39.76038],[-120.63931,39.76087],[-120.63916,39.76175],[-120.63901,39.7623],[-120.63879,39.76272]]}},{"type":"Feature","properties":{"class":"perennial","name":""},"geometry":{"type":"LineString","coordinates":[[-120.60842,39.72629],[-120.60818,39.72635],[-120.60744,39.72639],[-120.60697,39.72649],[-120.60652,39.72672],[-120.60639,39.72676],[-120.6063,39.72675]]}},{"type":"Feature","properties":{"class":"ephemeral","name":""},"geometry":{"type":"LineString","coordinates":[[-120.65044,39.73401],[-120.65094,39.73423],[-120.65165,39.73434],[-120.65229,39.73472],[-120.65279,39.73489],[-120.65314,39.7351],[-120.65336,39.73527],[-120.6535,39.73527]]}},{"type":"Feature","properties":{"class":"ephemeral","name":""},"geometry":{"type":"LineString","coordinates":[[-120.66404,39.73309],[-120.66361,39.73352],[-120.66333,39.73391],[-120.66283,39.73435],[-120.6624,39.73478],[-120.66176,39.73522],[-120.66162,39.73522],[-120.66133,39.73539],[-120.66069,39.73561],[-120.6597,39.73571]]}},{"type":"Feature","properties":{"class":"perennial","name":"Gray Eagle Creek"},"geometry":{"type":"LineString","coordinates":[[-120.65238,39.7384],[-120.65193,39.7387]]}},{"type":"Feature","properties":{"class":"ephemeral","name":""},"geometry":{"type":"LineString","coordinates":[[-120.63028,39.73547],[-120.62971,39.73575],[-120.62929,39.73585],[-120.629,39.73602],[-120.6275,39.7364],[-120.62722,39.73646],[-120.62615,39.73651]]}},{"type":"Feature","properties":{"class":"ephemeral","name":""},"geometry":{"type":"LineString","coordinates":[[-120.63645,39.75197],[-120.63652,39.75214],[-120.63644,39.75279],[-120.63637,39.7529],[-120.6363,39.75321]]}},{"type":"Feature","properties":{"class":"perennial","name":"Gray Eagle Creek"},"geometry":{"type":"LineString","coordinates":[[-120.65453,39.73708],[-120.65403,39.73747]]}},{"type":"Feature","properties":{"class":"intermittent","name":""},"geometry":{"type":"LineString","coordinates":[[-120.61928,39.71871],[-120.61918,39.7188],[-120.61895,39.7189],[-120.61843,39.71903],[-120.61815,39.71914],[-120.61792,39.71932],[-120.61769,39.71961],[-120.61722,39.71983],[-120.61711,39.71993],[-120.61702,39.72004],[-120.61699,39.72013],[-120.61696,39.72034],[-120.61698,39.7206],[-120.61683,39.72092],[-120.61667,39.72111],[-120.61632,39.72131],[-120.61618,39.72154],[-120.61592,39.72241],[-120.61586,39.72306]]}},{"type":"Feature","properties":{"class":"perennial","name":"Frazier Creek"},"geometry":{"type":"LineString","coordinates":[[-120.62544,39.73449],[-120.62527,39.73465],[-120.62513,39.73485],[-120.62485,39.73508],[-120.62471,39.73524]]}},{"type":"Feature","properties":{"class":"perennial","name":""},"geometry":{"type":"LineString","coordinates":[[-120.61499,39.72534],[-120.6148,39.7253],[-120.61473,39.72531],[-120.61458,39.7254],[-120.61434,39.72551],[-120.61409,39.72552],[-120.61387,39.72549],[-120.6136,39.72552],[-120.61316,39.72561],[-120.61271,39.72564],[-120.61229,39.72559],[-120.61185,39.7254],[-120.61161,39.72538]]}},{"type":"Feature","properties":{"class":"ephemeral","name":""},"geometry":{"type":"LineString","coordinates":[[-120.6524,39.72979],[-120.65265,39.73022],[-120.65279,39.73061],[-120.65279,39.73121],[-120.65293,39.73176],[-120.65336,39.73264],[-120.6535,39.73318],[-120.65343,39.7334],[-120.65322,39.73385]]}},{"type":"Feature","properties":{"class":"intermittent","name":""},"geometry":{"type":"LineString","coordinates":[[-120.63365,39.735],[-120.63311,39.73541],[-120.63264,39.73601],[-120.63203,39.73646],[-120.63189,39.73662],[-120.63169,39.73692],[-120.6316,39.73717],[-120.63137,39.7375],[-120.63074,39.73867]]}},{"type":"Feature","properties":{"class":"intermittent","name":""},"geometry":{"type":"LineString","coordinates":[[-120.65792,39.73198],[-120.65778,39.73198],[-120.65753,39.73206]]}},{"type":"Feature","properties":{"class":"perennial","name":"Gray Eagle Creek"},"geometry":{"type":"LineString","coordinates":[[-120.64807,39.74269],[-120.64794,39.74301],[-120.64778,39.74313],[-120.64757,39.74321],[-120.64749,39.7433]]}},{"type":"Feature","properties":{"class":"intermittent","name":""},"geometry":{"type":"LineString","coordinates":[[-120.6535,39.7345],[-120.6535,39.73527]]}},{"type":"Feature","properties":{"class":"intermittent","name":""},"geometry":{"type":"LineString","coordinates":[[-120.6473,39.74004],[-120.64751,39.74054],[-120.64751,39.74119],[-120.64737,39.74136]]}},{"type":"Feature","properties":{"class":"ephemeral","name":""},"geometry":{"type":"LineString","coordinates":[[-120.61857,39.73722],[-120.61914,39.73749],[-120.6197,39.73765],[-120.61992,39.73765]]}},{"type":"Feature","properties":{"class":"perennial","name":""},"geometry":{"type":"LineString","coordinates":[[-120.63674,39.73667],[-120.63669,39.73682],[-120.6365,39.73719],[-120.63582,39.7382],[-120.63515,39.73892],[-120.63482,39.73955],[-120.6345,39.74039],[-120.63443,39.74051],[-120.6343,39.74094],[-120.63421,39.74155],[-120.63396,39.74202],[-120.63392,39.74217]]}},{"type":"Feature","properties":{"class":"intermittent","name":""},"geometry":{"type":"LineString","coordinates":[[-120.61586,39.72306],[-120.61582,39.72334],[-120.61577,39.72342],[-120.61563,39.7236],[-120.61534,39.72381],[-120.61467,39.72404],[-120.61377,39.72423],[-120.61354,39.72435],[-120.61338,39.72449],[-120.61319,39.72461],[-120.6127,39.72471],[-120.61206,39.72478],[-120.61197,39.72481]]}},{"type":"Feature","properties":{"class":"ephemeral","name":""},"geometry":{"type":"LineString","coordinates":[[-120.62146,39.73524],[-120.62139,39.73551],[-120.62147,39.73737],[-120.62155,39.7377]]}},{"type":"Feature","properties":{"class":"ephemeral","name":""},"geometry":{"type":"LineString","coordinates":[[-120.61013,39.71907],[-120.61006,39.71929],[-120.60992,39.71945],[-120.60978,39.71956],[-120.60957,39.71967],[-120.60815,39.72077]]}},{"type":"Feature","properties":{"class":"ephemeral","name":""},"geometry":{"type":"LineString","coordinates":[[-120.62517,39.72436],[-120.62439,39.72464],[-120.62333,39.72492],[-120.62213,39.72503],[-120.6217,39.72492],[-120.6212,39.72471],[-120.62106,39.7246]]}},{"type":"Feature","properties":{"class":"ephemeral","name":""},"geometry":{"type":"LineString","coordinates":[[-120.61959,39.72755],[-120.61945,39.72755],[-120.61916,39.72771],[-120.6186,39.72788],[-120.61747,39.72805],[-120.61711,39.72816],[-120.61697,39.72827]]}},{"type":"Feature","properties":{"class":"perennial","name":"Frazier Creek"},"geometry":{"type":"LineString","coordinates":[[-120.61801,39.74443],[-120.61766,39.7447],[-120.61753,39.74487],[-120.6175,39.7452],[-120.61763,39.74566],[-120.6176,39.74589],[-120.61759,39.746],[-120.61744,39.74645],[-120.61729,39.74661],[-120.61696,39.74689],[-120.61625,39.74733],[-120.61584,39.74747],[-120.61515,39.74767],[-120.61484,39.74779],[-120.6146,39.74792],[-120.61449,39.74804],[-120.61447,39.74813],[-120.61428,39.7484],[-120.61389,39.74874],[-120.61374,39.74891],[-120.6136,39.74922],[-120.61345,39.74934],[-120.61316,39.74967],[-120.61284,39.74976],[-120.61255,39.74978]]}},{"type":"Feature","properties":{"class":"intermittent","name":""},"geometry":{"type":"LineString","coordinates":[[-120.60836,39.74397],[-120.60775,39.74397],[-120.60742,39.744],[-120.60662,39.74423],[-120.60637,39.74425],[-120.60549,39.74414],[-120.60442,39.74408]]}},{"type":"Feature","properties":{"class":"ephemeral","name":""},"geometry":{"type":"LineString","coordinates":[[-120.61278,39.72671],[-120.61264,39.72676],[-120.61123,39.72715],[-120.61023,39.72709],[-120.60974,39.72688],[-120.60945,39.72666],[-120.60913,39.72633]]}},{"type":"Feature","properties":{"class":"ephemeral","name":""},"geometry":{"type":"LineString","coordinates":[[-120.61307,39.72121],[-120.6129,39.72168],[-120.61277,39.72293],[-120.61242,39.72392],[-120.61192,39.72441],[-120.61197,39.72481]]}},{"type":"Feature","properties":{"class":"ephemeral","name":""},"geometry":{"type":"LineString","coordinates":[[-120.62971,39.73739],[-120.62964,39.73761],[-120.62893,39.73816],[-120.62857,39.73854],[-120.62836,39.73915],[-120.6285,39.73968]]}},{"type":"Feature","properties":{"class":"perennial","name":""},"geometry":{"type":"LineString","coordinates":[[-120.63929,39.74143],[-120.6392,39.7415],[-120.63878,39.7417],[-120.63861,39.74187],[-120.63827,39.74215],[-120.63816,39.74222],[-120.63793,39.74226],[-120.63779,39.74258],[-120.63772,39.74266],[-120.63703,39.74303],[-120.63649,39.74327],[-120.63625,39.74346]]}},{"type":"Feature","properties":{"class":"ephemeral","name":""},"geometry":{"type":"LineString","coordinates":[[-120.65749,39.73895],[-120.65734,39.73895],[-120.6572,39.73884],[-120.65692,39.73879],[-120.65578,39.73818],[-120.65549,39.73818],[-120.65485,39.73829],[-120.65421,39.73868],[-120.65364,39.73906],[-120.65328,39.73922],[-120.65271,39.73955],[-120.65257,39.73966],[-120.65236,39.73977],[-120.65214,39.73999],[-120.65164,39.74026],[-120.651,39.74049],[-120.65086,39.74059],[-120.65029,39.7407],[-120.64986,39.74071],[-120.64975,39.74068]]}},{"type":"Feature","properties":{"class":"ephemeral","name":""},"geometry":{"type":"LineString","coordinates":[[-120.6453,39.74147],[-120.64566,39.74147],[-120.64609,39.7418],[-120.64673,39.7424],[-120.64701,39.74262],[-120.64715,39.74306],[-120.64737,39.74328],[-120.64749,39.7433]]}},{"type":"Feature","properties":{"class":"ephemeral","name":""},"geometry":{"type":"LineString","coordinates":[[-120.61729,39.71657],[-120.616,39.7179],[-120.61586,39.71817],[-120.61516,39.71889],[-120.61447,39.71944]]}},{"type":"Feature","properties":{"class":"intermittent","name":""},"geometry":{"type":"LineString","coordinates":[[-120.61293,39.73391],[-120.6123,39.73361],[-120.61196,39.73354],[-120.61151,39.73358],[-120.61119,39.73368],[-120.61109,39.73373],[-120.61085,39.73375],[-120.61042,39.73366],[-120.61019,39.73358],[-120.60991,39.73352],[-120.60959,39.7335],[-120.60911,39.73358],[-120.60884,39.73365],[-120.60845,39.73365],[-120.60824,39.7337],[-120.60797,39.7338],[-120.60775,39.73385],[-120.60752,39.73385],[-120.60717,39.73398],[-120.60698,39.734],[-120.60678,39.73399],[-120.60643,39.73386],[-120.60579,39.73377],[-120.60525,39.73378],[-120.60476,39.73375],[-120.60444,39.73378]]}},{"type":"Feature","properties":{"class":"ephemeral","name":""},"geometry":{"type":"LineString","coordinates":[[-120.64012,39.75626],[-120.63991,39.75665],[-120.6389,39.75758],[-120.63819,39.7579],[-120.63712,39.75834],[-120.63662,39.75845],[-120.63626,39.75865]]}},{"type":"Feature","properties":{"class":"ephemeral","name":""},"geometry":{"type":"LineString","coordinates":[[-120.62251,39.72075],[-120.62239,39.72099],[-120.62218,39.72121],[-120.62162,39.72192],[-120.62105,39.72247],[-120.62021,39.72302],[-120.61964,39.72329],[-120.619,39.72351],[-120.61872,39.72368],[-120.61808,39.72368]]}},{"type":"Feature","properties":{"class":"ephemeral","name":""},"geometry":{"type":"LineString","coordinates":[[-120.63533,39.76456],[-120.6352,39.76492],[-120.63509,39.76543]]}},{"type":"Feature","properties":{"class":"intermittent","name":""},"geometry":{"type":"LineString","coordinates":[[-120.6265,39.72619],[-120.62606,39.72629],[-120.62601,39.72628],[-120.62497,39.72646],[-120.62481,39.72648],[-120.62442,39.72644],[-120.62427,39.72645],[-120.62419,39.72648],[-120.62378,39.72655],[-120.62342,39.72659],[-120.62324,39.72659],[-120.62308,39.72657],[-120.62252,39.72641],[-120.62216,39.7262],[-120.62146,39.72599],[-120.62107,39.72591],[-120.62094,39.72591]]}},{"type":"Feature","properties":{"class":"intermittent","name":""},"geometry":{"type":"LineString","coordinates":[[-120.64475,39.75699],[-120.6446,39.75738],[-120.64446,39.75804],[-120.64445,39.7593],[-120.64494,39.75963],[-120.64544,39.76007],[-120.64558,39.76024],[-120.64568,39.76056]]}},{"type":"Feature","properties":{"class":"ephemeral","name":""},"geometry":{"type":"LineString","coordinates":[[-120.61225,39.71732],[-120.61211,39.7177],[-120.61154,39.71836],[-120.61141,39.71934],[-120.61134,39.7195],[-120.61127,39.71989],[-120.61064,39.72147],[-120.61064,39.72163]]}},{"type":"Feature","properties":{"class":"intermittent","name":""},"geometry":{"type":"LineString","coordinates":[[-120.64737,39.74136],[-120.64758,39.74191],[-120.64758,39.74207],[-120.64765,39.74246],[-120.64787,39.74262],[-120.64807,39.74269]]}},{"type":"Feature","properties":{"class":"ephemeral","name":""},"geometry":{"type":"LineString","coordinates":[[-120.66149,39.72731],[-120.66084,39.72787],[-120.6607,39.72803],[-120.66056,39.72803]]}},{"type":"Feature","properties":{"class":"ephemeral","name":""},"geometry":{"type":"LineString","coordinates":[[-120.64523,39.74322],[-120.6453,39.74399],[-120.64544,39.74449],[-120.64559,39.74482],[-120.64573,39.74493],[-120.64576,39.74504]]}},{"type":"Feature","properties":{"class":"intermittent","name":""},"geometry":{"type":"LineString","coordinates":[[-120.65322,39.73385],[-120.65329,39.73418],[-120.65336,39.73434],[-120.6535,39.7345]]}},{"type":"Feature","properties":{"class":"ephemeral","name":""},"geometry":{"type":"LineString","coordinates":[[-120.66333,39.73654],[-120.66337,39.73685]]}},{"type":"Feature","properties":{"class":"intermittent","name":""},"geometry":{"type":"LineString","coordinates":[[-120.6535,39.73527],[-120.65357,39.73549],[-120.65385,39.73714],[-120.65403,39.73747]]}},{"type":"Feature","properties":{"class":"perennial","name":"Frazier Creek"},"geometry":{"type":"LineString","coordinates":[[-120.62973,39.73236],[-120.62947,39.73258],[-120.62902,39.73291],[-120.62852,39.73317],[-120.62793,39.7334],[-120.62776,39.73352]]}},{"type":"Feature","properties":{"class":"ephemeral","name":""},"geometry":{"type":"LineString","coordinates":[[-120.62906,39.74283],[-120.62849,39.74365],[-120.62799,39.74491],[-120.62764,39.74596],[-120.62749,39.74628],[-120.62714,39.74694],[-120.62685,39.74721],[-120.62664,39.74738],[-120.62642,39.74749],[-120.62628,39.74749]]}},{"type":"Feature","properties":{"class":"ephemeral","name":""},"geometry":{"type":"LineString","coordinates":[[-120.62241,39.73998],[-120.62163,39.73999],[-120.62085,39.7398]]}},{"type":"Feature","properties":{"class":"ephemeral","name":""},"geometry":{"type":"LineString","coordinates":[[-120.64575,39.75605],[-120.64568,39.75623],[-120.64489,39.757],[-120.64475,39.75699]]}},{"type":"Feature","properties":{"class":"intermittent","name":""},"geometry":{"type":"LineString","coordinates":[[-120.60912,39.73018],[-120.60845,39.73049],[-120.60781,39.7307],[-120.60743,39.73078],[-120.60679,39.73086],[-120.60618,39.73106],[-120.60589,39.73108],[-120.6057,39.73106],[-120.60514,39.73101],[-120.60476,39.73094]]}},{"type":"Feature","properties":{"class":"perennial","name":"Gray Eagle Creek"},"geometry":{"type":"LineString","coordinates":[[-120.64975,39.74068],[-120.64959,39.74109],[-120.64934,39.74122],[-120.64918,39.74135],[-120.64902,39.74159],[-120.6489,39.74186]]}},{"type":"Feature","properties":{"class":"perennial","name":""},"geometry":{"type":"LineString","coordinates":[[-120.61802,39.72501],[-120.61761,39.72504],[-120.61735,39.72511],[-120.61687,39.72529],[-120.61645,39.72539],[-120.61632,39.72545],[-120.61586,39.72552],[-120.6156,39.72551],[-120.61499,39.72534]]}},{"type":"Feature","properties":{"class":"ephemeral","name":""},"geometry":{"type":"LineString","coordinates":[[-120.63137,39.7499],[-120.63155,39.75036],[-120.6314,39.75075],[-120.63082,39.75173],[-120.63063,39.75193],[-120.63003,39.75273],[-120.62904,39.75399],[-120.6284,39.75455]]}},{"type":"Feature","properties":{"class":"ephemeral","name":""},"geometry":{"type":"LineString","coordinates":[[-120.60815,39.72077],[-120.60815,39.72093],[-120.60787,39.72115],[-120.60731,39.72175]]}},{"type":"Feature","properties":{"class":"ephemeral","name":""},"geometry":{"type":"LineString","coordinates":[[-120.66305,39.73155],[-120.6629,39.73155],[-120.66127,39.73127],[-120.6602,39.73132],[-120.65899,39.73149],[-120.65863,39.7316],[-120.65792,39.73198]]}},{"type":"Feature","properties":{"class":"intermittent","name":""},"geometry":{"type":"LineString","coordinates":[[-120.61454,39.74112],[-120.61449,39.74115],[-120.61407,39.74166],[-120.61361,39.74208],[-120.61333,39.74225],[-120.61286,39.74241],[-120.61249,39.74246],[-120.61217,39.74247],[-120.61168,39.74233],[-120.61158,39.74232],[-120.61113,39.74245],[-120.61085,39.74262],[-120.61045,39.743],[-120.61019,39.74317],[-120.61,39.74333],[-120.60946,39.7437],[-120.60903,39.74389],[-120.60872,39.74396],[-120.60836,39.74397]]}},{"type":"Feature","properties":{"class":"ephemeral","name":""},"geometry":{"type":"LineString","coordinates":[[-120.62361,39.7402],[-120.62283,39.74015],[-120.62255,39.74009],[-120.62241,39.73998]]}},{"type":"Feature","properties":{"class":"ephemeral","name":""},"geometry":{"type":"MultiLineString","coordinates":[[[-120.63171,39.73339],[-120.63089,39.73296]],[[-120.63005,39.73253],[-120.62973,39.73236]]]}},{"type":"Feature","properties":{"class":"ephemeral","name":""},"geometry":{"type":"LineString","coordinates":[[-120.61293,39.74319],[-120.61279,39.74347],[-120.61194,39.74402],[-120.6113,39.74424],[-120.61059,39.7444],[-120.60918,39.74436],[-120.60836,39.74397]]}},{"type":"Feature","properties":{"class":"ephemeral","name":""},"geometry":{"type":"LineString","coordinates":[[-120.63801,39.7328],[-120.63734,39.7336],[-120.63717,39.734],[-120.63713,39.73472]]}},{"type":"Feature","properties":{"class":"ephemeral","name":""},"geometry":{"type":"LineString","coordinates":[[-120.62106,39.7246],[-120.62064,39.72443],[-120.62014,39.72433],[-120.61986,39.72417]]}},{"type":"Feature","properties":{"class":"ephemeral","name":""},"geometry":{"type":"LineString","coordinates":[[-120.61085,39.72295],[-120.61078,39.72316],[-120.61043,39.72366],[-120.61008,39.7241],[-120.60966,39.7248],[-120.60931,39.72557],[-120.60924,39.72595],[-120.60921,39.72632]]}},{"type":"Feature","properties":{"class":"intermittent","name":""},"geometry":{"type":"LineString","coordinates":[[-120.6359,39.74657],[-120.63568,39.74657],[-120.63469,39.74722],[-120.63419,39.74777],[-120.63404,39.74805],[-120.63255,39.74931],[-120.63131,39.7496]]}},{"type":"Feature","properties":{"class":"intermittent","name":""},"geometry":{"type":"LineString","coordinates":[[-120.65863,39.73259],[-120.65849,39.73253],[-120.65792,39.73198]]}},{"type":"Feature","properties":{"class":"ephemeral","name":""},"geometry":{"type":"LineString","coordinates":[[-120.61953,39.75024],[-120.62016,39.75074],[-120.62066,39.75118]]}},{"type":"Feature","properties":{"class":"ephemeral","name":""},"geometry":{"type":"LineString","coordinates":[[-120.66083,39.73775],[-120.66069,39.73769],[-120.66069,39.73747],[-120.66034,39.73643],[-120.66005,39.73605],[-120.6597,39.73571]]}},{"type":"Feature","properties":{"class":"ephemeral","name":""},"geometry":{"type":"LineString","coordinates":[[-120.61064,39.72163],[-120.6105,39.72174],[-120.61,39.7224],[-120.60972,39.72262],[-120.60937,39.723],[-120.60923,39.72328],[-120.60901,39.7235],[-120.60873,39.7241],[-120.60867,39.72476],[-120.60839,39.72563],[-120.60842,39.72629]]}},{"type":"Feature","properties":{"class":"intermittent","name":"Frazier Creek"},"geometry":{"type":"LineString","coordinates":[[-120.61255,39.74978],[-120.61235,39.74978],[-120.61219,39.74981],[-120.6121,39.74984],[-120.61201,39.74991],[-120.61175,39.74998],[-120.61156,39.75018],[-120.6114,39.75031],[-120.61096,39.75047],[-120.6108,39.75061],[-120.61069,39.75082]]}},{"type":"Feature","properties":{"class":"perennial","name":"Frazier Creek"},"geometry":{"type":"LineString","coordinates":[[-120.6197,39.74281],[-120.6192,39.7431],[-120.61883,39.74337],[-120.61856,39.74371],[-120.61824,39.74422],[-120.61801,39.74443]]}},{"type":"Feature","properties":{"class":"perennial","name":""},"geometry":{"type":"LineString","coordinates":[[-120.60913,39.72633],[-120.60868,39.72625],[-120.60842,39.72629]]}},{"type":"Feature","properties":{"class":"ephemeral","name":""},"geometry":{"type":"LineString","coordinates":[[-120.63489,39.73364],[-120.63425,39.73427],[-120.63365,39.735]]}},{"type":"Feature","properties":{"class":"ephemeral","name":""},"geometry":{"type":"LineString","coordinates":[[-120.61552,39.73728],[-120.61538,39.73783],[-120.61524,39.7386],[-120.61454,39.74112]]}},{"type":"Feature","properties":{"class":"ephemeral","name":""},"geometry":{"type":"LineString","coordinates":[[-120.61396,39.71626],[-120.61401,39.71649],[-120.61394,39.71671],[-120.61387,39.71682],[-120.61367,39.71769],[-120.61345,39.71813],[-120.61317,39.71889],[-120.6124,39.7207],[-120.61163,39.72136],[-120.61099,39.72163],[-120.61064,39.72163]]}},{"type":"Feature","properties":{"class":"ephemeral","name":""},"geometry":{"type":"LineString","coordinates":[[-120.6213,39.7499],[-120.62132,39.75016],[-120.6208,39.7508],[-120.6208,39.75091],[-120.62066,39.75118]]}},{"type":"Feature","properties":{"class":"ephemeral","name":""},"geometry":{"type":"LineString","coordinates":[[-120.65436,39.73176],[-120.65443,39.73204],[-120.65443,39.73253],[-120.65414,39.73363],[-120.65393,39.73407],[-120.65379,39.73418],[-120.65371,39.7344],[-120.6535,39.7345]]}},{"type":"Feature","properties":{"class":"intermittent","name":""},"geometry":{"type":"LineString","coordinates":[[-120.61197,39.72481],[-120.61188,39.72484],[-120.61172,39.72498],[-120.61161,39.72538]]}},{"type":"Feature","properties":{"class":"ephemeral","name":""},"geometry":{"type":"LineString","coordinates":[[-120.62066,39.75118],[-120.62083,39.75128]]}},{"type":"Feature","properties":{"class":"ephemeral","name":""},"geometry":{"type":"LineString","coordinates":[[-120.62023,39.72957],[-120.61967,39.72952],[-120.61875,39.72935],[-120.61811,39.72909],[-120.61697,39.72827]]}},{"type":"Feature","properties":{"class":"ephemeral","name":""},"geometry":{"type":"LineString","coordinates":[[-120.60716,39.71631],[-120.607,39.71668],[-120.60693,39.71706],[-120.60693,39.71745],[-120.6068,39.7181],[-120.60658,39.71838],[-120.60638,39.71859]]}},{"type":"Feature","properties":{"class":"perennial","name":"Mohawk Creek"},"geometry":{"type":"LineString","coordinates":[[-120.60562,39.71768],[-120.60559,39.71807],[-120.6057,39.7182],[-120.60583,39.71827],[-120.60614,39.71836],[-120.60624,39.71841],[-120.6063,39.71846],[-120.60638,39.71859]]}},{"type":"Feature","properties":{"class":"perennial","name":"Gray Eagle Creek"},"geometry":{"type":"LineString","coordinates":[[-120.65753,39.73206],[-120.65719,39.73229],[-120.65706,39.73243],[-120.65629,39.73349],[-120.65619,39.73359],[-120.65565,39.73395],[-120.65558,39.73404],[-120.65551,39.7343],[-120.65545,39.73524],[-120.65532,39.73593],[-120.65519,39.73618],[-120.655,39.73641],[-120.65477,39.73681],[-120.6547,39.73692],[-120.65453,39.73708]]}},{"type":"Feature","properties":{"class":"perennial","name":"Gray Eagle Creek"},"geometry":{"type":"LineString","coordinates":[[-120.65193,39.7387],[-120.65182,39.73879],[-120.65177,39.73886],[-120.65101,39.73931],[-120.65082,39.73979],[-120.65045,39.74019],[-120.65013,39.74027],[-120.64995,39.74036]]}},{"type":"Feature","properties":{"class":"ephemeral","name":""},"geometry":{"type":"LineString","coordinates":[[-120.61989,39.71911],[-120.61983,39.7192],[-120.61842,39.72068],[-120.61751,39.72155],[-120.61716,39.72199],[-120.61666,39.72243],[-120.61586,39.72306]]}},{"type":"Feature","properties":{"class":"ephemeral","name":""},"geometry":{"type":"LineString","coordinates":[[-120.6232,39.74348],[-120.62292,39.74342],[-120.62278,39.74337],[-120.62171,39.74326],[-120.62143,39.74321],[-120.62129,39.74315],[-120.62093,39.74321],[-120.62029,39.74311],[-120.62008,39.74305],[-120.61987,39.74295],[-120.6197,39.74281]]}},{"type":"Feature","properties":{"class":"ephemeral","name":""},"geometry":{"type":"LineString","coordinates":[[-120.63063,39.74354],[-120.63049,39.74404],[-120.63049,39.74447],[-120.63063,39.74541],[-120.63077,39.74585],[-120.63098,39.74673],[-120.63116,39.74703]]}},{"type":"Feature","properties":{"class":"perennial","name":"Gray Eagle Creek"},"geometry":{"type":"LineString","coordinates":[[-120.64995,39.74036],[-120.64981,39.74052],[-120.64975,39.74068]]}},{"type":"Feature","properties":{"class":"ephemeral","name":""},"geometry":{"type":"LineString","coordinates":[[-120.6433,39.76039],[-120.64351,39.76067],[-120.64365,39.76094],[-120.64372,39.76133],[-120.64364,39.76237],[-120.64364,39.76276]]}},{"type":"Feature","properties":{"class":"perennial","name":"Frazier Creek"},"geometry":{"type":"LineString","coordinates":[[-120.62085,39.7398],[-120.62099,39.74019],[-120.62101,39.74043],[-120.62095,39.74058],[-120.62089,39.74071],[-120.62078,39.74084],[-120.62034,39.74126],[-120.62027,39.74152],[-120.62001,39.74183],[-120.61999,39.742],[-120.62004,39.74226],[-120.62001,39.74242],[-120.61991,39.74262],[-120.6197,39.74281]]}},{"type":"Feature","properties":{"class":"perennial","name":""},"geometry":{"type":"LineString","coordinates":[[-120.61161,39.72538],[-120.6111,39.72564],[-120.61068,39.72572],[-120.61051,39.72582],[-120.61032,39.72589],[-120.60984,39.72597],[-120.60975,39.72602],[-120.60959,39.72621],[-120.6095,39.72626],[-120.60932,39.72631],[-120.60921,39.72632]]}},{"type":"Feature","properties":{"class":"ephemeral","name":""},"geometry":{"type":"LineString","coordinates":[[-120.61763,39.73389],[-120.61749,39.73389],[-120.61678,39.73379],[-120.61586,39.73357],[-120.61472,39.73325],[-120.61444,39.73319],[-120.61394,39.73298],[-120.61323,39.7326],[-120.61181,39.73162],[-120.61153,39.7314],[-120.61061,39.73086],[-120.60925,39.73024]]}},{"type":"Feature","properties":{"class":"ephemeral","name":""},"geometry":{"type":"LineString","coordinates":[[-120.66134,39.73171],[-120.66084,39.73166],[-120.6607,39.73171],[-120.66005,39.73204],[-120.65941,39.7322],[-120.65913,39.73226],[-120.65863,39.73259]]}},{"type":"Feature","properties":{"class":"ephemeral","name":""},"geometry":{"type":"LineString","coordinates":[[-120.62097,39.7199],[-120.6202,39.72078],[-120.6197,39.72149],[-120.61935,39.72237],[-120.61907,39.72275],[-120.61808,39.72368]]}},{"type":"Feature","properties":{"class":"ephemeral","name":""},"geometry":{"type":"LineString","coordinates":[[-120.64958,39.74563],[-120.64915,39.74559],[-120.64893,39.74553],[-120.64801,39.74548],[-120.64687,39.74575],[-120.64601,39.74619],[-120.64544,39.74663],[-120.64509,39.74701],[-120.64486,39.74709]]}},{"type":"Feature","properties":{"class":"ephemeral","name":""},"geometry":{"type":"LineString","coordinates":[[-120.63363,39.73685],[-120.63349,39.73685],[-120.63299,39.73701],[-120.63213,39.7375],[-120.63092,39.73855],[-120.63074,39.73867]]}},{"type":"Feature","properties":{"class":"perennial","name":""},"geometry":{"type":"LineString","coordinates":[[-120.63116,39.74703],[-120.63109,39.74719],[-120.63109,39.74757],[-120.63096,39.74786],[-120.63108,39.74824],[-120.63099,39.74847],[-120.631,39.74858],[-120.63127,39.74914],[-120.6313,39.74928],[-120.63128,39.7495],[-120.63131,39.7496]]}},{"type":"Feature","properties":{"class":"perennial","name":""},"geometry":{"type":"LineString","coordinates":[[-120.63713,39.73472],[-120.63703,39.7349],[-120.63688,39.73538],[-120.63688,39.73553],[-120.63694,39.73579],[-120.63687,39.73607],[-120.63682,39.73645],[-120.63674,39.73667]]}},{"type":"Feature","properties":{"class":"intermittent","name":""},"geometry":{"type":"LineString","coordinates":[[-120.64922,39.73812],[-120.6493,39.73851],[-120.64922,39.73867]]}},{"type":"Feature","properties":{"class":"ephemeral","name":""},"geometry":{"type":"LineString","coordinates":[[-120.64556,39.75277],[-120.64549,39.75304],[-120.64534,39.75436],[-120.64526,39.75453],[-120.64504,39.7553],[-120.64497,39.7554],[-120.64483,39.75584],[-120.64475,39.75623],[-120.64468,39.75683],[-120.64475,39.75699]]}},{"type":"Feature","properties":{"class":"ephemeral","name":""},"geometry":{"type":"LineString","coordinates":[[-120.66483,39.7293],[-120.66376,39.72924],[-120.66319,39.72924],[-120.66248,39.72935],[-120.66198,39.72957],[-120.66141,39.72968],[-120.66127,39.72979]]}},{"type":"Feature","properties":{"class":"intermittent","name":""},"geometry":{"type":"LineString","coordinates":[[-120.62627,39.74138],[-120.62606,39.74166],[-120.62514,39.74256],[-120.62465,39.74326],[-120.6243,39.74361],[-120.62394,39.74404],[-120.62368,39.74428],[-120.62339,39.74468],[-120.62317,39.74486],[-120.623,39.74507],[-120.62272,39.74544],[-120.62245,39.74595],[-120.62234,39.74605],[-120.62217,39.74631],[-120.62204,39.74661],[-120.62173,39.74707],[-120.62169,39.7472],[-120.62163,39.74754],[-120.6215,39.74793],[-120.62147,39.74808],[-120.62147,39.74841],[-120.62152,39.7485],[-120.62153,39.74871],[-120.62163,39.74902],[-120.62168,39.74929],[-120.62156,39.74957],[-120.62143,39.74968],[-120.6213,39.7499]]}},{"type":"Feature","properties":{"class":"ephemeral","name":""},"geometry":{"type":"LineString","coordinates":[[-120.64559,39.73988],[-120.64588,39.74021],[-120.64623,39.74048],[-120.6468,39.74081],[-120.64737,39.74136]]}},{"type":"Feature","properties":{"class":"ephemeral","name":""},"geometry":{"type":"LineString","coordinates":[[-120.60925,39.73024],[-120.60912,39.73018]]}},{"type":"Feature","properties":{"class":"ephemeral","name":""},"geometry":{"type":"LineString","coordinates":[[-120.60479,39.71782],[-120.60524,39.71778],[-120.60538,39.71767],[-120.60562,39.71768]]}},{"type":"Feature","properties":{"class":"ephemeral","name":""},"geometry":{"type":"LineString","coordinates":[[-120.65699,39.73763],[-120.65685,39.73763],[-120.65649,39.73752],[-120.65613,39.73747],[-120.65499,39.73763],[-120.65442,39.7378],[-120.65393,39.73802],[-120.65321,39.73818],[-120.65271,39.7384],[-120.65238,39.7384]]}},{"type":"Feature","properties":{"class":"ephemeral","name":""},"geometry":{"type":"LineString","coordinates":[[-120.65086,39.7356],[-120.6515,39.73741],[-120.65158,39.73796],[-120.65172,39.7384],[-120.65193,39.73856],[-120.65193,39.7387]]}},{"type":"Feature","properties":{"class":"perennial","name":"Gray Eagle Creek"},"geometry":{"type":"LineString","coordinates":[[-120.65853,39.72951],[-120.65832,39.72999],[-120.65822,39.73037],[-120.65811,39.73059],[-120.6578,39.73101],[-120.65776,39.73111]]}},{"type":"Feature","properties":{"class":"intermittent","name":""},"geometry":{"type":"LineString","coordinates":[[-120.65215,39.73308],[-120.65293,39.73357],[-120.65322,39.73385]]}},{"type":"Feature","properties":{"class":"intermittent","name":""},"geometry":{"type":"LineString","coordinates":[[-120.62181,39.73171],[-120.62113,39.73175],[-120.62028,39.73166],[-120.61995,39.73167],[-120.61967,39.73166],[-120.61937,39.73162],[-120.61883,39.73163],[-120.61801,39.73161]]}},{"type":"Feature","properties":{"class":"ephemeral","name":""},"geometry":{"type":"LineString","coordinates":[[-120.6399,39.734],[-120.63961,39.7346],[-120.63904,39.73559],[-120.63862,39.73603],[-120.63805,39.7363],[-120.63755,39.73646],[-120.63674,39.73667]]}},{"type":"Feature","properties":{"class":"ephemeral","name":""},"geometry":{"type":"LineString","coordinates":[[-120.624,39.73239],[-120.62415,39.73305],[-120.62436,39.73354],[-120.62472,39.73397],[-120.62544,39.73449]]}},{"type":"Feature","properties":{"class":"perennial","name":"Frazier Creek"},"geometry":{"type":"LineString","coordinates":[[-120.62098,39.73784],[-120.62085,39.73799],[-120.62081,39.73822],[-120.62086,39.73842],[-120.6211,39.73892],[-120.62104,39.7391],[-120.62088,39.73929],[-120.62085,39.73938],[-120.62082,39.73962],[-120.62085,39.7398]]}},{"type":"Feature","properties":{"class":"perennial","name":"Gray Eagle Creek"},"geometry":{"type":"LineString","coordinates":[[-120.64486,39.74709],[-120.64483,39.74717],[-120.64451,39.74737],[-120.6444,39.7475],[-120.64421,39.74813],[-120.64424,39.74843],[-120.64412,39.74865],[-120.64408,39.74898],[-120.644,39.74906],[-120.64383,39.74916],[-120.64367,39.74936],[-120.64324,39.74953],[-120.64306,39.74967],[-120.64279,39.75004],[-120.64271,39.7501],[-120.64261,39.75023],[-120.64251,39.75032],[-120.64207,39.75048],[-120.64142,39.75091],[-120.64131,39.75103],[-120.64032,39.75166],[-120.63999,39.7519],[-120.63974,39.75204],[-120.63959,39.75215],[-120.63946,39.75221],[-120.63919,39.75224],[-120.639,39.75223],[-120.63863,39.7523]]}},{"type":"Feature","properties":{"class":"ephemeral","name":""},"geometry":{"type":"LineString","coordinates":[[-120.62919,39.75178],[-120.62574,39.75404],[-120.62465,39.75454]]}},{"type":"Feature","properties":{"class":"perennial","name":""},"geometry":{"type":"LineString","coordinates":[[-120.62094,39.72591],[-120.62083,39.72588],[-120.62025,39.72582],[-120.61999,39.72575],[-120.61989,39.72572],[-120.61902,39.72521],[-120.61891,39.72516],[-120.6185,39.72507],[-120.61802,39.72501]]}},{"type":"Feature","properties":{"class":"ephemeral","name":""},"geometry":{"type":"LineString","coordinates":[[-120.63775,39.74536],[-120.63618,39.74629],[-120.6359,39.74657]]}},{"type":"Feature","properties":{"class":"ephemeral","name":""},"geometry":{"type":"LineString","coordinates":[[-120.62018,39.73388],[-120.62004,39.73388],[-120.61976,39.73366],[-120.61961,39.7335],[-120.61947,39.73301],[-120.61947,39.7329],[-120.61926,39.73263],[-120.61933,39.73241]]}},{"type":"Feature","properties":{"class":"perennial","name":"Gray Eagle Creek"},"geometry":{"type":"LineString","coordinates":[[-120.6363,39.75321],[-120.63581,39.75361],[-120.63518,39.75389],[-120.63465,39.75423],[-120.63444,39.75433],[-120.63347,39.75467],[-120.63334,39.7547],[-120.63284,39.7547]]}},{"type":"Feature","properties":{"class":"perennial","name":""},"geometry":{"type":"LineString","coordinates":[[-120.63131,39.7496],[-120.63137,39.7499]]}},{"type":"Feature","properties":{"class":"ephemeral","name":""},"geometry":{"type":"LineString","coordinates":[[-120.66309,39.72769],[-120.66262,39.72792],[-120.66177,39.72863],[-120.6607,39.72946],[-120.66041,39.72973],[-120.66041,39.72984]]}},{"type":"Feature","properties":{"class":"ephemeral","name":""},"geometry":{"type":"LineString","coordinates":[[-120.6401,39.74322],[-120.63975,39.74333],[-120.63896,39.74333],[-120.63625,39.74346]]}},{"type":"Feature","properties":{"class":"ephemeral","name":""},"geometry":{"type":"LineString","coordinates":[[-120.6109,39.71634],[-120.60949,39.7176],[-120.60906,39.71809],[-120.60836,39.71924],[-120.60815,39.71973],[-120.60808,39.72011],[-120.60808,39.7206],[-120.60815,39.72077]]}},{"type":"Feature","properties":{"class":"perennial","name":"Frazier Creek"},"geometry":{"type":"LineString","coordinates":[[-120.62776,39.73352],[-120.62755,39.73365],[-120.62731,39.73376],[-120.62661,39.73398],[-120.62606,39.73419],[-120.62581,39.73423],[-120.62558,39.73435],[-120.62544,39.73449]]}},{"type":"Feature","properties":{"class":"ephemeral","name":""},"geometry":{"type":"LineString","coordinates":[[-120.61639,39.74203],[-120.61647,39.74236],[-120.61689,39.74318],[-120.61725,39.74367],[-120.61768,39.74416],[-120.61801,39.74443]]}},{"type":"Feature","properties":{"class":"ephemeral","name":""},"geometry":{"type":"LineString","coordinates":[[-120.64743,39.73604],[-120.64766,39.73664],[-120.64858,39.73763],[-120.64901,39.73801],[-120.64922,39.73812]]}},{"type":"Feature","properties":{"class":"ephemeral","name":""},"geometry":{"type":"LineString","coordinates":[[-120.63938,39.75039],[-120.63909,39.75072],[-120.63902,39.75094],[-120.6388,39.75121],[-120.63851,39.75209],[-120.63863,39.7523]]}},{"type":"Feature","properties":{"class":"ephemeral","name":""},"geometry":{"type":"LineString","coordinates":[[-120.61933,39.73241],[-120.61801,39.73161]]}},{"type":"Feature","properties":{"class":"ephemeral","name":""},"geometry":{"type":"LineString","coordinates":[[-120.63016,39.74],[-120.62918,39.74067],[-120.62817,39.74115],[-120.62708,39.74142],[-120.62627,39.74138]]}},{"type":"Feature","properties":{"class":"perennial","name":"Gray Eagle Creek"},"geometry":{"type":"LineString","coordinates":[[-120.65403,39.73747],[-120.65368,39.73763],[-120.65346,39.73776],[-120.65314,39.73789],[-120.65281,39.7382],[-120.65238,39.7384]]}},{"type":"Feature","properties":{"class":"ephemeral","name":""},"geometry":{"type":"LineString","coordinates":[[-120.62195,39.73398],[-120.62238,39.73431],[-120.62259,39.73442],[-120.62345,39.73452],[-120.62366,39.73458],[-120.62437,39.73496],[-120.62471,39.73524]]}},{"type":"Feature","properties":{"class":"ephemeral","name":""},"geometry":{"type":"LineString","coordinates":[[-120.66362,39.7327],[-120.66312,39.73254],[-120.66233,39.73259],[-120.66148,39.73286],[-120.66048,39.73303],[-120.6592,39.73292],[-120.65884,39.73275],[-120.65863,39.73259]]}},{"type":"Feature","properties":{"class":"intermittent","name":""},"geometry":{"type":"LineString","coordinates":[[-120.61381,39.72963],[-120.61268,39.72947],[-120.61243,39.72947],[-120.6123,39.72949],[-120.612,39.7296],[-120.61171,39.72966],[-120.61023,39.72975],[-120.61001,39.72978],[-120.60985,39.72983],[-120.60912,39.73018]]}},{"type":"Feature","properties":{"class":"perennial","name":"Gray Eagle Creek"},"geometry":{"type":"LineString","coordinates":[[-120.65762,39.73167],[-120.65758,39.73201],[-120.65753,39.73206]]}},{"type":"Feature","properties":{"class":"intermittent","name":""},"geometry":{"type":"LineString","coordinates":[[-120.61315,39.72104],[-120.61291,39.72119],[-120.61267,39.72142],[-120.61203,39.72193],[-120.61167,39.7221],[-120.61127,39.72222],[-120.61055,39.72235],[-120.60963,39.72292],[-120.60952,39.72306],[-120.60945,39.72337],[-120.60948,39.72366],[-120.60945,39.72379],[-120.6095,39.72406],[-120.60959,39.72431],[-120.60959,39.7244],[-120.60948,39.72453],[-120.60927,39.72468],[-120.60917,39.72482],[-120.60901,39.72523],[-120.60879,39.72553],[-120.60866,39.726],[-120.60858,39.72616],[-120.60842,39.72629]]}},{"type":"Feature","properties":{"class":"intermittent","name":""},"geometry":{"type":"LineString","coordinates":[[-120.66056,39.72803],[-120.66034,39.7283],[-120.66006,39.72858],[-120.65853,39.72951]]}},{"type":"Feature","properties":{"class":"ephemeral","name":""},"geometry":{"type":"LineString","coordinates":[[-120.65379,39.72863],[-120.65479,39.72935],[-120.6555,39.73011],[-120.656,39.73044],[-120.65685,39.7311],[-120.65742,39.7316],[-120.65762,39.73167]]}},{"type":"Feature","properties":{"class":"intermittent","name":""},"geometry":{"type":"LineString","coordinates":[[-120.63074,39.73867],[-120.63025,39.73928],[-120.63012,39.73939],[-120.63005,39.73942],[-120.62993,39.73942],[-120.62939,39.73919],[-120.62913,39.73924],[-120.62894,39.73932],[-120.6287,39.7395],[-120.6285,39.73968]]}},{"type":"Feature","properties":{"class":"perennial","name":"Frazier Creek"},"geometry":{"type":"LineString","coordinates":[[-120.62155,39.7377],[-120.62128,39.7377],[-120.62108,39.73775]]}},{"type":"Feature","properties":{"class":"perennial","name":"Gray Eagle Creek"},"geometry":{"type":"LineString","coordinates":[[-120.63863,39.7523],[-120.63824,39.75245],[-120.638,39.75261],[-120.63768,39.75278],[-120.6372,39.75283],[-120.63704,39.75287],[-120.63652,39.75308],[-120.6363,39.75321]]}},{"type":"Feature","properties":{"class":"intermittent","name":""},"geometry":{"type":"LineString","coordinates":[[-120.66127,39.72979],[-120.66041,39.72984]]}},{"type":"Feature","properties":{"class":"ephemeral","name":""},"geometry":{"type":"LineString","coordinates":[[-120.63404,39.76369],[-120.63343,39.76366],[-120.63299,39.76366]]}},{"type":"Feature","properties":{"class":"ephemeral","name":""},"geometry":{"type":"LineString","coordinates":[[-120.66081,39.72728],[-120.66063,39.72776],[-120.66049,39.72787],[-120.66056,39.72803]]}},{"type":"Feature","properties":{"class":"ephemeral","name":""},"geometry":{"type":"LineString","coordinates":[[-120.6142,39.71962],[-120.61354,39.72042],[-120.61315,39.72104]]}},{"type":"Feature","properties":{"class":"intermittent","name":""},"geometry":{"type":"LineString","coordinates":[[-120.61466,39.71627],[-120.6148,39.71652],[-120.61538,39.71711],[-120.6155,39.71736],[-120.6155,39.71759],[-120.61539,39.71774],[-120.61515,39.71796],[-120.61515,39.71813],[-120.61523,39.71831],[-120.61521,39.71859],[-120.61502,39.71878],[-120.61479,39.71888],[-120.61465,39.71899],[-120.61449,39.71928],[-120.61447,39.71944]]}},{"type":"Feature","properties":{"class":"ephemeral","name":""},"geometry":{"type":"LineString","coordinates":[[-120.64935,39.73438],[-120.64958,39.73461],[-120.6498,39.73533],[-120.64987,39.73571],[-120.64987,39.73653],[-120.64965,39.73708],[-120.64937,39.73747],[-120.64937,39.73785],[-120.64922,39.73812]]}},{"type":"Feature","properties":{"class":"ephemeral","name":""},"geometry":{"type":"LineString","coordinates":[[-120.61986,39.72417],[-120.61943,39.72422],[-120.61872,39.72461],[-120.61844,39.72466],[-120.61802,39.72501]]}},{"type":"Feature","properties":{"class":"ephemeral","name":""},"geometry":{"type":"LineString","coordinates":[[-120.63766,39.7612],[-120.63752,39.76207],[-120.63715,39.7627]]}},{"type":"Feature","properties":{"class":"ephemeral","name":""},"geometry":{"type":"LineString","coordinates":[[-120.6364,39.74042],[-120.63626,39.7408],[-120.63612,39.74107],[-120.63583,39.74135],[-120.63491,39.7419],[-120.63426,39.74217],[-120.63392,39.74217]]}},{"type":"Feature","properties":{"class":"intermittent","name":""},"geometry":{"type":"LineString","coordinates":[[-120.6597,39.73571],[-120.65948,39.73566],[-120.6592,39.7355],[-120.65834,39.73549],[-120.65792,39.73577],[-120.65742,39.73604],[-120.65628,39.73659],[-120.65535,39.73692],[-120.65499,39.73708],[-120.65464,39.73714],[-120.65453,39.73708]]}},{"type":"Feature","properties":{"class":"intermittent","name":""},"geometry":{"type":"LineString","coordinates":[[-120.66041,39.72984],[-120.65984,39.73033],[-120.65956,39.7305],[-120.65863,39.73088],[-120.65835,39.73094],[-120.65799,39.7311],[-120.65776,39.73111]]}},{"type":"Feature","properties":{"class":"ephemeral","name":""},"geometry":{"type":"LineString","coordinates":[[-120.65186,39.74241],[-120.6515,39.74224],[-120.651,39.74197],[-120.65029,39.74186],[-120.6489,39.74186]]}},{"type":"Feature","properties":{"class":"ephemeral","name":""},"geometry":{"type":"LineString","coordinates":[[-120.65076,39.73222],[-120.65101,39.73263],[-120.65137,39.73291],[-120.65172,39.73308],[-120.65215,39.73308]]}},{"type":"Feature","properties":{"class":"ephemeral","name":""},"geometry":{"type":"LineString","coordinates":[[-120.64144,39.76104],[-120.64158,39.76132],[-120.64179,39.76209],[-120.642,39.76247],[-120.64207,39.76264],[-120.64208,39.76275]]}},{"type":"Feature","properties":{"class":"perennial","name":""},"geometry":{"type":"LineString","coordinates":[[-120.63625,39.74346],[-120.63526,39.74382],[-120.63462,39.74417],[-120.63444,39.74424],[-120.63415,39.74431],[-120.63404,39.74437]]}},{"type":"Feature","properties":{"class":"ephemeral","name":""},"geometry":{"type":"LineString","coordinates":[[-120.63871,39.75412],[-120.6385,39.75412],[-120.6375,39.75428],[-120.63693,39.75444],[-120.63618,39.75462]]}},{"type":"Feature","properties":{"class":"ephemeral","name":""},"geometry":{"type":"LineString","coordinates":[[-120.63306,39.73257],[-120.63281,39.73241]]}},{"type":"Feature","properties":{"class":"ephemeral","name":""},"geometry":{"type":"MultiLineString","coordinates":[[[-120.629,39.73448],[-120.62864,39.7343]],[[-120.62842,39.7341],[-120.62808,39.73377],[-120.62776,39.73352]]]}},{"type":"Feature","properties":{"class":"intermittent","name":""},"geometry":{"type":"LineString","coordinates":[[-120.61801,39.73161],[-120.61759,39.7315],[-120.6174,39.73142],[-120.61711,39.73117],[-120.61686,39.73092],[-120.61605,39.72984],[-120.61596,39.72973],[-120.61576,39.7296],[-120.61535,39.72948],[-120.61497,39.72944],[-120.61477,39.72946],[-120.61441,39.72957],[-120.6141,39.72963],[-120.61381,39.72963]]}},{"type":"Feature","properties":{"class":"ephemeral","name":""},"geometry":{"type":"LineString","coordinates":[[-120.62202,39.73256],[-120.62138,39.73278],[-120.62032,39.73268],[-120.61947,39.73241],[-120.61933,39.73241]]}},{"type":"Feature","properties":{"class":"ephemeral","name":""},"geometry":{"type":"LineString","coordinates":[[-120.60654,39.73973],[-120.60443,39.74039]]}},{"type":"Feature","properties":{"class":"perennial","name":"Gray Eagle Creek"},"geometry":{"type":"LineString","coordinates":[[-120.65946,39.72723],[-120.6594,39.72734],[-120.65909,39.72829],[-120.65853,39.72951]]}},{"type":"Feature","properties":{"class":"ephemeral","name":""},"geometry":{"type":"LineString","coordinates":[[-120.65166,39.73108],[-120.65179,39.73192],[-120.65201,39.7328],[-120.65215,39.73308]]}},{"type":"Feature","properties":{"class":"perennial","name":"Mohawk Creek"},"geometry":{"type":"LineString","coordinates":[[-120.6063,39.72675],[-120.60605,39.72703],[-120.60572,39.72721],[-120.60551,39.72737],[-120.6052,39.72795],[-120.60483,39.7281],[-120.60445,39.72817]]}},{"type":"Feature","properties":{"class":"ephemeral","name":""},"geometry":{"type":"LineString","coordinates":[[-120.66247,39.73654],[-120.6619,39.73698],[-120.66162,39.73736],[-120.66162,39.73747],[-120.66112,39.73802],[-120.66084,39.7385]]}},{"type":"Feature","properties":{"class":"ephemeral","name":""},"geometry":{"type":"LineString","coordinates":[[-120.64016,39.76137],[-120.64036,39.76258],[-120.64042,39.76273]]}},{"type":"Feature","properties":{"class":"perennial","name":"Mohawk Creek"},"geometry":{"type":"LineString","coordinates":[[-120.60638,39.71859],[-120.60659,39.71919],[-120.60662,39.71945],[-120.60673,39.71959],[-120.60702,39.72056],[-120.60704,39.72083],[-120.60699,39.72109],[-120.60701,39.72125],[-120.60724,39.72155],[-120.60731,39.72175]]}},{"type":"Feature","properties":{"class":"perennial","name":"Gray Eagle Creek"},"geometry":{"type":"LineString","coordinates":[[-120.64576,39.74504],[-120.6456,39.74516],[-120.64545,39.74524],[-120.64505,39.74539],[-120.64487,39.74552],[-120.64483,39.7456],[-120.64464,39.74631],[-120.64466,39.74657],[-120.64473,39.74676],[-120.64486,39.747],[-120.64486,39.74709]]}},{"type":"Feature","properties":{"class":"ephemeral","name":""},"geometry":{"type":"LineString","coordinates":[[-120.62248,39.72399],[-120.62142,39.72443],[-120.62127,39.72443],[-120.62106,39.7246]]}},{"type":"Feature","properties":{"class":"ephemeral","name":""},"geometry":{"type":"LineString","coordinates":[[-120.61808,39.72368],[-120.61766,39.7239],[-120.61709,39.72439],[-120.61667,39.72461],[-120.61575,39.72495],[-120.61561,39.72495],[-120.61533,39.72517],[-120.61499,39.72534]]}},{"type":"Feature","properties":{"class":"ephemeral","name":""},"geometry":{"type":"LineString","coordinates":[[-120.61992,39.73765],[-120.62027,39.73781],[-120.62041,39.73781],[-120.62056,39.73792],[-120.62098,39.73784]]}},{"type":"Feature","properties":{"class":"ephemeral","name":""},"geometry":{"type":"LineString","coordinates":[[-120.66483,39.73078],[-120.66454,39.73078],[-120.66326,39.73056],[-120.66262,39.7304],[-120.66234,39.73023],[-120.66184,39.73006],[-120.66127,39.72979]]}},{"type":"Feature","properties":{"class":"ephemeral","name":""},"geometry":{"type":"MultiLineString","coordinates":[[[-120.6436,39.74147],[-120.64338,39.74202],[-120.64317,39.74224],[-120.64295,39.74289],[-120.6426,39.74339],[-120.64188,39.74404],[-120.64153,39.74454],[-120.64145,39.74476],[-120.64096,39.74558],[-120.64074,39.7458],[-120.63917,39.74668],[-120.63853,39.74679]],[[-120.63754,39.74678],[-120.63611,39.74667],[-120.6359,39.74657]]]}},{"type":"Feature","properties":{"class":"ephemeral","name":""},"geometry":{"type":"LineString","coordinates":[[-120.6465,39.73701],[-120.64823,39.73823],[-120.64922,39.73867]]}},{"type":"Feature","properties":{"class":"intermittent","name":""},"geometry":{"type":"LineString","coordinates":[[-120.61447,39.71944],[-120.61438,39.71982],[-120.61439,39.72014],[-120.61431,39.72034],[-120.6138,39.72071],[-120.61315,39.72104]]}},{"type":"Feature","properties":{"class":"intermittent","name":""},"geometry":{"type":"LineString","coordinates":[[-120.64922,39.73867],[-120.64937,39.73883],[-120.64965,39.73983],[-120.64995,39.74036]]}},{"type":"Feature","properties":{"class":"perennial","name":""},"geometry":{"type":"LineString","coordinates":[[-120.60921,39.72632],[-120.60913,39.72633]]}},{"type":"Feature","properties":{"class":"ephemeral","name":""},"geometry":{"type":"LineString","coordinates":[[-120.61913,39.73612],[-120.6192,39.73634],[-120.61949,39.73694],[-120.61992,39.73754],[-120.61992,39.73765]]}},{"type":"Feature","properties":{"class":"intermittent","name":""},"geometry":{"type":"LineString","coordinates":[[-120.6285,39.73968],[-120.62786,39.74027],[-120.62703,39.74075],[-120.62658,39.74106],[-120.62627,39.74138]]}},{"type":"Feature","properties":{"class":"perennial","name":""},"geometry":{"type":"LineString","coordinates":[[-120.63392,39.74217],[-120.63395,39.74237],[-120.63392,39.74263],[-120.63396,39.74281],[-120.63391,39.7435],[-120.63401,39.74374],[-120.63404,39.74412],[-120.63407,39.7442],[-120.63404,39.74437]]}},{"type":"Feature","properties":{"class":"perennial","name":"Frazier Creek"},"geometry":{"type":"LineString","coordinates":[[-120.62471,39.73524],[-120.62456,39.73551],[-120.62455,39.73605],[-120.62422,39.73656],[-120.62413,39.73687],[-120.62407,39.73702],[-120.62387,39.73723],[-120.62371,39.73729],[-120.62324,39.73735],[-120.62281,39.7376],[-120.62269,39.73762],[-120.62249,39.73764],[-120.62229,39.7376],[-120.62217,39.73761],[-120.62181,39.7377],[-120.62155,39.7377]]}},{"type":"Feature","properties":{"class":"intermittent","name":""},"geometry":{"type":"LineString","coordinates":[[-120.61718,39.73919],[-120.61695,39.73956],[-120.61669,39.73983],[-120.61631,39.74003],[-120.6159,39.74035],[-120.61579,39.74042],[-120.6155,39.74052],[-120.61493,39.74082],[-120.6147,39.74103],[-120.61454,39.74112]]}},{"type":"Feature","properties":{"class":"perennial","name":"Gray Eagle Creek"},"geometry":{"type":"LineString","coordinates":[[-120.65776,39.73111],[-120.65762,39.73167]]}},{"type":"Feature","properties":{"class":"ephemeral","name":""},"geometry":{"type":"LineString","coordinates":[[-120.61923,39.7269],[-120.61831,39.72707],[-120.61774,39.72723],[-120.61711,39.72761],[-120.61661,39.72805],[-120.61608,39.72848]]}},{"type":"Feature","properties":{"class":"perennial","name":"Frazier Creek"},"geometry":{"type":"LineString","coordinates":[[-120.62108,39.73775],[-120.62098,39.73784]]}},{"type":"Feature","properties":{"class":"ephemeral","name":""},"geometry":{"type":"LineString","coordinates":[[-120.61608,39.72848],[-120.61591,39.72849],[-120.61478,39.72888],[-120.61381,39.72963]]}},{"type":"Feature","properties":{"class":"ephemeral","name":""},"geometry":{"type":"LineString","coordinates":[[-120.62516,39.73773],[-120.62445,39.7385],[-120.62368,39.73922],[-120.62318,39.7396],[-120.62255,39.73987],[-120.62241,39.73998]]}},{"type":"Feature","properties":{"class":"ephemeral","name":""},"geometry":{"type":"LineString","coordinates":[[-120.64687,39.73873],[-120.64709,39.739],[-120.6473,39.73944],[-120.64737,39.73982],[-120.6473,39.74004]]}},{"type":"Feature","properties":{"class":"ephemeral","name":""},"geometry":{"type":"LineString","coordinates":[[-120.62346,39.72202],[-120.62304,39.72252],[-120.62198,39.7235],[-120.62177,39.72366],[-120.62155,39.72378],[-120.62092,39.72389],[-120.62021,39.72394],[-120.62,39.72406],[-120.61986,39.72417]]}},{"type":"Feature","properties":{"class":"intermittent","name":""},"geometry":{"type":"LineString","coordinates":[[-120.62083,39.75128],[-120.62088,39.75157],[-120.62083,39.75192],[-120.62073,39.7521],[-120.62062,39.75224],[-120.6202,39.75262],[-120.61996,39.75279],[-120.61936,39.75312],[-120.61922,39.75325],[-120.61882,39.75351],[-120.61866,39.75378],[-120.61854,39.75413],[-120.61854,39.75424],[-120.61861,39.75452]]}},{"type":"Feature","properties":{"class":"ephemeral","name":""},"geometry":{"type":"LineString","coordinates":[[-120.61697,39.72827],[-120.61676,39.72827],[-120.61608,39.72848]]}},{"type":"Feature","properties":{"class":"ephemeral","name":""},"geometry":{"type":"LineString","coordinates":[[-120.62026,39.73574],[-120.62026,39.73595],[-120.62041,39.7365],[-120.62084,39.73748],[-120.62098,39.73759],[-120.62108,39.73775]]}},{"type":"Feature","properties":{"class":"ephemeral","name":""},"geometry":{"type":"LineString","coordinates":[[-120.64623,39.73911],[-120.64637,39.73922],[-120.64659,39.73949],[-120.64687,39.73977],[-120.6473,39.74004]]}},{"type":"Feature","properties":{"class":"perennial","name":"Mohawk Creek"},"geometry":{"type":"LineString","coordinates":[[-120.60596,39.71673],[-120.60588,39.7172],[-120.60562,39.71768]]}},{"type":"Feature","properties":{"class":"perennial","name":"Gray Eagle Creek"},"geometry":{"type":"LineString","coordinates":[[-120.64749,39.7433],[-120.64705,39.74402],[-120.64696,39.74411],[-120.64667,39.74426],[-120.64644,39.7445],[-120.64576,39.74504]]}},{"type":"Feature","properties":{"class":"perennial","name":""},"geometry":{"type":"LineString","coordinates":[[-120.63404,39.74437],[-120.63386,39.74462],[-120.63349,39.74496],[-120.63288,39.74537],[-120.63246,39.74609],[-120.63199,39.74638],[-120.6318,39.74661],[-120.63132,39.74687],[-120.63116,39.74703]]}},{"type":"Feature","properties":{"class":"perennial","name":"Frazier Creek"},"geometry":{"type":"LineString","coordinates":[[-120.63018,39.73202],[-120.62973,39.73236]]}}]}