{"type":"FeatureCollection","features":[{"type":"Feature","properties":{"unit_id":101,"method":"Tractor","acres":97.4,"net_acres":72.0,"slope_mean":9.6,"slope_max":31.5,"aspect":"NE","elev_min":5539.3,"elev_max":5738.1,"cover_pct":85.2,"dom_ht":82.3,"road_ft":0.0,"landings":"10","landings_used":"4","corridors":"148","corridors_feasible":"18","coverage_pct":"51.4","equipment":"Long-span yarder","difficulty":"High","payload_at_best_lb":"10695","max_feasible_span_ft":"2368","mean_deflection_pct":"7.1"},"geometry":{"type":"Polygon","coordinates":[[[-120.66159,39.73018],[-120.66148,39.73101],[-120.66121,39.73106],[-120.6612,39.73143],[-120.66086,39.73145],[-120.66042,39.73183],[-120.66034,39.73211],[-120.66016,39.73217],[-120.66016,39.73261],[-120.66047,39.73266],[-120.66045,39.73309],[-120.6607,39.7335],[-120.66073,39.734],[-120.66061,39.7342],[-120.66039,39.73425],[-120.66037,39.73486],[-120.6603,39.73491],[-120.66026,39.7348],[-120.66037,39.73441],[-120.66029,39.73431],[-120.66015,39.73436],[-120.65985,39.73477],[-120.65983,39.7354],[-120.65964,39.73584],[-120.6585,39.73572],[-120.65832,39.7358],[-120.65742,39.73582],[-120.65701,39.7362],[-120.65687,39.73657],[-120.65649,39.73658],[-120.65621,39.73687],[-120.65568,39.73699],[-120.65512,39.73729],[-120.65458,39.73737],[-120.6544,39.73751],[-120.6534,39.73689],[-120.65336,39.73666],[-120.65295,39.73662],[-120.65295,39.73623],[-120.65255,39.73616],[-120.65255,39.7358],[-120.65274,39.73566],[-120.65276,39.73537],[-120.6533,39.73445],[-120.6535,39.7339],[-120.65407,39.73334],[-120.65467,39.73248],[-120.65511,39.73244],[-120.65551,39.73211],[-120.6555,39.73186],[-120.65525,39.73182],[-120.65526,39.7315],[-120.65555,39.73097],[-120.65572,39.73092],[-120.65574,39.73062],[-120.65623,39.7298],[-120.65736,39.72984],[-120.65746,39.73002],[-120.65775,39.73001],[-120.65783,39.72987],[-120.66129,39.73001],[-120.66159,39.73018]]]}},{"type":"Feature","properties":{"unit_id":102,"method":"Tractor","acres":36.3,"net_acres":23.5,"slope_mean":12.3,"slope_max":32.3,"aspect":"N","elev_min":5302.4,"elev_max":5553.6,"cover_pct":85.7,"dom_ht":89.4,"road_ft":0.0,"landings":"9","landings_used":"3","corridors":"131","corridors_feasible":"16","coverage_pct":"23.7","equipment":"Small yarder","difficulty":"Moderate","payload_at_best_lb":"12210","max_feasible_span_ft":"773","mean_deflection_pct":"9.7"},"geometry":{"type":"Polygon","coordinates":[[[-120.65439,39.73752],[-120.65366,39.73793],[-120.6531,39.73794],[-120.65128,39.73925],[-120.65121,39.73983],[-120.65098,39.74005],[-120.65025,39.74031],[-120.64995,39.7405],[-120.64966,39.74104],[-120.64896,39.74162],[-120.64883,39.74226],[-120.64806,39.74253],[-120.6477,39.74304],[-120.64689,39.74353],[-120.64679,39.74393],[-120.64624,39.74395],[-120.64621,39.74443],[-120.64603,39.74493],[-120.64586,39.745],[-120.64481,39.74464],[-120.64498,39.74447],[-120.64518,39.74444],[-120.64557,39.74384],[-120.64583,39.74378],[-120.6459,39.74328],[-120.64651,39.74317],[-120.64667,39.74241],[-120.64696,39.74206],[-120.64698,39.74181],[-120.64715,39.74172],[-120.64725,39.74141],[-120.64748,39.74126],[-120.6475,39.7409],[-120.64828,39.74079],[-120.64825,39.74007],[-120.64865,39.74008],[-120.64876,39.74023],[-120.64904,39.7402],[-120.64907,39.7397],[-120.64921,39.73958],[-120.64922,39.73923],[-120.64937,39.73918],[-120.64952,39.73839],[-120.65147,39.73665],[-120.65186,39.73665],[-120.65189,39.73683],[-120.65217,39.73685],[-120.65217,39.73712],[-120.65172,39.73718],[-120.65171,39.73757],[-120.65189,39.7377],[-120.65217,39.73769],[-120.65224,39.73745],[-120.65264,39.73743],[-120.65269,39.73711],[-120.65333,39.73707],[-120.6534,39.73689],[-120.65439,39.73752]]]}},{"type":"Feature","properties":{"unit_id":103,"method":"Tractor","acres":53.4,"net_acres":49.1,"slope_mean":23.4,"slope_max":35.6,"aspect":"E","elev_min":5015.9,"elev_max":5373.7,"cover_pct":82.2,"dom_ht":87.0,"road_ft":0.0,"landings":"11","landings_used":"4","corridors":"270","corridors_feasible":"59","coverage_pct":"72.8","equipment":"Long-span yarder","difficulty":"Moderate","payload_at_best_lb":"13406","max_feasible_span_ft":"1835","mean_deflection_pct":"9.7"},"geometry":{"type":"Polygon","coordinates":[[[-120.64579,39.75088],[-120.64578,39.75113],[-120.64563,39.75117],[-120.64557,39.75138],[-120.64531,39.75162],[-120.6453,39.75178],[-120.6449,39.75216],[-120.64449,39.75281],[-120.64389,39.75309],[-120.64357,39.75374],[-120.64334,39.75379],[-120.64333,39.75407],[-120.64298,39.75411],[-120.64295,39.75438],[-120.64271,39.75441],[-120.64062,39.75371],[-120.63978,39.75355],[-120.63998,39.75324],[-120.64001,39.75287],[-120.64041,39.75239],[-120.64162,39.75147],[-120.64209,39.75094],[-120.64275,39.75069],[-120.64304,39.75045],[-120.64334,39.74969],[-120.64314,39.74964],[-120.6428,39.7499],[-120.64284,39.74954],[-120.64371,39.74934],[-120.64386,39.74935],[-120.64396,39.74947],[-120.64409,39.74939],[-120.64407,39.74841],[-120.6443,39.74806],[-120.64452,39.74796],[-120.64437,39.74782],[-120.64437,39.74766],[-120.64481,39.74704],[-120.64501,39.74657],[-120.64495,39.74629],[-120.64505,39.74591],[-120.64483,39.74562],[-120.6449,39.74539],[-120.64516,39.74514],[-120.645,39.74504],[-120.64466,39.74508],[-120.64436,39.74534],[-120.64433,39.74609],[-120.64425,39.74621],[-120.644,39.74624],[-120.64398,39.7468],[-120.64361,39.74722],[-120.64378,39.74742],[-120.64382,39.74785],[-120.64384,39.74855],[-120.6437,39.74889],[-120.64341,39.74903],[-120.64273,39.74909],[-120.64229,39.74922],[-120.64216,39.74941],[-120.64214,39.74989],[-120.64147,39.75001],[-120.64093,39.75036],[-120.64097,39.74995],[-120.64197,39.749],[-120.64177,39.74871],[-120.64174,39.74793],[-120.64193,39.74774],[-120.64229,39.74775],[-120.64231,39.7483],[-120.64241,39.74837],[-120.64308,39.74832],[-120.64325,39.74801],[-120.64312,39.74749],[-120.6433,39.74746],[-120.64338,39.74731],[-120.64328,39.74678],[-120.64364,39.74659],[-120.64367,39.7463],[-120.64348,39.7462],[-120.64317,39.7462],[-120.64303,39.7465],[-120.64267,39.7465],[-120.64268,39.74608],[-120.64337,39.74606],[-120.64343,39.74558],[-120.64398,39.74554],[-120.64405,39.74524],[-120.6448,39.74464],[-120.64586,39.74499],[-120.64571,39.74529],[-120.6457,39.74563],[-120.64584,39.74573],[-120.64579,39.74822],[-120.64569,39.74828],[-120.64565,39.74817],[-120.64552,39.74816],[-120.64528,39.74846],[-120.64555,39.74855],[-120.6457,39.74874],[-120.64571,39.74914],[-120.64536,39.74931],[-120.64527,39.74952],[-120.64492,39.74956],[-120.6448,39.75001],[-120.64461,39.75003],[-120.64438,39.75028],[-120.64438,39.75049],[-120.64455,39.75059],[-120.64516,39.75044],[-120.64501,39.75079],[-120.64437,39.75128],[-120.64353,39.75167],[-120.64286,39.75252],[-120.64286,39.75289],[-120.64302,39.7529],[-120.64335,39.75274],[-120.64369,39.75241],[-120.64486,39.75168],[-120.64579,39.75088]],[[-120.64562,39.74713],[-120.6455,39.74683],[-120.64528,39.74677],[-120.6452,39.74717],[-120.64468,39.74741],[-120.64466,39.74769],[-120.64506,39.74767],[-120.64546,39.74738],[-120.64562,39.74713]]]}},{"type":"Feature","properties":{"unit_id":401,"method":"Cable","acres":29.5,"net_acres":26.2,"slope_mean":42.2,"slope_max":66.4,"aspect":"NW","elev_min":4581.5,"elev_max":4881.7,"cover_pct":93.8,"dom_ht":84.3,"road_ft":384.9,"landings":"3","landings_used":"0","corridors":"68","corridors_feasible":"0","coverage_pct":"0.0","equipment":"No feasible corridor","difficulty":"High","payload_at_best_lb":"","max_feasible_span_ft":"0","mean_deflection_pct":"0.0"},"geometry":{"type":"Polygon","coordinates":[[[-120.64582,39.76054],[-120.6456,39.76061],[-120.64557,39.76121],[-120.64539,39.76159],[-120.64486,39.76208],[-120.64446,39.76195],[-120.64413,39.76153],[-120.6439,39.76148],[-120.64366,39.76124],[-120.64272,39.76152],[-120.64204,39.76139],[-120.64198,39.76154],[-120.64238,39.76178],[-120.64266,39.76211],[-120.64247,39.76243],[-120.64241,39.76294],[-120.64225,39.76293],[-120.64206,39.7625],[-120.64171,39.76268],[-120.64137,39.76262],[-120.64098,39.76215],[-120.64077,39.76226],[-120.64033,39.76217],[-120.63985,39.76281],[-120.63961,39.76239],[-120.63925,39.7624],[-120.63877,39.76225],[-120.6384,39.76232],[-120.63788,39.76292],[-120.63746,39.76291],[-120.63738,39.76284],[-120.6373,39.7627],[-120.63735,39.76229],[-120.63726,39.76222],[-120.63694,39.76234],[-120.63669,39.76261],[-120.63635,39.76267],[-120.63636,39.76186],[-120.63687,39.76186],[-120.63722,39.76168],[-120.63776,39.76163],[-120.63795,39.76163],[-120.6381,39.76181],[-120.63873,39.76153],[-120.63939,39.76154],[-120.63941,39.76178],[-120.63966,39.76184],[-120.63985,39.76167],[-120.63977,39.76155],[-120.64,39.76148],[-120.64001,39.76119],[-120.63989,39.76111],[-120.64085,39.76099],[-120.64321,39.76028],[-120.64386,39.76026],[-120.64429,39.75946],[-120.64482,39.75924],[-120.64545,39.75921],[-120.64552,39.75929],[-120.64581,39.7593],[-120.64582,39.76054]],[[-120.63794,39.76203],[-120.63783,39.76189],[-120.63756,39.76207],[-120.63779,39.76217],[-120.63794,39.76203]],[[-120.64103,39.7615],[-120.64087,39.7614],[-120.64067,39.76154],[-120.64091,39.7617],[-120.64103,39.7615]],[[-120.64425,39.7613],[-120.64432,39.76079],[-120.64419,39.76074],[-120.64404,39.76096],[-120.64409,39.7613],[-120.64425,39.7613]]]}},{"type":"Feature","properties":{"unit_id":104,"method":"Tractor","acres":111.5,"net_acres":104.2,"slope_mean":13.5,"slope_max":33.2,"aspect":"N","elev_min":4850.7,"elev_max":5157.9,"cover_pct":85.8,"dom_ht":74.0,"road_ft":0.0,"landings":"8","landings_used":"1","corridors":"236","corridors_feasible":"17","coverage_pct":"4.0","equipment":"Small yarder","difficulty":"Moderate","payload_at_best_lb":"10671","max_feasible_span_ft":"635","mean_deflection_pct":"9.3"},"geometry":{"type":"Polygon","coordinates":[[[-120.64581,39.75891],[-120.64548,39.75901],[-120.64545,39.75921],[-120.64488,39.75923],[-120.64438,39.7594],[-120.64382,39.76028],[-120.64336,39.76026],[-120.64271,39.7604],[-120.64073,39.76102],[-120.63947,39.76111],[-120.63829,39.76096],[-120.63788,39.76109],[-120.63705,39.76109],[-120.63635,39.76121],[-120.63636,39.7602],[-120.63668,39.76003],[-120.6368,39.7597],[-120.63681,39.75919],[-120.63674,39.75911],[-120.63644,39.75909],[-120.63634,39.75894],[-120.63634,39.75637],[-120.63763,39.75583],[-120.63941,39.75442],[-120.63967,39.75409],[-120.63978,39.75355],[-120.64044,39.75365],[-120.64272,39.75441],[-120.6427,39.75451],[-120.64248,39.75458],[-120.64218,39.75503],[-120.64166,39.75527],[-120.64149,39.75561],[-120.64152,39.75589],[-120.64193,39.75591],[-120.64192,39.75619],[-120.64187,39.75655],[-120.6416,39.75678],[-120.64148,39.75723],[-120.64129,39.75736],[-120.64131,39.75796],[-120.64178,39.75804],[-120.64195,39.75842],[-120.64263,39.75799],[-120.64286,39.75647],[-120.64366,39.75655],[-120.64374,39.7568],[-120.64427,39.75676],[-120.64426,39.75648],[-120.64393,39.75645],[-120.64404,39.75584],[-120.64358,39.75579],[-120.6438,39.75479],[-120.64419,39.75481],[-120.64418,39.75527],[-120.64426,39.75534],[-120.6446,39.75531],[-120.64481,39.755],[-120.6458,39.75513],[-120.64581,39.75891]],[[-120.63874,39.7594],[-120.6388,39.7593],[-120.63868,39.75924],[-120.63812,39.75934],[-120.63804,39.75942],[-120.63826,39.75951],[-120.63874,39.7594]],[[-120.64156,39.75597],[-120.64148,39.75588],[-120.64113,39.75588],[-120.64065,39.75609],[-120.6406,39.75641],[-120.64045,39.75649],[-120.64048,39.75668],[-120.64135,39.75672],[-120.64156,39.75597]]]}},{"type":"Feature","properties":{"unit_id":402,"method":"Cable","acres":38.9,"net_acres":25.8,"slope_mean":53.9,"slope_max":79.4,"aspect":"NE","elev_min":4762.7,"elev_max":5335.7,"cover_pct":87.2,"dom_ht":103.8,"road_ft":51.0,"landings":"14","landings_used":"3","corridors":"374","corridors_feasible":"182","coverage_pct":"69.7","equipment":"Long-span yarder","difficulty":"Moderate","payload_at_best_lb":"18124","max_feasible_span_ft":"1931","mean_deflection_pct":"14.9"},"geometry":{"type":"Polygon","coordinates":[[[-120.64521,39.74514],[-120.64484,39.74554],[-120.64505,39.74589],[-120.64495,39.74632],[-120.64501,39.74659],[-120.64464,39.74735],[-120.64437,39.74768],[-120.64452,39.74797],[-120.64428,39.74809],[-120.64407,39.74843],[-120.64407,39.74945],[-120.64382,39.74957],[-120.64381,39.7494],[-120.64369,39.74935],[-120.64285,39.74954],[-120.64277,39.7497],[-120.64284,39.74978],[-120.64317,39.74963],[-120.64336,39.74966],[-120.64304,39.75046],[-120.64275,39.7507],[-120.64207,39.75096],[-120.64164,39.75146],[-120.64042,39.75239],[-120.63999,39.75292],[-120.63998,39.75325],[-120.63953,39.75432],[-120.63763,39.75585],[-120.63634,39.75637],[-120.63634,39.75609],[-120.6366,39.75588],[-120.63661,39.75572],[-120.63634,39.7556],[-120.63634,39.75492],[-120.63741,39.75462],[-120.63879,39.75389],[-120.63882,39.75306],[-120.63906,39.75281],[-120.63937,39.75281],[-120.63986,39.75199],[-120.63973,39.75191],[-120.63868,39.75217],[-120.6379,39.7526],[-120.63698,39.75276],[-120.63679,39.75296],[-120.63634,39.75305],[-120.63634,39.7518],[-120.63686,39.75169],[-120.63749,39.75168],[-120.63929,39.75122],[-120.6401,39.7509],[-120.64144,39.75001],[-120.64209,39.74992],[-120.64219,39.74975],[-120.64217,39.74934],[-120.64229,39.74921],[-120.64364,39.74893],[-120.64384,39.74835],[-120.64377,39.74744],[-120.6436,39.74725],[-120.64398,39.74679],[-120.64399,39.74623],[-120.64425,39.74619],[-120.64433,39.74608],[-120.64434,39.74537],[-120.64472,39.74505],[-120.64509,39.74504],[-120.64521,39.74514]],[[-120.64046,39.75163],[-120.64045,39.75153],[-120.64033,39.75151],[-120.6401,39.75174],[-120.64024,39.75179],[-120.64046,39.75163]],[[-120.64117,39.75117],[-120.64118,39.75107],[-120.64106,39.75103],[-120.64073,39.75126],[-120.64087,39.75131],[-120.64117,39.75117]]]}},{"type":"Feature","properties":{"unit_id":105,"method":"Tractor","acres":57.4,"net_acres":45.0,"slope_mean":20.7,"slope_max":34.8,"aspect":"N","elev_min":5148.7,"elev_max":5627.4,"cover_pct":94.3,"dom_ht":103.4,"road_ft":0.0,"landings":"9","landings_used":"4","corridors":"211","corridors_feasible":"62","coverage_pct":"69.1","equipment":"Medium yarder","difficulty":"Standard","payload_at_best_lb":"13734","max_feasible_span_ft":"1163","mean_deflection_pct":"9.9"},"geometry":{"type":"Polygon","coordinates":[[[-120.63707,39.73462],[-120.63673,39.73669],[-120.63648,39.73729],[-120.6355,39.73872],[-120.63495,39.73933],[-120.6346,39.74039],[-120.63443,39.74057],[-120.63413,39.74226],[-120.63332,39.74225],[-120.6336,39.74128],[-120.63349,39.7403],[-120.63363,39.74019],[-120.6344,39.73999],[-120.6345,39.73952],[-120.63438,39.73949],[-120.6336,39.7397],[-120.63305,39.73972],[-120.63276,39.74007],[-120.63252,39.74071],[-120.63157,39.73991],[-120.63118,39.7394],[-120.63005,39.73848],[-120.62955,39.73792],[-120.62998,39.73797],[-120.63085,39.73758],[-120.63115,39.73725],[-120.6311,39.73639],[-120.63127,39.73609],[-120.63228,39.73544],[-120.63327,39.7351],[-120.63362,39.73511],[-120.63417,39.73537],[-120.63447,39.73509],[-120.63619,39.73476],[-120.63664,39.73455],[-120.63707,39.73462]],[[-120.63314,39.73847],[-120.63322,39.73789],[-120.63308,39.7378],[-120.6328,39.73805],[-120.63284,39.73857],[-120.63314,39.73847]],[[-120.63569,39.73737],[-120.63524,39.73711],[-120.6345,39.73735],[-120.63336,39.73844],[-120.63329,39.73911],[-120.63344,39.73911],[-120.63378,39.73883],[-120.63413,39.73871],[-120.63433,39.73873],[-120.63459,39.73894],[-120.63472,39.73892],[-120.63506,39.73822],[-120.63545,39.7378],[-120.63547,39.73747],[-120.63569,39.73737]]]}},{"type":"Feature","properties":{"unit_id":106,"method":"Tractor","acres":88.6,"net_acres":73.5,"slope_mean":14.4,"slope_max":34.4,"aspect":"N","elev_min":4858.8,"elev_max":5203.9,"cover_pct":89.2,"dom_ht":97.3,"road_ft":0.0,"landings":"12","landings_used":"4","corridors":"265","corridors_feasible":"60","coverage_pct":"32.3","equipment":"Medium yarder","difficulty":"Moderate","payload_at_best_lb":"15293","max_feasible_span_ft":"1062","mean_deflection_pct":"10.4"},"geometry":{"type":"Polygon","coordinates":[[[-120.63454,39.74514],[-120.63425,39.74532],[-120.6341,39.74565],[-120.63405,39.74641],[-120.63383,39.74662],[-120.63339,39.74676],[-120.63279,39.74727],[-120.63277,39.74802],[-120.63253,39.74824],[-120.63251,39.74841],[-120.63191,39.74875],[-120.63164,39.74914],[-120.63165,39.74939],[-120.63187,39.74971],[-120.63218,39.74964],[-120.63222,39.74947],[-120.63242,39.74939],[-120.63307,39.74938],[-120.63303,39.74967],[-120.63239,39.74979],[-120.63233,39.74999],[-120.63161,39.7508],[-120.63165,39.751],[-120.63153,39.75077],[-120.63124,39.75076],[-120.63097,39.75057],[-120.63016,39.75085],[-120.62976,39.75049],[-120.62951,39.75041],[-120.62919,39.75047],[-120.62916,39.75059],[-120.62972,39.75096],[-120.63013,39.75092],[-120.63018,39.75108],[-120.62996,39.75116],[-120.62939,39.75104],[-120.62903,39.75064],[-120.62865,39.7504],[-120.62848,39.75013],[-120.62799,39.74978],[-120.6277,39.74967],[-120.62662,39.74955],[-120.62619,39.74786],[-120.62683,39.74714],[-120.62767,39.74625],[-120.62814,39.74622],[-120.62812,39.74611],[-120.62793,39.7461],[-120.62799,39.74595],[-120.62966,39.74421],[-120.63092,39.74392],[-120.63086,39.74413],[-120.63043,39.74428],[-120.6301,39.74463],[-120.63012,39.7448],[-120.63046,39.74493],[-120.63085,39.74471],[-120.6317,39.74461],[-120.63208,39.74438],[-120.63279,39.74361],[-120.63288,39.74327],[-120.63279,39.74279],[-120.63332,39.74225],[-120.63413,39.74226],[-120.63416,39.74245],[-120.6344,39.74248],[-120.63442,39.7426],[-120.63456,39.74263],[-120.63456,39.7429],[-120.63432,39.74296],[-120.6343,39.74325],[-120.63404,39.74362],[-120.63388,39.74367],[-120.63386,39.74409],[-120.63374,39.74431],[-120.63391,39.74467],[-120.63453,39.7446],[-120.63454,39.74514]]]}},{"type":"Feature","properties":{"unit_id":107,"method":"Tractor","acres":95.3,"net_acres":87.4,"slope_mean":19.5,"slope_max":34.6,"aspect":"NE","elev_min":5118.5,"elev_max":5402.2,"cover_pct":95.1,"dom_ht":102.7,"road_ft":0.0,"landings":"10","landings_used":"2","corridors":"246","corridors_feasible":"38","coverage_pct":"14.4","equipment":"Medium yarder","difficulty":"Moderate","payload_at_best_lb":"10113","max_feasible_span_ft":"1020","mean_deflection_pct":"10.7"},"geometry":{"type":"Polygon","coordinates":[[[-120.63254,39.74071],[-120.63203,39.74246],[-120.63208,39.74331],[-120.63192,39.74358],[-120.63154,39.74385],[-120.63095,39.74368],[-120.63092,39.74392],[-120.62969,39.74421],[-120.62719,39.74311],[-120.62657,39.74294],[-120.62535,39.74212],[-120.62359,39.74154],[-120.62344,39.74126],[-120.62286,39.74078],[-120.62327,39.74007],[-120.62334,39.7387],[-120.62447,39.73827],[-120.62506,39.73826],[-120.62525,39.73846],[-120.62555,39.73837],[-120.62564,39.73823],[-120.62541,39.7381],[-120.62585,39.73786],[-120.62614,39.73748],[-120.62722,39.73761],[-120.62724,39.73789],[-120.62789,39.73854],[-120.62822,39.73852],[-120.62868,39.73831],[-120.62899,39.73831],[-120.62905,39.73808],[-120.62929,39.73794],[-120.62955,39.73792],[-120.63006,39.73848],[-120.63119,39.7394],[-120.63158,39.73992],[-120.63254,39.74071]],[[-120.62512,39.73962],[-120.62502,39.7395],[-120.62475,39.73962],[-120.62463,39.73982],[-120.62467,39.74002],[-120.62483,39.74001],[-120.62512,39.73962]],[[-120.6277,39.74027],[-120.62756,39.74016],[-120.6264,39.74056],[-120.62596,39.74081],[-120.62579,39.74111],[-120.62592,39.74114],[-120.62687,39.74073],[-120.62726,39.74067],[-120.6277,39.74027]],[[-120.62755,39.74095],[-120.62756,39.74083],[-120.62728,39.74073],[-120.62728,39.74098],[-120.62755,39.74095]],[[-120.62907,39.74096],[-120.62898,39.74087],[-120.62885,39.74092],[-120.62868,39.74122],[-120.62873,39.74133],[-120.62894,39.74129],[-120.62907,39.74096]],[[-120.62927,39.7401],[-120.62911,39.7401],[-120.62909,39.74021],[-120.6293,39.74024],[-120.62927,39.7401]]]}},{"type":"Feature","properties":{"unit_id":403,"method":"Cable","acres":34.0,"net_acres":32.4,"slope_mean":43.2,"slope_max":64.1,"aspect":"N","elev_min":4660.0,"elev_max":4947.0,"cover_pct":97.2,"dom_ht":105.7,"road_ft":12.0,"landings":"21","landings_used":"2","corridors":"551","corridors_feasible":"124","coverage_pct":"52.4","equipment":"Long-span yarder","difficulty":"Moderate","payload_at_best_lb":"18305","max_feasible_span_ft":"2989","mean_deflection_pct":"14.6"},"geometry":{"type":"Polygon","coordinates":[[[-120.63176,39.75135],[-120.63172,39.75186],[-120.62997,39.75185],[-120.62925,39.75175],[-120.62881,39.75154],[-120.62848,39.75107],[-120.62763,39.75062],[-120.62752,39.75026],[-120.62704,39.7502],[-120.62677,39.75034],[-120.62655,39.75096],[-120.62592,39.75184],[-120.62539,39.75184],[-120.62515,39.7515],[-120.62463,39.75138],[-120.62415,39.75158],[-120.62397,39.75183],[-120.62318,39.75183],[-120.62271,39.75172],[-120.62253,39.75142],[-120.62213,39.75142],[-120.62178,39.75125],[-120.62157,39.75143],[-120.62153,39.75183],[-120.62103,39.75182],[-120.62106,39.75156],[-120.62086,39.75102],[-120.62096,39.75043],[-120.62062,39.75037],[-120.62029,39.75002],[-120.6192,39.74992],[-120.61884,39.74979],[-120.61874,39.74964],[-120.61899,39.74957],[-120.62059,39.74971],[-120.62089,39.7496],[-120.62141,39.74922],[-120.62179,39.74917],[-120.62198,39.7494],[-120.6218,39.75015],[-120.62182,39.75063],[-120.62198,39.75076],[-120.62255,39.75087],[-120.62353,39.75034],[-120.62447,39.74998],[-120.62559,39.75004],[-120.62663,39.74954],[-120.62762,39.74965],[-120.62804,39.7498],[-120.6285,39.75014],[-120.62873,39.75047],[-120.62899,39.7506],[-120.62923,39.75045],[-120.6296,39.75042],[-120.63021,39.75082],[-120.6309,39.75057],[-120.63129,39.75076],[-120.63156,39.75073],[-120.63176,39.75135]],[[-120.62555,39.75105],[-120.62523,39.75061],[-120.62499,39.75055],[-120.62494,39.75083],[-120.62518,39.7511],[-120.62544,39.75118],[-120.62555,39.75105]],[[-120.62579,39.75057],[-120.62595,39.75034],[-120.62581,39.75031],[-120.62566,39.75052],[-120.62579,39.75057]],[[-120.62965,39.75093],[-120.62928,39.75066],[-120.62912,39.75069],[-120.62938,39.75103],[-120.62962,39.75106],[-120.62965,39.75093]],[[-120.63018,39.75102],[-120.63,39.75095],[-120.6298,39.75106],[-120.63002,39.75116],[-120.63018,39.75102]]]}},{"type":"Feature","properties":{"unit_id":108,"method":"Tractor","acres":63.3,"net_acres":58.1,"slope_mean":18.3,"slope_max":32.5,"aspect":"N","elev_min":4939.3,"elev_max":5220.7,"cover_pct":96.7,"dom_ht":105.2,"road_ft":0.0,"landings":"10","landings_used":"3","corridors":"255","corridors_feasible":"68","coverage_pct":"23.8","equipment":"Small yarder","difficulty":"Moderate","payload_at_best_lb":"14741","max_feasible_span_ft":"751","mean_deflection_pct":"10.1"},"geometry":{"type":"Polygon","coordinates":[[[-120.62966,39.74424],[-120.62793,39.7461],[-120.62767,39.74616],[-120.62759,39.74637],[-120.62619,39.74787],[-120.62345,39.7466],[-120.62236,39.74589],[-120.62071,39.74511],[-120.62147,39.74444],[-120.62291,39.74397],[-120.62363,39.74339],[-120.6239,39.74283],[-120.624,39.74231],[-120.62389,39.74189],[-120.6236,39.74154],[-120.62537,39.74211],[-120.62657,39.74294],[-120.62712,39.74307],[-120.62931,39.744],[-120.62966,39.74424]]]}},{"type":"Feature","properties":{"unit_id":109,"method":"Tractor","acres":72.9,"net_acres":68.9,"slope_mean":14.3,"slope_max":34.3,"aspect":"N","elev_min":4684.8,"elev_max":5053.2,"cover_pct":93.2,"dom_ht":100.8,"road_ft":0.0,"landings":"10","landings_used":"3","corridors":"263","corridors_feasible":"30","coverage_pct":"21.3","equipment":"Medium yarder","difficulty":"Moderate","payload_at_best_lb":"14418","max_feasible_span_ft":"1013","mean_deflection_pct":"10.2"},"geometry":{"type":"Polygon","coordinates":[[[-120.62662,39.74955],[-120.62561,39.75004],[-120.62444,39.74999],[-120.62354,39.75034],[-120.62258,39.75087],[-120.62197,39.75076],[-120.62182,39.75064],[-120.6218,39.75012],[-120.62198,39.74944],[-120.62178,39.74918],[-120.62142,39.74922],[-120.62061,39.74971],[-120.61879,39.7496],[-120.61877,39.74972],[-120.619,39.74985],[-120.62028,39.75001],[-120.62062,39.75036],[-120.62097,39.75042],[-120.62086,39.751],[-120.62106,39.75171],[-120.62103,39.75182],[-120.62093,39.75182],[-120.62073,39.75138],[-120.62025,39.75094],[-120.62003,39.75109],[-120.61965,39.75101],[-120.61955,39.7513],[-120.61824,39.75099],[-120.61821,39.74933],[-120.61793,39.74878],[-120.61829,39.74879],[-120.61827,39.74839],[-120.61877,39.74732],[-120.61956,39.74647],[-120.61972,39.74602],[-120.61996,39.74572],[-120.62071,39.7451],[-120.62236,39.74588],[-120.62346,39.7466],[-120.62619,39.74787],[-120.62662,39.74955]],[[-120.61961,39.75048],[-120.61938,39.75021],[-120.61908,39.75016],[-120.61941,39.75082],[-120.61955,39.75077],[-120.61961,39.75048]]]}},{"type":"Feature","properties":{"unit_id":404,"method":"Cable","acres":51.2,"net_acres":49.4,"slope_mean":52.8,"slope_max":68.4,"aspect":"E","elev_min":4687.1,"elev_max":5207.1,"cover_pct":92.6,"dom_ht":104.9,"road_ft":0.0,"landings":"53","landings_used":"4","corridors":"2022","corridors_feasible":"205","coverage_pct":"61.2","equipment":"Intermediate support needed","difficulty":"Moderate","payload_at_best_lb":"13945","max_feasible_span_ft":"3493","mean_deflection_pct":"12.1"},"geometry":{"type":"Polygon","coordinates":[[[-120.624,39.74228],[-120.62371,39.74329],[-120.62334,39.7437],[-120.62281,39.74402],[-120.62147,39.74445],[-120.62008,39.7456],[-120.61973,39.74602],[-120.61956,39.74648],[-120.61904,39.74696],[-120.61856,39.74768],[-120.61825,39.74846],[-120.61832,39.74886],[-120.61805,39.74879],[-120.61794,39.74885],[-120.61822,39.7493],[-120.61825,39.75099],[-120.61959,39.75127],[-120.61956,39.75096],[-120.61938,39.75083],[-120.61898,39.75012],[-120.61927,39.75015],[-120.61961,39.75045],[-120.61958,39.75092],[-120.61997,39.75107],[-120.62027,39.75094],[-120.62074,39.75137],[-120.62093,39.75182],[-120.62014,39.75182],[-120.62034,39.75156],[-120.62011,39.7513],[-120.61982,39.75166],[-120.61983,39.75183],[-120.6188,39.7517],[-120.61859,39.75182],[-120.61825,39.75181],[-120.61757,39.7515],[-120.61743,39.75158],[-120.61739,39.75181],[-120.6174,39.74853],[-120.61778,39.74852],[-120.61782,39.74824],[-120.61773,39.74816],[-120.6171,39.74813],[-120.61795,39.74639],[-120.61832,39.74603],[-120.61834,39.7456],[-120.61856,39.74547],[-120.61909,39.74467],[-120.62055,39.74351],[-120.62105,39.74331],[-120.62215,39.74331],[-120.62244,39.74305],[-120.62237,39.74245],[-120.6215,39.74114],[-120.62134,39.74112],[-120.62122,39.74122],[-120.62107,39.74177],[-120.62093,39.74164],[-120.62088,39.74124],[-120.62109,39.74048],[-120.622,39.73976],[-120.62194,39.73967],[-120.62165,39.73961],[-120.62132,39.7388],[-120.62182,39.73883],[-120.6225,39.73865],[-120.62334,39.7387],[-120.62327,39.7401],[-120.62287,39.74076],[-120.62347,39.74128],[-120.6239,39.74188],[-120.624,39.74228]]]}},{"type":"Feature","properties":{"unit_id":110,"method":"Tractor","acres":62.0,"net_acres":56.8,"slope_mean":23.9,"slope_max":35.0,"aspect":"SE","elev_min":5137.5,"elev_max":5565.5,"cover_pct":83.8,"dom_ht":78.6,"road_ft":0.0,"landings":"9","landings_used":"2","corridors":"157","corridors_feasible":"10","coverage_pct":"13.9","equipment":"Small yarder","difficulty":"Moderate","payload_at_best_lb":"14812","max_feasible_span_ft":"832","mean_deflection_pct":"10.3"},"geometry":{"type":"Polygon","coordinates":[[[-120.62573,39.73063],[-120.62559,39.73146],[-120.62515,39.73146],[-120.62507,39.73166],[-120.62466,39.73172],[-120.62434,39.73207],[-120.62395,39.73209],[-120.6239,39.73226],[-120.62354,39.73243],[-120.6235,39.73262],[-120.62312,39.73279],[-120.62241,39.73352],[-120.62232,39.73423],[-120.62212,39.73431],[-120.62207,39.73451],[-120.62208,39.73472],[-120.62224,39.73477],[-120.62219,39.73503],[-120.62195,39.73521],[-120.62101,39.73501],[-120.6192,39.73547],[-120.61848,39.73496],[-120.6187,39.73471],[-120.6182,39.73401],[-120.61753,39.73347],[-120.61669,39.73299],[-120.61581,39.73206],[-120.61715,39.73081],[-120.62079,39.73012],[-120.62129,39.73051],[-120.62136,39.73041],[-120.62115,39.73008],[-120.62167,39.72987],[-120.62196,39.72999],[-120.62251,39.7305],[-120.62287,39.73063],[-120.62399,39.73063],[-120.62438,39.7304],[-120.6245,39.73018],[-120.62549,39.7303],[-120.62573,39.73063]],[[-120.61999,39.73271],[-120.61881,39.73226],[-120.61857,39.73224],[-120.61809,39.73238],[-120.61674,39.73185],[-120.61655,39.73189],[-120.6167,39.73223],[-120.6171,39.73263],[-120.61779,39.7329],[-120.61807,39.73291],[-120.6184,39.73274],[-120.61914,39.7329],[-120.61988,39.73288],[-120.62005,39.73283],[-120.61999,39.73271]],[[-120.62285,39.73135],[-120.62284,39.73123],[-120.62252,39.73113],[-120.61966,39.73061],[-120.61947,39.73067],[-120.61988,39.73104],[-120.62141,39.73167],[-120.62133,39.7318],[-120.62072,39.73212],[-120.6207,39.73236],[-120.62093,39.73257],[-120.62153,39.73225],[-120.6226,39.7319],[-120.62274,39.73172],[-120.62252,39.73155],[-120.62285,39.73135]]]}},{"type":"Feature","properties":{"unit_id":111,"method":"Tractor","acres":55.7,"net_acres":52.3,"slope_mean":18.5,"slope_max":34.4,"aspect":"E","elev_min":5102.0,"elev_max":5389.2,"cover_pct":91.2,"dom_ht":85.4,"road_ft":0.0,"landings":"11","landings_used":"3","corridors":"164","corridors_feasible":"20","coverage_pct":"16.9","equipment":"Small yarder","difficulty":"Moderate","payload_at_best_lb":"12457","max_feasible_span_ft":"981","mean_deflection_pct":"9.9"},"geometry":{"type":"Polygon","coordinates":[[[-120.62416,39.72848],[-120.62416,39.72876],[-120.62394,39.72893],[-120.62357,39.72899],[-120.62358,39.72923],[-120.62379,39.72927],[-120.62377,39.72966],[-120.62352,39.72976],[-120.6236,39.73001],[-120.62319,39.72998],[-120.62218,39.72963],[-120.62161,39.72958],[-120.62146,39.72969],[-120.62167,39.72988],[-120.62116,39.73008],[-120.62048,39.72974],[-120.62045,39.72994],[-120.62079,39.73012],[-120.61715,39.73081],[-120.61628,39.72721],[-120.61642,39.72717],[-120.61662,39.72681],[-120.61685,39.72668],[-120.61775,39.72673],[-120.6186,39.72647],[-120.61924,39.72653],[-120.62068,39.72688],[-120.62213,39.72699],[-120.62337,39.7274],[-120.62368,39.72782],[-120.62368,39.72796],[-120.62314,39.72798],[-120.62308,39.7281],[-120.62339,39.72825],[-120.62403,39.7283],[-120.62416,39.72848]]]}},{"type":"Feature","properties":{"unit_id":112,"method":"Tractor","acres":80.5,"net_acres":61.1,"slope_mean":17.1,"slope_max":34.8,"aspect":"NE","elev_min":4863.8,"elev_max":5305.2,"cover_pct":91.2,"dom_ht":88.8,"road_ft":0.0,"landings":"11","landings_used":"3","corridors":"203","corridors_feasible":"75","coverage_pct":"56.9","equipment":"Long-span yarder","difficulty":"Moderate","payload_at_best_lb":"18562","max_feasible_span_ft":"2423","mean_deflection_pct":"10.1"},"geometry":{"type":"Polygon","coordinates":[[[-120.62293,39.7268],[-120.61791,39.72602],[-120.61649,39.72633],[-120.61626,39.72648],[-120.61611,39.72675],[-120.61414,39.72585],[-120.61471,39.72554],[-120.61487,39.72532],[-120.61477,39.72519],[-120.6137,39.72521],[-120.61311,39.72507],[-120.61284,39.72538],[-120.61291,39.72559],[-120.61267,39.72555],[-120.61253,39.72536],[-120.6151,39.72104],[-120.61571,39.7198],[-120.61594,39.71957],[-120.6163,39.7203],[-120.61667,39.72055],[-120.6167,39.72082],[-120.61713,39.72085],[-120.6185,39.72183],[-120.61912,39.72217],[-120.61918,39.72261],[-120.6197,39.72263],[-120.61989,39.72304],[-120.62011,39.72292],[-120.62031,39.72319],[-120.62032,39.72343],[-120.62048,39.72348],[-120.62052,39.72388],[-120.62095,39.72407],[-120.62207,39.72562],[-120.62208,39.726],[-120.62239,39.72604],[-120.62293,39.7268]],[[-120.61644,39.72072],[-120.61592,39.72042],[-120.61575,39.72046],[-120.61574,39.72079],[-120.61599,39.72096],[-120.61632,39.72098],[-120.61644,39.72072]],[[-120.61851,39.72201],[-120.61804,39.72173],[-120.61731,39.72161],[-120.61682,39.7217],[-120.61695,39.72194],[-120.61723,39.72202],[-120.618,39.72202],[-120.61842,39.72213],[-120.61851,39.72201]],[[-120.62055,39.72519],[-120.62026,39.72477],[-120.62014,39.72438],[-120.61998,39.72434],[-120.61981,39.72459],[-120.61989,39.72508],[-120.62029,39.72534],[-120.6205,39.72531],[-120.62055,39.72519]]]}},{"type":"Feature","properties":{"unit_id":113,"method":"Tractor","acres":73.2,"net_acres":70.8,"slope_mean":22.2,"slope_max":35.0,"aspect":"NE","elev_min":5009.5,"elev_max":5425.7,"cover_pct":98.0,"dom_ht":103.8,"road_ft":137.4,"landings":"10","landings_used":"1","corridors":"91","corridors_feasible":"13","coverage_pct":"8.8","equipment":"Medium yarder","difficulty":"High","payload_at_best_lb":"7887","max_feasible_span_ft":"1342","mean_deflection_pct":"7.5"},"geometry":{"type":"Polygon","coordinates":[[[-120.61921,39.73866],[-120.61873,39.7405],[-120.61842,39.74093],[-120.6174,39.74011],[-120.61649,39.7396],[-120.61536,39.73907],[-120.61377,39.73852],[-120.61296,39.73806],[-120.61325,39.73717],[-120.61318,39.73668],[-120.61353,39.73616],[-120.6134,39.73571],[-120.61378,39.73528],[-120.61445,39.73303],[-120.61547,39.73271],[-120.61547,39.73296],[-120.61565,39.73307],[-120.61596,39.73288],[-120.61616,39.7329],[-120.61644,39.73317],[-120.61633,39.73344],[-120.61742,39.734],[-120.6177,39.73435],[-120.61806,39.73448],[-120.61854,39.73502],[-120.61919,39.73544],[-120.61886,39.73542],[-120.61844,39.73518],[-120.61822,39.7353],[-120.61839,39.73555],[-120.61903,39.73589],[-120.61899,39.7361],[-120.61869,39.73641],[-120.61887,39.73664],[-120.61873,39.73734],[-120.61903,39.73784],[-120.61921,39.73866]],[[-120.61582,39.73327],[-120.61567,39.73328],[-120.61568,39.7334],[-120.61586,39.7334],[-120.61582,39.73327]],[[-120.61693,39.73544],[-120.61683,39.73525],[-120.61629,39.73494],[-120.61598,39.73497],[-120.61596,39.73518],[-120.61656,39.73553],[-120.61674,39.73556],[-120.61693,39.73544]],[[-120.61867,39.73979],[-120.61847,39.73978],[-120.61829,39.74012],[-120.61833,39.74021],[-120.61859,39.74008],[-120.61867,39.73979]]]}},{"type":"Feature","properties":{"unit_id":405,"method":"Cable","acres":42.6,"net_acres":38.8,"slope_mean":50.7,"slope_max":69.3,"aspect":"N","elev_min":4648.5,"elev_max":5464.0,"cover_pct":96.7,"dom_ht":114.8,"road_ft":0.0,"landings":"33","landings_used":"3","corridors":"1464","corridors_feasible":"261","coverage_pct":"41.9","equipment":"Medium yarder","difficulty":"Moderate","payload_at_best_lb":"16567","max_feasible_span_ft":"1393","mean_deflection_pct":"11.8"},"geometry":{"type":"Polygon","coordinates":[[[-120.62195,39.73534],[-120.62147,39.73534],[-120.62089,39.73548],[-120.61993,39.73739],[-120.6198,39.73828],[-120.61966,39.73834],[-120.61965,39.73869],[-120.6195,39.73883],[-120.61932,39.73933],[-120.61917,39.74026],[-120.61836,39.74143],[-120.61842,39.74152],[-120.61864,39.74153],[-120.61972,39.74096],[-120.62035,39.74097],[-120.62009,39.74158],[-120.61975,39.74201],[-120.61756,39.74252],[-120.61664,39.74292],[-120.61585,39.74342],[-120.61523,39.74429],[-120.61504,39.74441],[-120.61353,39.74438],[-120.61052,39.74388],[-120.61028,39.74349],[-120.61024,39.74318],[-120.60985,39.74312],[-120.60946,39.74288],[-120.60916,39.74305],[-120.60918,39.74327],[-120.60907,39.7434],[-120.60825,39.74367],[-120.60798,39.74362],[-120.60793,39.74185],[-120.60852,39.74228],[-120.60916,39.74215],[-120.61129,39.74226],[-120.61163,39.74303],[-120.61181,39.74318],[-120.61351,39.7437],[-120.61413,39.74379],[-120.61457,39.74375],[-120.61535,39.74298],[-120.61601,39.74248],[-120.6169,39.74189],[-120.61759,39.74157],[-120.61839,39.74096],[-120.61873,39.74048],[-120.61921,39.73888],[-120.61904,39.73791],[-120.61872,39.73736],[-120.61887,39.73666],[-120.61868,39.73649],[-120.61781,39.73667],[-120.61837,39.7364],[-120.61876,39.73633],[-120.61903,39.73592],[-120.61829,39.73547],[-120.61823,39.73527],[-120.61847,39.73518],[-120.61887,39.73542],[-120.61918,39.73548],[-120.61993,39.73522],[-120.62111,39.73501],[-120.62195,39.73521],[-120.62195,39.73534]]]}},{"type":"Feature","properties":{"unit_id":114,"method":"Tractor","acres":116.3,"net_acres":95.2,"slope_mean":14.4,"slope_max":34.4,"aspect":"NE","elev_min":4608.3,"elev_max":4942.7,"cover_pct":84.5,"dom_ht":90.5,"road_ft":0.0,"landings":"12","landings_used":"4","corridors":"298","corridors_feasible":"78","coverage_pct":"44.3","equipment":"Long-span yarder","difficulty":"Moderate","payload_at_best_lb":"24589","max_feasible_span_ft":"1950","mean_deflection_pct":"12.7"},"geometry":{"type":"Polygon","coordinates":[[[-120.62237,39.74245],[-120.62241,39.74315],[-120.6222,39.7433],[-120.62108,39.74331],[-120.62068,39.74344],[-120.6191,39.74467],[-120.61857,39.74548],[-120.61835,39.7456],[-120.61832,39.74604],[-120.61796,39.7464],[-120.6171,39.74814],[-120.61446,39.74813],[-120.61447,39.74786],[-120.61487,39.74753],[-120.61612,39.74695],[-120.61645,39.74668],[-120.61621,39.7464],[-120.6162,39.74621],[-120.61604,39.74615],[-120.61607,39.74544],[-120.61611,39.7453],[-120.61654,39.74522],[-120.61654,39.74504],[-120.61642,39.74497],[-120.61648,39.74457],[-120.61685,39.74449],[-120.61687,39.744],[-120.61704,39.74392],[-120.61688,39.74355],[-120.61661,39.7436],[-120.61658,39.744],[-120.61609,39.74402],[-120.61601,39.74451],[-120.61567,39.74468],[-120.61561,39.74487],[-120.61544,39.7449],[-120.61542,39.74508],[-120.61521,39.74509],[-120.61496,39.74538],[-120.61476,39.74544],[-120.6148,39.74609],[-120.6142,39.74709],[-120.6135,39.74748],[-120.6126,39.74766],[-120.61255,39.74813],[-120.61166,39.74812],[-120.61166,39.74782],[-120.61156,39.74775],[-120.61016,39.74794],[-120.61,39.74812],[-120.60946,39.74812],[-120.60936,39.74798],[-120.60792,39.74803],[-120.60793,39.74351],[-120.60801,39.74364],[-120.60822,39.74367],[-120.60903,39.74341],[-120.60917,39.74328],[-120.60917,39.74302],[-120.6095,39.74288],[-120.60985,39.74311],[-120.61026,39.74319],[-120.61044,39.74381],[-120.6106,39.7439],[-120.61356,39.74438],[-120.61509,39.74439],[-120.61579,39.74346],[-120.61663,39.74292],[-120.61755,39.74252],[-120.61979,39.74197],[-120.62035,39.74098],[-120.62066,39.74099],[-120.62093,39.74051],[-120.62098,39.74018],[-120.62067,39.73947],[-120.62068,39.73918],[-120.6208,39.73895],[-120.62103,39.73879],[-120.62133,39.7388],[-120.62165,39.73961],[-120.62195,39.73966],[-120.62201,39.73977],[-120.6211,39.74047],[-120.62088,39.74126],[-120.62091,39.74153],[-120.6211,39.74156],[-120.62129,39.74113],[-120.62158,39.7412],[-120.62237,39.74245]],[[-120.61397,39.74619],[-120.61398,39.74604],[-120.61375,39.74609],[-120.61379,39.7462],[-120.61397,39.74619]]]}},{"type":"Feature","properties":{"unit_id":115,"method":"Tractor","acres":84.0,"net_acres":76.7,"slope_mean":13.9,"slope_max":32.1,"aspect":"E","elev_min":4904.2,"elev_max":5203.4,"cover_pct":92.8,"dom_ht":91.3,"road_ft":0.0,"landings":"11","landings_used":"4","corridors":"291","corridors_feasible":"94","coverage_pct":"36.1","equipment":"Medium yarder","difficulty":"Moderate","payload_at_best_lb":"10798","max_feasible_span_ft":"1174","mean_deflection_pct":"9.0"},"geometry":{"type":"Polygon","coordinates":[[[-120.61715,39.73082],[-120.61581,39.73204],[-120.61487,39.73104],[-120.61457,39.73088],[-120.6144,39.73096],[-120.61444,39.73125],[-120.61547,39.73234],[-120.61552,39.73271],[-120.61443,39.73304],[-120.61269,39.73266],[-120.61265,39.72989],[-120.60795,39.72983],[-120.60795,39.72896],[-120.60809,39.72818],[-120.60902,39.72779],[-120.6097,39.72774],[-120.61063,39.72779],[-120.61168,39.72743],[-120.61193,39.72728],[-120.61205,39.72705],[-120.61131,39.72677],[-120.61121,39.72664],[-120.6113,39.72647],[-120.612,39.72622],[-120.61344,39.7261],[-120.61414,39.72585],[-120.61612,39.72675],[-120.61606,39.727],[-120.61628,39.72721],[-120.61715,39.73082]]]}},{"type":"Feature","properties":{"unit_id":116,"method":"Tractor","acres":89.2,"net_acres":83.7,"slope_mean":14.0,"slope_max":29.1,"aspect":"NE","elev_min":4831.2,"elev_max":5095.8,"cover_pct":96.4,"dom_ht":101.6,"road_ft":0.0,"landings":"11","landings_used":"2","corridors":"245","corridors_feasible":"23","coverage_pct":"11.4","equipment":"Small yarder","difficulty":"High","payload_at_best_lb":"7824","max_feasible_span_ft":"608","mean_deflection_pct":"8.0"},"geometry":{"type":"Polygon","coordinates":[[[-120.61842,39.74094],[-120.61759,39.74159],[-120.6169,39.7419],[-120.616,39.7425],[-120.61457,39.74376],[-120.61381,39.74376],[-120.61174,39.74316],[-120.61138,39.74235],[-120.61125,39.74226],[-120.60921,39.74215],[-120.60863,39.74228],[-120.60839,39.74225],[-120.60793,39.74185],[-120.60794,39.73921],[-120.60924,39.73878],[-120.61114,39.73853],[-120.61297,39.73806],[-120.61378,39.73851],[-120.61535,39.73906],[-120.6165,39.73959],[-120.61739,39.7401],[-120.61842,39.74094]]]}},{"type":"Feature","properties":{"unit_id":117,"method":"Tractor","acres":82.2,"net_acres":67.3,"slope_mean":21.7,"slope_max":35.3,"aspect":"NE","elev_min":4699.0,"elev_max":5312.4,"cover_pct":92.6,"dom_ht":92.3,"road_ft":0.0,"landings":"11","landings_used":"3","corridors":"203","corridors_feasible":"28","coverage_pct":"30.6","equipment":"Medium yarder","difficulty":"Moderate","payload_at_best_lb":"9417","max_feasible_span_ft":"1332","mean_deflection_pct":"8.7"},"geometry":{"type":"Polygon","coordinates":[[[-120.61595,39.71954],[-120.61254,39.72536],[-120.61203,39.7252],[-120.61182,39.72499],[-120.61258,39.72459],[-120.61263,39.72438],[-120.61117,39.72436],[-120.61095,39.72422],[-120.61074,39.7238],[-120.61005,39.7239],[-120.60972,39.7236],[-120.60962,39.7231],[-120.60973,39.72292],[-120.61033,39.72254],[-120.61023,39.72224],[-120.60974,39.72216],[-120.60912,39.72238],[-120.60877,39.72264],[-120.60838,39.72332],[-120.60852,39.72367],[-120.60885,39.724],[-120.6084,39.72482],[-120.60856,39.72507],[-120.60878,39.72507],[-120.60947,39.72439],[-120.61017,39.7242],[-120.61041,39.72425],[-120.61059,39.7246],[-120.61125,39.7247],[-120.6114,39.72491],[-120.61133,39.72514],[-120.61116,39.72524],[-120.6103,39.72541],[-120.61004,39.72557],[-120.61015,39.72585],[-120.60958,39.72632],[-120.60971,39.72672],[-120.60926,39.72663],[-120.60902,39.72637],[-120.60915,39.72612],[-120.60876,39.7253],[-120.6083,39.72536],[-120.60813,39.72526],[-120.60815,39.72451],[-120.60796,39.72429],[-120.60796,39.72393],[-120.60807,39.72388],[-120.60823,39.72341],[-120.60824,39.72287],[-120.60798,39.72277],[-120.60805,39.72242],[-120.60831,39.72201],[-120.60823,39.72171],[-120.60832,39.72129],[-120.60823,39.7211],[-120.60797,39.72109],[-120.60798,39.71894],[-120.61169,39.71896],[-120.61131,39.71913],[-120.61119,39.71931],[-120.61192,39.71934],[-120.61207,39.71954],[-120.61192,39.71989],[-120.61198,39.72009],[-120.61246,39.72039],[-120.6129,39.72049],[-120.61333,39.72043],[-120.61365,39.72022],[-120.61284,39.7201],[-120.61234,39.71981],[-120.61227,39.71963],[-120.61246,39.71932],[-120.61238,39.71896],[-120.61569,39.71898],[-120.61595,39.71954]],[[-120.61075,39.71955],[-120.6107,39.71943],[-120.61026,39.71933],[-120.60915,39.71987],[-120.60858,39.71981],[-120.60849,39.71991],[-120.6087,39.72003],[-120.609,39.72003],[-120.61075,39.71955]],[[-120.61045,39.72186],[-120.61041,39.72174],[-120.61024,39.72176],[-120.60998,39.72189],[-120.60991,39.72205],[-120.6102,39.7221],[-120.61045,39.72186]],[[-120.61114,39.72048],[-120.61112,39.72035],[-120.61094,39.7204],[-120.61098,39.72051],[-120.61114,39.72048]],[[-120.61492,39.71949],[-120.61465,39.71944],[-120.61447,39.71965],[-120.61486,39.71966],[-120.61492,39.71949]]]}},{"type":"Feature","properties":{"unit_id":118,"method":"Tractor","acres":70.2,"net_acres":66.8,"slope_mean":14.9,"slope_max":27.4,"aspect":"E","elev_min":4887.4,"elev_max":5128.6,"cover_pct":96.4,"dom_ht":99.4,"road_ft":0.0,"landings":"12","landings_used":"3","corridors":"343","corridors_feasible":"63","coverage_pct":"19.3","equipment":"Small yarder","difficulty":"Moderate","payload_at_best_lb":"13645","max_feasible_span_ft":"779","mean_deflection_pct":"11.8"},"geometry":{"type":"Polygon","coordinates":[[[-120.61444,39.73304],[-120.61379,39.73529],[-120.61341,39.73573],[-120.61353,39.73618],[-120.61318,39.7367],[-120.61325,39.7372],[-120.61296,39.73807],[-120.61116,39.73853],[-120.60925,39.73878],[-120.60837,39.73913],[-120.60794,39.73921],[-120.60794,39.73347],[-120.61259,39.73349],[-120.61267,39.73342],[-120.61268,39.73266],[-120.61444,39.73304]]]}},{"type":"Feature","properties":{"unit_id":406,"method":"Cable","acres":35.1,"net_acres":22.7,"slope_mean":47.8,"slope_max":69.3,"aspect":"E","elev_min":4675.3,"elev_max":5036.3,"cover_pct":94.9,"dom_ht":100.2,"road_ft":319.3,"landings":"3","landings_used":"2","corridors":"41","corridors_feasible":"9","coverage_pct":"70.2","equipment":"Long-span yarder","difficulty":"Moderate","payload_at_best_lb":"5904","max_feasible_span_ft":"2645","mean_deflection_pct":"7.0"},"geometry":{"type":"Polygon","coordinates":[[[-120.61488,39.72529],[-120.61454,39.72568],[-120.61366,39.72605],[-120.61194,39.72624],[-120.61129,39.72649],[-120.61121,39.72661],[-120.61131,39.72675],[-120.61205,39.72704],[-120.61198,39.72724],[-120.61171,39.72742],[-120.6107,39.72778],[-120.60918,39.72777],[-120.6082,39.72809],[-120.60807,39.72825],[-120.60795,39.72896],[-120.60795,39.72649],[-120.60904,39.72685],[-120.60928,39.72676],[-120.60888,39.72652],[-120.60885,39.72635],[-120.60845,39.72603],[-120.60795,39.72602],[-120.60797,39.7243],[-120.60815,39.72449],[-120.60813,39.72526],[-120.60844,39.72535],[-120.60866,39.72519],[-120.60839,39.72481],[-120.60885,39.72404],[-120.60851,39.72368],[-120.60838,39.7233],[-120.60866,39.72276],[-120.60905,39.72241],[-120.60977,39.72215],[-120.6102,39.72222],[-120.61032,39.72232],[-120.61034,39.72255],[-120.60975,39.72291],[-120.60961,39.72316],[-120.60971,39.72356],[-120.60998,39.72387],[-120.61072,39.72378],[-120.61101,39.72427],[-120.61123,39.72437],[-120.61239,39.72433],[-120.61267,39.72439],[-120.6125,39.72465],[-120.61186,39.72494],[-120.61185,39.72507],[-120.61204,39.7252],[-120.61272,39.72545],[-120.613,39.72522],[-120.61302,39.72498],[-120.61365,39.7252],[-120.6147,39.72517],[-120.61488,39.72529]],[[-120.61138,39.72485],[-120.61125,39.7247],[-120.61055,39.72459],[-120.6103,39.72421],[-120.60944,39.72442],[-120.60869,39.72519],[-120.6091,39.72588],[-120.60917,39.72624],[-120.60909,39.72637],[-120.60926,39.72662],[-120.60953,39.72671],[-120.60965,39.72667],[-120.60959,39.72628],[-120.61015,39.72583],[-120.60997,39.72559],[-120.61029,39.7254],[-120.61125,39.72519],[-120.61138,39.72485]],[[-120.61173,39.72536],[-120.6115,39.72533],[-120.61131,39.72551],[-120.61167,39.72553],[-120.61179,39.72546],[-120.61173,39.72536]]]}}]}